Index_ID,Address,City,State,Zipcode
116062,1604 Red Fox in,Austin,TX,
85475,10512 Plains Trail in,Austin,TX,
12182,2600 Gracy Farms in,Austin,TX,
539,11313 Blairwood in,Austin,TX,
135882,7403 East Riverside in,Austin,TX,
83946,12403 Mellow Meadow in,Austin,TX,
60259,5013 Helfin in,Austin,TX,
84316,1518 Barton Springs in,Austin,TX,
10998,13021 Dessau Rd in,Austin,TX,
80574,3601 S Congress Ave in,Austin,TX,
27220,6905 Providence Avenue in,Austin,TX,
67658,1317 W 10Th in,Austin,TX,
120435,5511 Blue Bluff in,Travis,TX,
21062,5010 Westgate Blvd in,Austin,TX,
18587,1652 E 3Rd St in,Austin,TX,
35724,7300 Texas 71 in,Austin,TX,
114937,12125 Von Quintus Rd in,Travis,TX,
39113,6702 Cannonleague Dr in,Austin,TX,
12814,2408 Rockrige in,Austin,TX,
101707,2004 Petrified Forest in,Austin,TX,
65448,420 W Slaughter in,Austin,TX,
28992,11500 Jollyville Rd in,Austin,TX,
105705,8609 Talyne Chaise Cir in,Austin,TX,
98022,9410 Carson Creek Blvd in Del,Valle,TX,
129803,5210 S Interstate 35 Frontage Rd in,Austin,TX,
37541,5020 Manor Rd #130 in,Austin,TX,
88407,7933 Fm 973 in,Travis,TX,
26806,2321 Teri Rd in,Austin,TX,
76140,14811 Chicadee in,Pflugerville,TX,
17167,12330 Metric Blvd in,Austin,TX,
15028,4000 St Elmo in,Austin,TX,
61935,2504 Sunny Hills Dr in,Austin,TX,
123511,10205 North Lamar in,Austin,TX,
37996,6905 Telluride Trail in,Austin,TX,
136773,501 Woverton Dr in,Austin,TX,
72856,7202 Breezy Pass in,Austin,TX,
105502,6804 Old Lockhart Rd in,Creedmoor,TX,
72298,5701 Ainez in,Austin,TX,
119868,5310 George St. in,Austin,TX,
104513,201 Lavaca St in,Austin,TX,
122135,6502 S 1St in,Austin,TX,
65774,9117 Anderson Mill Rd in,Austin,TX,
96735,1208 Anise Dr in,Austin,TX,
47444,5237 E Hwy 71 in Del,Valle,TX,
91035,7005 Northledge Dr in,Austin,TX,
20537,10505 S Ih 35 in,Austin,TX,
139516,1001 Tayside Dr in,Pflugerville,TX,
79786,21424 Anne Shower Dr in,Travis,TX,
65482,51St And Manor in,Austin,TX,
23260,2903 Skylark in,Austin,TX,
63756,2300 Lakehurst Drive in,Austin,TX,
114078,2222/ Balcones in,Austin,TX,
98584,14801 Earl Grey in,Pflugerville,TX,
882,8714 Fm812 in,Austin,TX,
128251,8310 Annabella Dr in,Austin,TX,
22659,2122 Vanderbilt in,Austin,TX,
8071,601 W. 15Th St in,Austin,TX,
120312,1012 S. Meadows Dr. in,Austin,TX,
68090,3306 Etheredge Dr. in,Travis,TX,
31792,22585 Nameless Rd. in,Travis,TX,
93638,8310 Annabella Dr in,Travis,TX,
43247,7689 Dewau Ln in,Austin,TX,
122498,5009 Lott Ave in,Austin,TX,
18200,1006 E 7Th in,Austin,TX,
27294,38 1/2 St-Ih35 in,Austin,TX,
30683,7715 Hidden View in,Austin,TX,
98741,612 Hackberry in,Austin,TX,
89621,8904 Francia Trl in,Austin,TX,
102064,10000 N. Lamar in,Austin,TX,
89396,1105 N Meadows Dr in,Austin,TX,
74614,183/ I35 in,Austin,TX,
9104,5601 Pinon Vista Dr in,Austin,TX,
140943,8423 Elroy Rd in Del,Valle,TX,
39551,17006 Hayride in Del,Valle,TX,
122733,4718 S 183 in,Austin,TX,
91715,8827 Elroy Rd in,Travis,TX,
137805,51St & Lamar in,Austin,TX,
61483,8300 North Ih 35 in,Austin,TX,
21554,1652 W 6Th St in,Austin,TX,
137671,9100 Waterford Center Blvd in,Austin,TX,
77732,8300 Cross Park in,Austin,TX,
120631,8805 N Plaza Ct in,Austin,TX,
105494,201 Rowland in,Austin,TX,
88008,1195 Angelina St in,Austin,TX,
83666,2402 Burleson Ct Austin in,Austin,TX,
35772,1904 Poquito St in,Austin,TX,
75061,1071 Clayton Ln 1601 in,Austin,TX,
7707,8413 Riverstone Dr #A in,Austin,TX,
49313,7105 Meador Ave in,Austin,TX,
126535,3318 Dolphin Dr in,Austin,TX,
55163,1613 Pine Knoll in,Austin,TX,
86356,2619 Monarch Drive in,Austin,TX,
50382,9Th St And Chiom in,Austin,TX,
49561,2320 Teri Rd in,Austin,TX,
81216,6500 Auburnhill in,Austin,TX,
102466,5400 Springville Ln in,Austin,TX,
99549,8078 Thaxton Rd in,Austin,TX,
130077,8107 Springdale Dr in,Austin,TX,
34846,1555 E Hwy 71 in,Austin,TX,
46063,11504 Humber Cv in Del,Valle,TX,
47301,304 E Ben White Blvd in,Austin,TX,
45825,14304 Richard Walker Blvd in,Austin,TX,
133609,7709 Ranch Rd 620 N in,Austin,TX,
136856,13355 N Us Hwy 183 in,Austin,TX,
37406,9201 Circuit Of The Americas in,Austin,TX,
58671,2801 Well Branch Pwky in,Austin,TX,
82397,3508 Savage Springs Dr in,Austin,TX,
27202,5520 Stuart Cir in,Austin,TX,
102881,13014 Kenswick Dr in,Austin,TX,
117216,5503 Salem Walk in,Austin,TX,
55089,4607 Bolm Rd in,Austin,TX,
64493,2849 Ed Bluestein Blvd in,Austin,TX,
31725,12214 Fay St in,Manor,TX,
25880,10908 Roderick Lawson in,Austin,TX,
67690,8903 Dorella Ln in,Austin,TX,
110038,600 W Carrie Manor St in,Manor,TX,
109440,8238 Research Blvd in,Austin,TX,
126923,10108 Rawhide Trl in,Austin,TX,
129586,1500 Royal Crest in,Austin,TX,
116975,7609 Ponoma Trl in,Austin,TX,
61435,5901 S First in,Austin,TX,
21492,14100 Thermal Drive in,Austin,TX,
69986,12208 Ferrystone Cv in Del,Valle,TX,
92236,1205 Fairbanksdr. in,Austin,TX,
68640,10107 Fm 969 in,Austin,TX,
136023,6500 Champion Grandview in,Austin,TX,
135183,6110 Trade Center Blvd. in,Austin,TX,
23784,8110 Castle Peak in,Austin,TX,
119735,2005 Riverview Dr in,Austin,TX,
21739,1300 Singleton Ave in,Austin,TX,
47589,12724 Collindale Cv in,Austin,TX,
11017,12019 Bastrop St in,Manor,TX,
16805,9401 Capital Of Texas Highway in,Austin,TX,
78259,515 City Park Rd in,Pflugerville,TX,
97011,500 Block East Highway 183 in,Austin,TX,
95652,5300 Jimmy Clay in,Austin,TX,
3890,1700 Burton Dr #401 in,Austin,TX,
105039,1801 Thornberry Road in,Austin,TX,
88598,10701 South Ih35 in,Austin,TX,
123170,2808 Guadalupe St in,Austin,TX,
65932,805 Battle Bend in,Austin,TX,
46624,7216 Meador Ave in,Austin,TX,
54103,1404 Stonethrow Way in,Austin,TX,
3408,7200 Duval Apt 121 in,Austin,TX,
98428,2008 E Stassney Ln in,Austin,TX,
71271,7409 E Riverside Dr in,Austin,TX,
60574,8200 El Dorado Dr in,Austin,TX,
77272,4410 E Riverside Dr in,Austin,TX,
105232,13505 Byrds Nest in,Austin,TX,
112616,2500 Yosemite Dr in,Austin,TX,
37037,7100 Northeast Dr #105 in,Austin,TX,
46040,3118 Windsor Rd in,Austin,TX,
53807,1001 Lipan Trl in,Austin,TX,
101792,8305 Robin #101 in,Austin,TX,
143131,1308 Thornberry Dr in Del,Valle,TX,
7851,12412 Tay Terrace in,Austin,TX,
140043,8305 Roverstone Dr in,Austin,TX,
108713,8305 Riverstone Dr in,Austin,TX,
135906,5402 Northdale Dr. in,Austin,TX,
135057,4509 E St Elmo in,Austin,TX,
96597,13003 Rampart St in,Austin,TX,
47150,312 Bramble Dr in,Austin,TX,
61630,2102 Wagon Crossing in,Austin,TX,
30437,9506 Parkfield Dr in,Austin,TX,
3067,5660 Pinon Vista Dr in,Austin,TX,
98278,2109 Holly St in,Austin,TX,
79227,183 & Airport in,Austin,TX,
5419,7906 El Dorado Dr in,Austin,TX,
114380,520 Montopolis Drive in,Austin,TX,
135118,1904 Bitter Creek Dr in,Austin,TX,
128742,7101 W Highway 71 in,Austin,TX,
117314,1601 Haskell St in,Austin,TX,
5307,7900 Farm To Market Road 1826 in,Austin,TX,
41432,8701 W Parmer Ln in,Austin,TX,
9183,7601 Daffan Ln in,Travis,TX,
100,7619 E Ben White Blvd in,Austin,TX,
4814,7901 Burnet Rd in,Austin,TX,
33831,14813 Branding Iron Pass in,Austin,TX,
103179,2315 Rutland Dr in,Austin,TX,
140303,8210 North Ih 35 in,Austin,TX,
141361,78744 Frederick Ln in,Austin,TX,
129181,1530 Barton Springs in,Austin,TX,
75134,1423 Berene Ave in,Austin,TX,
90157,51St And Lancaster Dr in,Austin,TX,
47568,9201 Rowlands Sayle Rd in,Austin,TX,
132566,912 Kramer Ln in,Austin,TX,
39189,1801 Wells Branch in,Austin,TX,
101435,2015 Cedar Bend in,Austin,TX,
103890,5952 Hammermill Run in,Austin,TX,
132030,702 Tom Kite Dr in,Austin,TX,
114982,213 W Wild Sena in,Austin,TX,
94590,4010 Red Bird Trl in,Travis,TX,
56781,121 Woodward St in,Austin,TX,
85369,1807 W Slaughter Ln in,Austin,TX,
118994,1303 Bob Harrison in,Austin,TX,
70305,507 Delmar in,Austin,TX,
26659,4717 Misty Slope in,Austin,TX,
69900,2102 Willow St in,Austin,TX,
40549,2501 Wickersham Ln - Woodmeade Apartments in,Austin,TX,
89174,20906 Delorio St in,Manor,TX,
8418,410 Cool Springs Way in,Austin,TX,
51506,2307 Dawn Ridge Cir in,Austin,TX,
34744,11621 Maybach in,Travis,TX,
109271,10104 N Lamar Blvd in,Austin,TX,
31753,4511 Lucksinger Lane in,Austin,TX,
93266,12Th St And Airport in,Austin,TX,
80385,14000 Big Sandy Cv in,Travis,TX,
79795,6118 Fairway St in,Austin,TX,
22046,6105 Techni Center Drive in,Austin,TX,
125145,7608 Watson St #B in,Austin,TX,
53396,7711 Eastcrest Dr in,Austin,TX,
90241,3241 Winding Shore Ln in,Pflugerville,TX,
40885,8500 Bluff Springs in,Austin,TX,
9039,1601 E.Slaughter in,Travis,TX,
91333,9201 Circuit Of The Americas in,Travis,TX,
56700,210 Deen Ave in,Austin,TX,
18762,6212 Carnation Terrace in,Austin,TX,
52894,9300 S Ih35 in,Austin,TX,
139874,1133 Map St in,Austin,TX,
18272,2703 E 4Th St in,Austin,TX,
97921,6108 Wheless Cv in,Austin,TX,
49285,7010 Texas 71 in,Travis,TX,
88758,5204 Beryl Oak Drive in,Austin,TX,
43818,11413 Tom Sassman Rd in,Austin,TX,
723,1107 Lambie in,Austin,TX,
12653,7107 Brodie Ln in,Austin,TX,
41708,4500 S Interstate 35 in,Austin,TX,
130081,7607 Blessing Ave in,Austin,TX,
24085,1605 Spinel Rd in,Austin,TX,
2187,1901 W William Cannon Dr in,Austin,TX,
115896,10203 Longhorn Skyway in,Travis,TX,
111872,1803 E Anderson Ln. in,Austin,TX,
55242,1630 Wells Branch Pkwy in,Austin,TX,
124626,21001 Sandy Brown Ln in,Webberville,TX,
112892,6807 Blue Dawn Trl in,Austin,TX,
23271,7314 Gaines Mill Ln in,Austin,TX,
97845,907 Slaughter Lane in,Austin,TX,
105062,2421 Chateau Village Way in,Austin,TX,
117267,1819 Creole in,Austin,TX,
20206,3220 Duval Rd in,Austin,TX,
52502,808 Nile St in,Austin,TX,
116931,9300 Meadow Vale in,Austin,TX,
66415,1004 Hermitage Dr in,Austin,TX,
65658,1601 E Slaughter Ln in,Austin,TX,
119733,8310 N Capital Tx Hwy in,Austin,TX,
48668,4100 Victory Dr. in,Austin,TX,
133380,9059 Galewood Dr in,Austin,TX,
65508,6518 Pevensy Dr in,Austin,TX,
76753,4203 Tecace Trl in,Austin,TX,
25324,1708 in,Austin,TX,
93136,8071 N Lamar Blvd in,Austin,TX,
2880,13104 Viento Del Sur St in,Travis,TX,
62140,12609 Dessau in,Austin,TX,
39308,4500 U.S. 183 in,Austin,TX,
124038,26 Juniper Berry Ln in,Lakeway,TX,
36005,12211 Old Stage Trl in,Austin,TX,
27015,1917 Hearthstone in,Austin,TX,
1451,4600 Kind Way in,Travis,TX,
117431,91217 Lowden Ln in,Travis,TX,
108062,23107 Fulkes Ln in,Travis,TX,
75150,601 East 15Th St in,Austin,TX,
13401,2305 Park Ln. in,Travis,TX,
10940,1824 Bitter Creek Dr in,Austin,TX,
111081,3001 Oak Springs Rd in,Austin,TX,
59410,844 Airprt Blvd in,Austin,TX,
37452,8901 Pointer Lane in,Austin,TX,
70984,8308 Rockwood in,Austin,TX,
53678,1030 Norwood Park in,Austin,TX,
13040,5801 Ainez Dr (Dove Springs Park) in,Austin,TX,
25269,1605 Mckinley Ave. in,Austin,TX,
98170,15609 Us Hwy 290 E in,Travis,TX,
95179,45065 Felicity Ln in,Austin,TX,
141141,4501 Leslie Ave in,Austin,TX,
16653,2101 Jesse E. Segovia St (Fiesta Gardens) in,Austin,TX,
43350,5016 Navarro Creek in,Travis,TX,
94400,2800 Whirlaway in,Travis,TX,
7623,620 And Anderson Mill in,Austin,TX,
130466,2203 Blue Meadow Dr in,Austin,TX,
64343,4804 Loyola Ln #118 in,Austin,TX,
128195,600 W Carie Manor in,Manor,TX,
127768,8400 Linden Lp in,Travis,TX,
3715,4704 Louis Ave. in,Austin,TX,
128899,9206 Quail Rock Cir in,Austin,TX,
21187,1700 E Martin Luther King Jr & Salina in,Austin,TX,
36082,11008 Short Springs in,Austin,TX,
24464,6505 Bluff Springs Rd in,Austin,TX,
62702,7209 Lake Charles Dr in,Austin,TX,
37120,7304 Twin Crest Dr in,Austin,TX,
111640,1210 Cedar Ave in,Austin,TX,
30917,8601 Anderson Mill Dr in,Austin,TX,
17810,2515 Dovemeadow in,Austin,TX,
76027,4711 Creekbend Dr in,Austin,TX,
95034,8013 Colton Bluff in,Travis,TX,
22770,8900 Coulver Rd in,Travis,TX,
3568,4723 Castleman Dr in,Austin,TX,
112411,712 Fletcher St in,Austin,TX,
55062,10300 Taylor Lane in,Travis,TX,
18635,4404 Quicksilver Blvd in,Austin,TX,
117700,8617 Minot Cir in,Austin,TX,
92698,9202 Collinfield Dr. in,Austin,TX,
72796,1405 Glencrest in,Austin,TX,
8480,11407 Marshall Street in,Manor,TX,
89920,3200 Goodwin Ave in,Austin,TX,
75597,8410 Beech Street in,Austin,TX,
49776,6804 N Catpitol Of Texas Hwy #613 in,Austin,TX,
109810,14912 Fagerquist Rd in Del,Valle,TX,
23821,2001 Barton Springs Rd in,Austin,TX,
118575,606 W Slaughter Ln in,Austin,TX,
95113,1425 Wheatfall in,Austin,TX,
109895,2308 Wirtz Ave in,Austin,TX,
110940,209 Paleface Point #6 in,Travis,TX,
74413,6Th/San Antonio in,Austin,TX,
56380,2805 Linville Ridge Lane in,Pflugerville,TX,
58883,6801 Baythorne in,Austin,TX,
3722,4803 S. 183 in,Travis,TX,
1944,2212 Santa Rita in,Austin,TX,
97371,4405 Dovewood in,Austin,TX,
38824,2901 Parker in,Austin,TX,
127012,8401 Garcreek A in,Austin,TX,
112053,1800 21St St in,Austin,TX,
131304,8305 Steamline Cir in,Austin,TX,
126108,2600 Lake Austin Blvd in,Austin,TX,
131951,9022 Elroy Rd in,Travis,TX,
82719,3400 N Crispin Hill Ln in,Travis,TX,
109359,1434 Wells Branch Pkwy in,Pflugerville,TX,
5227,51St/ I35 in,Austin,TX,
49563,3301 Scott Dr Unit H in,Travis,TX,
52363,4703 Blue Meadow in,Austin,TX,
46963,1800 E 21St St in,Austin,TX,
20533,2300 Wagon Crossing in,Austin,TX,
104382,504 W 51St St in,Austin,TX,
82396,4810 Cottonwood St in,Austin,TX,
42121,2007 Kramer Ln in,Austin,TX,
100568,1630 W Wells Branch Pkwy in,Austin,TX,
129963,4601 Gillis in,Austin,TX,
35010,11537 Arbroath in,Austin,TX,
132624,10001 Faylin in,Austin,TX,
53759,3005 Crownover in,Travis,TX,
50262,13000 81 in,Travis,TX,
5314,5560 El Molino Cir in Del,Valle,TX,
123532,7009 South 1Ih N35 #113 in,Austin,TX,
139096,2501 West William Cannon Dr in,Austin,TX,
95906,9701 Airline Dr in,Austin,TX,
36804,8903 Pointer Lane in,Austin,TX,
70004,7205 Dougherty in,Austin,TX,
109770,6203 N Capital Of Texas Hwy in,Austin,TX,
55177,2004 Singing Brook in,Austin,TX,
139815,4508 Belfield Ln in,Austin,TX,
140310,2909 Balfour Falls Ln in,Austin,TX,
59893,9329 Northgate Blvd in,Austin,TX,
64186,1103 Richardine St in,Austin,TX,
126387,12829 Noche Clara in Del,Valle,TX,
19242,183 & Thunder Creek in,Austin,TX,
116961,615 Cardinal Ln in,Austin,TX,
85762,6002 Boxcar Run in,Austin,TX,
67493,2600 Scofield Ridge Pkwy in,Austin,TX,
50287,7311Chisos Pass in,Austin,TX,
113396,510 East 41St St in,Austin,TX,
42341,1100 Brodie St in,Austin,TX,
83261,10804 Mc Angus Rd in,Austin,TX,
43099,3317 Savage Springs in,Austin,TX,
35029,7204 Shelton in,Austin,TX,
29494,3914 Becker Ave in,Austin,TX,
3069,1101 Brushy Creek Rd in Cedar,Park,TX,
108424,9311 Brandts Wood Street in,Austin,TX,
20617,17720 Powder Creek Dr in,Manor,TX,
82263,3606 Southridge Dr in,Austin,TX,
108363,5107 Manchaca Rd in,Austin,TX,
114426,6813 Savanna Canyon Dr in,Travis,TX,
35413,6407 Springdale Rd in,Austin,TX,
20828,416 W 11Th St in,Austin,TX,
118961,63108 Wheless Cv in,Austin,TX,
5179,553 Robert E. Lee in,Austin,TX,
94597,1301 Spyglass Drive in,Austin,TX,
84621,40 N Ih 35 - Towers Of Town Lake Condominiums in,Austin,TX,
12587,600 Tudorhouse in,Travis,TX,
26182,1505 Melissa Oaks Ln in,Austin,TX,
111409,1906 Pearl St in,Austin,TX,
117911,51St/Manor in,Austin,TX,
115944,2100 Barton Springs in,Austin,TX,
85040,18228 Skysail Dr in,Manor,TX,
118892,15300 Springhill Ln in,Pflugerville,TX,
128215,1173 Lott Ave in,Austin,TX,
63422,8706 Merridian Oaks Ln in,Austin,TX,
133696,10607 Golden Quail Dr in,Austin,TX,
6989,4603 Commercial Park Dr in,Austin,TX,
34480,12Th St And Lavaca St in,Austin,TX,
102303,4803 Commercial Park Dr in,Austin,TX,
22428,1315 Wilson Heights in,Austin,TX,
48497,9900 Brasher Dr in,Austin,TX,
115076,7200 Flynn Cir in,Austin,TX,
71752,8519 Cahill in,Austin,TX,
1047,7010 Texas 71 in,Austin,TX,
18146,2102 Stafford St in,Austin,TX,
103250,414 Thompson Lane in,Austin,TX,
121641,1950 Webberville Rd in,Austin,TX,
15367,7112 Hillcroft Dr in,Austin,TX,
13769,2347 Douglas Street in,Austin,TX,
10330,1729 Wooten Park Dr #104 in,Austin,TX,
76743,1602 Center Point Ln in,Austin,TX,
27038,3814 Southway Dr #104 in,Austin,TX,
56884,2401 Lakeshore Blvd in,Austin,TX,
113546,2Nd St And Comal in,Austin,TX,
49516,118 Bluff Park Cir in,Travis,TX,
123365,1500 North Railroad Avenue in,Pflugerville,TX,
85644,8943 Martin Ln in,Travis,TX,
2451,3427 Parker Lane in,Austin,TX,
58107,1016 Camino La Costa in,Austin,TX,
65983,2508 E Riverside Dr in,Austin,TX,
19176,4609 Quicksilver Blvd in,Austin,TX,
103531,2801 Inridge Ln. in,Austin,TX,
116394,3607 Pevetoe in,Austin,TX,
25791,2302 East Willam Cannon in,Austin,TX,
107966,2101 Wickersham in,Austin,TX,
124493,736 Patchway Lane in,Austin,TX,
50267,5602 Hudson St in,Austin,TX,
87386,1008 Wagon Trl in,Austin,TX,
68290,"8552 N, 2104 in",Austin,TX,
53895,7610 Blessing Ave in,Austin,TX,
38201,4805 Santa Anna St in,Austin,TX,
55926,2614 Howellwood Way in,Austin,TX,
37605,2207 Bristol Dr in,Austin,TX,
136334,10701 Marshitas Way in,Austin,TX,
62756,6617 Piedras Blanco Dr in,Austin,TX,
52494,7301 Singleton Bend in,Austin,TX,
13140,7511 Shadywood Dr in,Austin,TX,
128047,17308 Albert Voelker Rd in,Travis,TX,
134920,401 Little Texas in,Austin,TX,
118447,5112 Glissman B in,Austin,TX,
95892,22608 Deidra Dr in,Austin,TX,
139311,5206 Village Trail in,Austin,TX,
105362,7132 Texas 71 in,Austin,TX,
125765,9405 Brodie Lane in,Austin,TX,
71308,2003 Belford Dr in,Austin,TX,
45540,5200 Bolm Road in,Austin,TX,
47030,917 E 50Th St in,Austin,TX,
28688,12010 Ranch Road 620 N in,Austin,TX,
89868,1901 Crossing Place in,Austin,TX,
74238,5317 Park At Woodlands Dr in,Austin,TX,
29328,4400 Button Bend Circle in,Austin,TX,
17668,210 B E Croslin Street in,Austin,TX,
123408,4214 Gillis St in,Austin,TX,
105554,1633 Royal Crest Dr 78741 in,Austin,TX,
120035,3002 Ellon Rd in Del,Valle,TX,
21746,1109 Bluebonnet in,Austin,TX,
95467,1000 E 11Th St in,Austin,TX,
78525,45Th And Caswell in,Austin,TX,
61218,409 E William Cannon Dr in,Austin,TX,
3259,4501 Sherwyn in,Austin,TX,
33456,9100 Waterford Centre Blvd in,Austin,TX,
133889,7227 E Hwy 290 #4204 in,Austin,TX,
99958,13324 Coomes Dr in Del,Valle,TX,
69757,14014 Hymill in,Pflugerville,TX,
117729,5401 E Mlk Blvd in,Austin,TX,
97155,12225 Hwy 290 in,Austin,TX,
65027,14820 Hamilton Pool Rd in,Austin,TX,
62508,1111 Bluebonnet in,Austin,TX,
48491,7400 Ih 35 Country Inn in,Austin,TX,
38313,2206 Blue Meadow Dr in,Austin,TX,
126246,4906 Birch Creek in,Austin,TX,
125999,3401 S I H 35 in,Austin,TX,
715,8515 S Ih 35 Apt 6225 in,Austin,TX,
78427,2004 Kirksey Dr in,Austin,TX,
101679,1109 Altum St. in,Austin,TX,
40625,1706 Fair Oaks Dr. in,Austin,TX,
96165,6409 Williamson in,Creedmoor,TX,
80384,4912 Fort Clark Dr. in,Austin,TX,
88556,2402 San Gabriel in,Austin,TX,
124123,1603 E Oltorf St in,Austin,TX,
95322,1305 East 3Rd Street in,Austin,TX,
80819,6613 Hergotz in,Austin,TX,
95193,3440 Willowrun Dr in,Austin,TX,
104516,13539 Wyoming Dr in,Austin,TX,
33789,1102 Manlove in,Austin,TX,
61546,4701 Teri Rd in,Austin,TX,
130974,4107 River Road in,Travis,TX,
97735,7607 Rutgers Ave. in,Austin,TX,
101599,701 Woodward in,Austin,TX,
137365,14300 Farm To Market 969 in,Austin,TX,
58371,2201 Montoplois Dr. #911 in,Austin,TX,
20370,507 Hickory Ridge Rd. in,Travis,TX,
4825,12329 Paloma Blanca Way in Del,Valle,TX,
123654,7606 Blessing Ave in,Austin,TX,
118059,400 W Anderson Ln in,Austin,TX,
44005,11809 Pinto Cir in,Travis,TX,
37983,11407 Marshall St in,Manor,TX,
84731,5905 Pino Ln in,Austin,TX,
27040,6303 Huntleigh Way in,Austin,TX,
66739,2406 Rosewood Ave in,Austin,TX,
133073,12002 Jess Dr in,Austin,TX,
47886,2809 E 3Rd in,Austin,TX,
71399,2000 Cedar Bend # 12105 in,Austin,TX,
71908,12305 Fay Street in,Manor,TX,
67354,300 Wilmes in,Austin,TX,
131564,11908 Anderson Mill Rd in,Austin,TX,
131224,"2421, Lot #59 in",Austin,TX,
7031,183 & Exchange Drive in,Austin,TX,
91266,1101 Elder Cir in,Austin,TX,
69990,5003 North Imperial Drive in,Austin,TX,
43238,12419 Metric Blvd. in,Austin,TX,
60715,911 Farm Market 1626 in,Austin,TX,
44135,5211 Village Path in,Austin,TX,
3244,803 West Annie in,Austin,TX,
105991,53Rd St & Depew in,Austin,TX,
28900,168 Enchanted Cv in,Austin,TX,
78574,6010 Marigold Ter in,Austin,TX,
58551,206 Provines Dr in,Austin,TX,
98687,1309 Westmoor Dr in,Austin,TX,
118565,1050 Springdale Rd in,Austin,TX,
57822,2404 Dartford in,Travis,TX,
68156,5129 Cameron Road in,Austin,TX,
119110,5237 E 71 in,Travis,TX,
10774,9200 North Plaza #2101 in,Austin,TX,
33172,7601 Daffan Lane in,Austin,TX,
94570,1000 Sahara Ave in,Austin,TX,
75468,2916 Salado in,Austin,TX,
88089,500 E. 7Th St. in,Austin,TX,
98626,5712 Meadow Crest in,Austin,TX,
66141,19801 Apple Springs Dr. in,Travis,TX,
116936,1615 Strickland in,Austin,TX,
30127,15023 Wells Port Dr in,Travis,TX,
42183,7619 Interstate 35 Frontage in,Austin,TX,
104086,12030 North Lamar Boulevard in,Austin,TX,
45512,8911 Black Oak Street in,Austin,TX,
98559,1806 Fair Oaks in,Austin,TX,
90444,2008 Justin Lane in,Austin,TX,
1298,2007 Conestoga in,Austin,TX,
97596,1525 Grand Ave Pkwy in,Austin,TX,
141681,2108 Mimosa Dr in,Austin,TX,
119543,1900 Bienville in,Austin,TX,
29963,3603 South Ridge Dr in,Austin,TX,
70310,508 E Howard Ln in,Travis,TX,
90085,6804 Bryn Mawr Drive in,Austin,TX,
104579,2000 Creole Dr in,Austin,TX,
13420,7500 Inspiration Dr in,Austin,TX,
46902,1126 D Denfiled in,Austin,TX,
141503,3522 E Martin Luther King Jr Blvd in,Austin,TX,
15705,2708 Willow St in,Austin,TX,
40264,6720 Roseborough Dr in,Austin,TX,
15904,1512 Koenig Ln in,Austin,TX,
16294,2218 Mission Hill Cir in,Austin,TX,
18187,4702 Kitty Ave in,Austin,TX,
131187,2600 North Lamar Boulevard in,Austin,TX,
82752,1615 E. Cesar Chavez in,Austin,TX,
87888,2809 Primwood Path in,Austin,TX,
30463,4403 E Stassney Ln in,Austin,TX,
39457,43Rd St And Red River in,Austin,TX,
91866,2919 West Ave in,Austin,TX,
129773,11965 Jollyville Rd in,Austin,TX,
30891,2307 W Rivera Dr in Cedar,Park,TX,
8314,7709 Huddleston Ln in,Austin,TX,
54295,1710 Waterston in,Austin,TX,
136918,7117 Woodhollow Dr in,Austin,TX,
5726,9213 Bentley Garner Ln in,Austin,TX,
100790,1005 Fairmount Ave in,Austin,TX,
89205,13720 Field Spar Dr in,Manor,TX,
57354,1301 Shoal Creek Blvd in,Austin,TX,
80390,1809 Passadena in,Austin,TX,
25173,3309 Esperanza Crossing in,Austin,TX,
117719,12345 Alameda Cir in,Austin,TX,
72804,1108 Christie Dr in,Austin,TX,
103239,6309 Del Monte Rd in,Austin,TX,
68478,1005 W Stassney Ln in,Austin,TX,
100592,14300 Hokanson Rd in,Travis,TX,
20055,54Th And Lamar in,Austin,TX,
113451,9109 Georgian Dr in,Austin,TX,
67845,917 Thompkins St in,Austin,TX,
143060,6804 Bryn Manor in,Austin,TX,
87179,1111 Rutland Dr. in,Austin,TX,
30477,500 W Canyon Ridge Dr in,Austin,TX,
114021,11503 Parsons Rd in,Manor,TX,
103354,2608 Gonzales St in,Austin,TX,
53259,1126 Denfield in,Austin,TX,
64432,1116 1/2 Gunter St in,Austin,TX,
23438,1306 Mckie Dr in,Austin,TX,
134954,1000 Holly St in,Austin,TX,
104708,9515 Hergotz in,Austin,TX,
98807,6011 Leisure Run in,Austin,TX,
79659,1307 St. John in,Austin,TX,
124333,603 Davis St #1209 in,Austin,TX,
8516,1509 E 13Th St in,Austin,TX,
142419,6306 Haney Dr in,Austin,TX,
38260,8600 W 71 in,Austin,TX,
122257,6305 Peggy St in,Austin,TX,
79494,6511 Moonglow in,Austin,TX,
4044,200 Duck Lake in,Lakeway,TX,
92568,3324 Ranch Road 620 S in,Travis,TX,
49305,4215 Caldwell Ln in Del,Valle,TX,
95207,8316 Reeda Ln in,Austin,TX,
118785,9500 Mcneil Dr in,Austin,TX,
133511,10412 Fm 969 in,Austin,TX,
115615,8804 Stambourne St in,Austin,TX,
29262,2304 Morelds St in,Austin,TX,
38405,2501 South Congress Avenue in,Austin,TX,
46637,8312 Hathaway Dr. in,Austin,TX,
55912,611 E 48Th St in,Austin,TX,
112459,11701 Metric Blvd #922 in,Austin,TX,
26261,9417 Great Hills Trl in,Austin,TX,
55783,12820 N Lamar Blvd in,Austin,TX,
6549,863 Airport Blvd in,Austin,TX,
97038,6106 Cherrylawn Cir in,Austin,TX,
77926,14024 Lampting Near The Pond in,Austin,TX,
59383,745 U.S. 183 in,Austin,TX,
23798,8801 S I-35 in,Austin,TX,
89698,6855 Us 290 Frontage Road in,Austin,TX,
104373,2110 W Slaughter Ln in,Austin,TX,
125641,1509 E 13Th in,Austin,TX,
105404,2800 Webberville Rd in,Austin,TX,
31175,214 Pedernales in,Austin,TX,
35550,12705 Encino Dr in,Travis,TX,
4405,1700 W. Dittmar Rd. in,Austin,TX,
124973,400 Ralph Alblanedo in,Austin,TX,
77283,6801 Northeast Drive in,Austin,TX,
25750,8801 N Ih 35 in,Austin,TX,
56084,13805 Long Shadow Drive in,Manor,TX,
62131,5616 Old Fredericksburg Rd in,Austin,TX,
57451,8621 Grandview in,Jonestown,TX,
111771,8538 Research Blvd in,Austin,TX,
37925,1215 Dalton in,Austin,TX,
94738,3220 Duval Rd #1510 in,Austin,TX,
12021,907 East Riverside in,Austin,TX,
43943,13204 Wright Rd in,Travis,TX,
8273,183/Ih-35 in,Austin,TX,
106550,3001 Michaocan Dr in,Travis,TX,
62633,4100 Ih 35 Sb Access Road in,Austin,TX,
111420,5705 Jacaranda Dr in,Austin,TX,
72653,6505 Burleson Rd in,Austin,TX,
58229,11350 Four Points in,Austin,TX,
127741,2800 Vernon Avenue in,Austin,TX,
51851,11005 Floral Park Dr in,Austin,TX,
20538,5503 Bevin Cove in,Austin,TX,
119400,6802 Brynmar in,Austin,TX,
106810,709 Dagon Drive in,Austin,TX,
124137,6700 Montana in,Austin,TX,
47602,60 Robert T Martinez Jr Street in,Austin,TX,
52324,6000 Turnstone in,Austin,TX,
46554,14738 Hornsby Hill in,Austin,TX,
99883,12440 Alameda Trace Circle in,Austin,TX,
41824,10400 Bitting School in,Travis,TX,
34272,7419 Vintage Hill Dr # C in,Austin,TX,
11398,1003 Meriden Ln in,Austin,TX,
62724,11616 N. Lamar in,Austin,TX,
31343,900 Linden St in,Austin,TX,
107230,9012 Sommerland Way in,Austin,TX,
23327,2403 Spring Wagon in,Austin,TX,
22052,11120 Maha Loop Rd in,Travis,TX,
9894,7058 Thistle Hill Way in,Austin,TX,
85753,4909 Lambs Ln in,Austin,TX,
100958,16401 Big Oak Cir in,Leander,TX,
95725,8729 Taline Chase Cir in,Austin,TX,
28793,507 Green Meadow St in,Pflugerville,TX,
6970,3112 Brass Buttons Trl in,Austin,TX,
65725,12345 Lamplight Village Ave in,Austin,TX,
39069,3713 Pappyes Way in,Austin,TX,
617,908 N Bend Dr in,Austin,TX,
30042,8515 S I35 in,Austin,TX,
25993,9110 Fm 812 in,Austin,TX,
9949,623 Blue Valley Dr in,Austin,TX,
47704,4502 Gillis St in,Austin,TX,
42560,4400 S Interstate 35 Frontage Rd in,Austin,TX,
97034,12812 John Adams St in,Manor,TX,
62972,8515 South Ih-35 in,Austin,TX,
73423,1000 East 41 St in,Austin,TX,
8265,1107 E. Anderson Ln in,Austin,TX,
17153,1502 W. Lakeland in,Austin,TX,
34930,14904 Hoot Owl Ct in,Travis,TX,
90524,809 Sirocco Dr in,Austin,TX,
53221,3220 Feathergrass Ct #9112 in,Austin,TX,
142680,909 Armadillo Rd in,Austin,TX,
115606,3212 Red River in,Austin,TX,
28941,1119 Lott Ave in,Austin,TX,
11989,2901 Parker Ln in,Austin,TX,
45213,411 Brazos St in,Austin,TX,
122011,15302 Strom in,Travis,TX,
32812,12005 Onion Hollow Run in,Austin,TX,
7506,14315 Old Manor Taylor in,Manor,TX,
97959,800 Guadalupe St. in,Austin,TX,
111580,7706 Lazy Ln in,Austin,TX,
39759,4502 Gillis St. in,Austin,TX,
60459,15771 Ih 35 in,Austin,TX,
20794,4605 Atlantis in,Austin,TX,
26492,9345 E Hwy 290 in,Austin,TX,
71450,4550 Mueller Blvd in,Austin,TX,
59165,7137 Walkup Ln in,Austin,TX,
46614,3909 S Lamar in,Austin,TX,
68335,8003 Persimmon Trl in,Austin,TX,
3540,3907 Danli in,Austin,TX,
135243,9401 Daffan Lane in,Austin,TX,
100129,5017 W Hwy 290 in,Austin,TX,
130198,7102 Townsborough in,Austin,TX,
23209,1001 Collinwood West #324 in,Austin,TX,
120104,14506 Navarro Creek Pass in,Travis,TX,
124382,2300 North Shields Dr. in,Austin,TX,
130028,1712 W. 10Th St. in,Austin,TX,
77295,3048 Steiner Ranch Blvd. in,Travis,TX,
97493,2333 Aldford Dr in,Austin,TX,
17022,7000 Decker Ln. in,Austin,TX,
137784,902 Bret Ln in,Austin,TX,
21417,12034 Research Blvd. in,Austin,TX,
78444,2805 Catalina Drive in,Austin,TX,
67877,3801 Berkman Dr in,Austin,TX,
94728,3002 Ellon in Del,Valle,TX,
87868,6013 S 1St in,Austin,TX,
52797,12310 Von Quintus Rd in,Travis,TX,
33700,513 Vargas Rd in,Austin,TX,
26508,2408 Pemberton Parkway in,Austin,TX,
7069,1500 W Anderson Ln in,Austin,TX,
129909,9909 Fm 969 in,Austin,TX,
114681,133717 Burnet Rd in,Austin,TX,
68268,4600 Hank Ave in,Austin,TX,
55556,9110 Fm 812 in,Travis,TX,
15575,13904 Old Hwy 20 in,Manor,TX,
59776,28510 Fine Rd in,Travis,TX,
22632,1600 Wickersham Lane in,Austin,TX,
74919,13034 Pond Springs in,Austin,TX,
143303,1113 Banaster Ln in,Austin,TX,
24274,12827 Ranch Road 620 North in,Austin,TX,
134333,2325 Deadwood in,Austin,TX,
64108,911 Westlake Dr in West Lake,Hills,TX,
69210,200 Congress Avenue in,Austin,TX,
89967,807 W Lynn St in,Austin,TX,
109101,2213 Kale Dr in,Austin,TX,
71104,5109 N Fm 620 in,Travis,TX,
13406,719 Crystal Mt Dr in,Austin,TX,
51902,9300 Northgate in,Austin,TX,
110573,13320 Pine Needle St in,Manor,TX,
112525,3401 Weberville Rd in,Austin,TX,
107674,7201 South Congress in,Austin,TX,
97081,2400 South Congress Avenue in,Austin,TX,
79601,1106 Maufrais in,Austin,TX,
137817,3700 Govalle Ave in,Austin,TX,
37460,2503 Bitter Creek in,Austin,TX,
38116,365 W Parsons St in,Manor,TX,
129009,914 Taulbee Ln in,Austin,TX,
93895,6301 Thirlmare Ct in,Austin,TX,
7639,11609 Crosstimber Dr in,Austin,TX,
122123,5204 Village Trail in,Austin,TX,
51955,12024 Plains Valley Dr in Del,Valle,TX,
45413,1000 San Marcos St in,Austin,TX,
12435,14000 The Lakes Blvd in,Austin,TX,
125263,2704 Saledo St in,Austin,TX,
128943,9417 Great Hills Trail in,Austin,TX,
109487,7907 Tapo Ln in,Austin,TX,
67800,2741 Kickapoo Cavern Dr in,Travis,TX,
137407,1614 Elmira in,Austin,TX,
86576,6302 Lost Horizon Dr in,Austin,TX,
18963,600 Mcneil Rd. in Round,Rock,TX,
131569,6511 Starstreak in,Austin,TX,
102657,10501 La Costa Dr in,Austin,TX,
96796,11911 Sunhillow Bnd in,Austin,TX,
83229,4159 Steck Ave in,Austin,TX,
44951,802 Glen Oak Dr. in,Austin,TX,
9055,6600 Ed Bluestein in,Austin,TX,
54683,11248 Tom Sassman in,Austin,TX,
36987,183/Fairfield in,Austin,TX,
33273,8220 W Hwy 71 in,Austin,TX,
53140,5900 Lux in,Austin,TX,
21539,3004 Glen Rae in,Austin,TX,
105381,5421 Summer Circle in,Austin,TX,
63597,7214 Salt Springs in,Austin,TX,
54933,701 S Capital Of Texas Hwy in,Austin,TX,
16346,12601 Grist Mill Cv in,Austin,TX,
116434,2407 Village Walk in,Austin,TX,
88333,124 West Anderson Ln in,Austin,TX,
31861,2703 Swisher in,Austin,TX,
11118,4601 Southwest Pkwy in,Austin,TX,
89944,1003 Hermitage Dr in,Austin,TX,
106512,130 Ralph Ablanedo in,Austin,TX,
135372,4714 Nuckols Crossing in,Austin,TX,
101789,5603 Purple Sage in,Austin,TX,
102609,12Th St And Webberville Rd in,Austin,TX,
15916,9008 Hunters Trce in,Austin,TX,
43685,4404 E Oltorf St in,Austin,TX,
36195,1100 Kingsbury St in,Austin,TX,
91525,1624 Whittard Of Chelsea Ln in,Pflugerville,TX,
37885,18420 Crestwind Cv in,Travis,TX,
37480,16612 Brayton Park Dr. in,Austin,TX,
24911,9212 Partridge Cir in,Austin,TX,
26656,5417 S Mopac Expy in,Austin,TX,
45632,3801 Manchaca Rd in,Austin,TX,
1905,20309 Crooked Stick Drive in,Travis,TX,
6269,12900 Dessau Junior High in,Austin,TX,
110741,2101 St Elmo in,Austin,TX,
11225,300 E Huntland Dr in,Austin,TX,
92920,5901 E. Stassney in,Austin,TX,
88193,6300 Highland Hills Dr in,Austin,TX,
89423,300 E 11Th St in,Austin,TX,
971,9807 Middle Fiskville Rd in,Austin,TX,
54754,1201 Browadmoor Dr in,Austin,TX,
1339,3930 Bee Caves Rd. in,Austin,TX,
59398,10402 Little Pebble Dr Unit A in,Austin,TX,
142979,1106 August in,Austin,TX,
56600,4902 Scarsdale Dr. in,Austin,TX,
27734,13040 Maidenhair Trl in,Travis,TX,
99577,9901 Big Boggy Trl in,Austin,TX,
7883,10712 Watchful Fox Dr in,Austin,TX,
87971,9110 Hwy 71 in,Austin,TX,
42663,710 E 41St St in,Austin,TX,
9676,7606 Basil Drive in,Austin,TX,
88610,6741 Sabrina in,Austin,TX,
93346,6010 Parkwood Dr in,Austin,TX,
96413,1130 Camino La Costa #310 in,Austin,TX,
99286,7310 Manchaca Rd in,Austin,TX,
86431,5300 Rogers in,Austin,TX,
114633,5300 Rogers Ln in,Austin,TX,
101376,1070 Mearns Meadow in,Austin,TX,
22730,15201 Burnet Rd in,Austin,TX,
40464,3815 Airport Blvd in,Austin,TX,
45438,8617 Spicewood Springs Rd #191 in,Austin,TX,
24282,2347 Douglas in,Austin,TX,
12152,12123 Boardwalk Dr in,Austin,TX,
142523,8011 Boyce Ln in,Travis,TX,
35538,3507 River Road in,Travis,TX,
818,9808 Oak Run Drive in,Austin,TX,
130724,302 Provines Dr in,Austin,TX,
102923,8807 Dulcet Drive in,Austin,TX,
12496,5401 Viewpoint Drive in,Austin,TX,
131621,14961 Swiss Dr in Del,Valle,TX,
22644,2243 Honecomb Hollow in,Travis,TX,
60615,1660 Chippeway Ln in,Austin,TX,
35466,1505 Ferguson Lane in,Austin,TX,
24300,1216 St Staislaws in,Austin,TX,
111526,2006 Deer Run Dr in,Austin,TX,
34610,14912 Running Deer Trl. in,Travis,TX,
99848,1518 Barton Springs Rd in,Austin,TX,
28010,3401 South Interstate 35 Frontage Road in,Austin,TX,
134667,7522 North Ih-35 in,Austin,TX,
57505,300 Vargas Rd in,Austin,TX,
22512,828 Airport Blvd in,Austin,TX,
114228,1901 Onion Creek Parkway in,Austin,TX,
58567,2106 Lamplight Village Cir Austin in,Austin,TX,
34282,14919 General Williamson Dr in,Lakeway,TX,
81206,1200 Montopolis Drive in,Austin,TX,
79445,2211 Palo Pinto in,Austin,TX,
57713,6505 Burleson Road in,Austin,TX,
29223,8810 Clarewood Dr in,Austin,TX,
85344,8210 Bent Tree Rd in,Austin,TX,
74080,4701 Staggerbrush Road in,Austin,TX,
122138,1602 Brown Bear Ln in,Travis,TX,
14547,10901 Wintergreen Hill in,Austin,TX,
27881,2803 Locke Ln B in,Austin,TX,
99148,15053 Swiss Dr in Del,Valle,TX,
89308,1824 S Ih35 in,Austin,TX,
108751,221 West Northland Blvd in,Austin,TX,
70375,7209 Curpin Cove in,Austin,TX,
698,6806 Branchwood Dr in,Austin,TX,
115244,7227 E 290 Hwy #5107 in,Austin,TX,
41370,12800 Harris Glenn Blvd in,Austin,TX,
62136,3215 Oakmont Blvd in,Austin,TX,
140258,6406 S Pleasent Valley Rd in,Austin,TX,
48855,7004 Scenic Brook in,Austin,TX,
70350,42 Waller St in,Austin,TX,
16459,418 Settlers Valley Trail in,Pflugerville,TX,
76572,2815 E. Hwy 71 #67 in,Austin,TX,
76629,2607A Howellwood Way in,Austin,TX,
55245,1054 Springdale Blvd. in,Austin,TX,
60547,51St And Cameron Rd in,Austin,TX,
142159,1304 Neans Dr in,Austin,TX,
17280,3012 Guerrero in Del,Valle,TX,
132474,6803 Greycloud in,Austin,TX,
124546,2301 N River Hills Rd in,Austin,TX,
43500,10911 Thaxton Rd in,Travis,TX,
100982,1000 W 26Th St in,Austin,TX,
132061,11708 Pillion Pl in,Manor,TX,
106396,18Th/Trinity in,Austin,TX,
109721,9604 Bock Rd in,Travis,TX,
103966,1401 E Runderberg Ln in,Austin,TX,
17203,2601 S Pleasant Valley Rd in,Austin,TX,
87989,5511 Salem Hill in,Austin,TX,
135500,1817 East Oltorf Street in,Austin,TX,
110616,6405 S I H 35 in,Austin,TX,
28291,1909 Bissel Ln in,Austin,TX,
95678,1708 Holly St in,Austin,TX,
74969,1300 Winstead Ln in,Austin,TX,
9451,9607 Carson Creek in Del,Valle,TX,
39316,3607 Catalina in,Austin,TX,
102376,6710 Starcrest Ln in,Austin,TX,
59265,11615 Reata in,Austin,TX,
9877,11615 Reata in,Travis,TX,
1427,6001 Shadow Valley Cv in,Austin,TX,
52853,11916 Gaelic Dr in,Austin,TX,
73706,7619 Interstate 35 Frontage Road in,Austin,TX,
123394,2607 Blessing Ave in,Austin,TX,
90023,1910 West Braker Lane in,Austin,TX,
9094,3903 Alexandra Dr in,Austin,TX,
30550,1306 Delano St in,Austin,TX,
112118,12609 Dessau Rd #558 in,Austin,TX,
12361,124111 Sparks Rd in,Manor,TX,
87395,6205 Betty Cook Dr. #A in,Austin,TX,
53918,5401 E Martin Luther King Jr Blvd in,Austin,TX,
6164,12016 Oaklynn Ct in,Travis,TX,
38616,12135 Thompkins Dr in,Austin,TX,
20292,6506 Williamson Rd in,Travis,TX,
4898,2004 Oak Motte Ln in,Austin,TX,
10543,12720 Door Bell Dr in,Manor,TX,
120251,183 And Anderson Mill in,Austin,TX,
136012,7312 Ladybug in,Austin,TX,
39794,7104 Fred Morse Dr in,Austin,TX,
17359,5800 Mckinney Falls Pkwy in,Austin,TX,
138920,12609 Desau Rd. in,Travis,TX,
125326,1941 Webberville Road in,Austin,TX,
114637,8515 S Ih35 in,Austin,TX,
120490,2511 Friar Tuck Ln in,Austin,TX,
62558,6921 Bennett in,Austin,TX,
64007,1127 Saucedo Street in,Austin,TX,
128254,7107 Grover Ave in,Austin,TX,
22124,3206 Bruce Dr in,Austin,TX,
20914,6301 Parmer Lane in,Austin,TX,
16954,16403 Summit in,Travis,TX,
18283,8709 969 #5 in,Austin,TX,
111131,13350 Water Oak Lane in,Austin,TX,
123912,2903 Spring Cir in,Austin,TX,
1619,183 And Georgian in,Austin,TX,
98936,13500 Lazyridge Dr in,Pflugerville,TX,
13585,6720 Ferrystone Pass in Del,Valle,TX,
10685,3001 S Congress Ave in,Austin,TX,
17811,7204 Creekside Dr in,Austin,TX,
11014,6900 E. Riverside in,Austin,TX,
130317,8300 Ih 35 North in,Austin,TX,
97275,11508 Dimmit St in,Travis,TX,
81231,8930 Galewood Dr in,Austin,TX,
137224,12660 Ballerstedt Dr in,Travis,TX,
23403,8509 Bisbee Ct in,Austin,TX,
9672,1713 E Riverside Dr in,Austin,TX,
70627,317 Artesian Dr in,Bastrop,TX,
14803,3005 E 12Th St in,Austin,TX,
134557,1809 Rogge in,Austin,TX,
76516,8225 N Fm620 in,Austin,TX,
102309,7802 Lonesome Dove Cv in,Austin,TX,
69882,8105 Criswood Pl in,Austin,TX,
113079,7101 South Mopac Expressway in,Austin,TX,
48090,1905 Pennsylvania Ave in,Austin,TX,
32736,2310 Bliss Spillar Road in,Austin,TX,
115489,5811 Cedardale Dr in,Austin,TX,
124233,1814 Colony Creek Dr in,Austin,TX,
79001,2771 Texas Hwy 71 in,Austin,TX,
127224,12Th And Chicon in,Austin,TX,
93144,9618 Chukar Cir in,Austin,TX,
94934,11240 Bitting School Rd in,Manor,TX,
115373,1819 West Parmer Lane in,Austin,TX,
110279,11517 Viridian Way in,Austin,TX,
34393,1104 1/2 Gunter St in,Austin,TX,
111822,1313 Delano St in,Austin,TX,
114101,52Nd St in,Austin,TX,
93271,2012 East Stassney Lane in,Austin,TX,
46701,2408 E. Stassney in,Austin,TX,
96533,1611 Payton Gin Rd in,Austin,TX,
47200,1434 Wells Branch Parkway in,Pflugerville,TX,
104037,9316 Morin Dr in,Travis,TX,
21362,10725 North Platt River Rd. in,Austin,TX,
28620,1917 Dry Season in,Austin,TX,
105399,8403 Mayview in,Austin,TX,
133158,2703 Pecan St in,Travis,TX,
94635,8800 Resesarch Taco Cabana in,Austin,TX,
38847,3101 Webberville Rd in,Austin,TX,
102330,1779 Wells Branch Pkwy in,Pflugerville,TX,
139274,14709 Navarro Creek Road in Del,Valle,TX,
11439,1404 Cedar Ave in,Austin,TX,
86138,8735 N. Lamar Blvd in,Austin,TX,
121441,969 And Decker in,Austin,TX,
115450,7309 Lazy Creek Dr in,Austin,TX,
12572,11901 Hobby Horse Crt in,Austin,TX,
119120,3501 Loyola in,Austin,TX,
127850,9609 Bear Paw Trl in,Austin,TX,
60578,5401 Blackjack Cv in,Austin,TX,
122279,1612 Meghan Ln. in,Austin,TX,
129258,5907 John F Kennedy in,Travis,TX,
33187,12508 Briarcreek Loop in,Manor,TX,
36009,46.5 in,Austin,TX,
122007,6006 Palm Circle in,Austin,TX,
93612,1024 East Anderson Lane in,Austin,TX,
57750,11000 Legends Lane in,Austin,TX,
100696,1400 Renaissance Ct in,Austin,TX,
69213,1109 Northcape Dr in,Austin,TX,
135726,1406 Suffolk Dr. in,Austin,TX,
86149,3414 Crownover St in,Austin,TX,
113167,21202 Cherry Hollow Court in,Travis,TX,
20751,2006 Carriage Park Ln in,Austin,TX,
63093,3300 Killingsworth Ln. #307 in,Pflugerville,TX,
78666,1100 Desirable Drive in,Austin,TX,
115543,1308 Thornberry Rd in Del,Valle,TX,
60651,7100 Northeast Dr in,Austin,TX,
140,8000 Topanga Ln in,Austin,TX,
10748,6105 Carolina Ln in,Travis,TX,
70895,2316 Teri Rd in,Austin,TX,
78624,1924 Valley Hill Cir #B in,Austin,TX,
1796,1120 Spur St in,Austin,TX,
138932,7500 Rialto Blvd in,Austin,TX,
44809,912 Banister Ln in,Austin,TX,
32661,3010 Meldrom St in Del,Valle,TX,
116723,3301 Hibbetts Rd in,Austin,TX,
132785,4419 Bellvue Ave 1/2 in,Austin,TX,
19126,7300 Gunnison Pass in,Austin,TX,
106105,5200 Knight in,Austin,TX,
95178,5200 Knight Cir in,Austin,TX,
98482,3913 Todd Lane in,Austin,TX,
109483,4509 Manzandillo Drive in,Austin,TX,
42893,3404 Plantation Rd in,Austin,TX,
71400,1016 N Meadows Dr in,Austin,TX,
118075,1620 E Riverside Dr #2072 in,Austin,TX,
49580,2120 East 7Th St in,Austin,TX,
59718,400 Ralph Ablanedo Dr in,Austin,TX,
55409,5307 S. Pleasant Valley Rd in,Austin,TX,
21891,2302 E William Cannon Dr in,Austin,TX,
78776,3605 Banda in,Travis,TX,
73817,610 Wilmes Dr in,Austin,TX,
46538,1400 Alguno Rd in,Austin,TX,
57699,9414 N Lamar Blvd in,Austin,TX,
88604,2501 S. Ih 35 #326 in,Austin,TX,
22611,3401 W Parmer Ln in,Austin,TX,
44751,10701 S. Ih 35 Frontage Rd in,Austin,TX,
117215,12310 Hulsey Rd in,Travis,TX,
23239,813 Emerald Wood Dr in,Austin,TX,
5407,908 Cedar Gln Building #15 in,Austin,TX,
55252,3014 W William Cannon Dr #1514 in,Austin,TX,
14086,234 East Oltorf in,Austin,TX,
45752,1901 East Anderson Lane in,Austin,TX,
16093,803 Cardiff Dr in,Austin,TX,
106699,7310 Meador in,Austin,TX,
96535,3002 East 18Th Street in,Austin,TX,
44912,14809 Chicadee in,Travis,TX,
139347,1221 Southport Dr in,Austin,TX,
71139,12909 Thomas Jefferson St in,Travis,TX,
140780,1802 Bumblebee in,Travis,TX,
20387,3212 Pearce Rd in,Austin,TX,
96143,12911 Covington Trl in,Austin,TX,
131664,12007 N Lamar Blvd #216 in,Austin,TX,
79433,17116 Dashwood Creek Dr in,Pflugerville,TX,
124549,4327 S 1St St 101 in,Austin,TX,
4944,620/Vista Ridge in,Travis,TX,
24133,5401 Brompton Cir #B in,Austin,TX,
9978,13255 N Hwy 183 in,Austin,TX,
73050,13838 The Lakes Blvd in,Austin,TX,
50598,2809 W William Cannon in,Austin,TX,
60972,8903 Pineridge Dr #A in,Austin,TX,
126971,10901 North Lamar Blvd in,Austin,TX,
141659,12714 Palfrey in,Austin,TX,
34031,4411 Spicewood Springs in,Austin,TX,
11569,1006 Banister Ln in,Austin,TX,
45591,8309 N Ih 345 in,Austin,TX,
84117,8906 Covey Ct in,Austin,TX,
36480,23Rd And Neches in,Austin,TX,
112400,13010 Tilghman Trail in,Austin,TX,
131305,7309 Lazy Creek in,Austin,TX,
57177,1101 1/2 Tillery in,Austin,TX,
104012,11000 Blk Sage Hollow in,Austin,TX,
13673,2215 Perry #104 in,Austin,TX,
141088,1507 Bender in,Austin,TX,
8986,2305 E. 16Th St. in,Austin,TX,
30286,14808 Parco Path in,Pflugerville,TX,
29477,13900 Long Hollow Loop in,Travis,TX,
124873,3300 Killingsworth Ln. in,Pflugerville,TX,
20501,1201 Peyton Gin Rd. in,Austin,TX,
107612,7601 Dixie in,Austin,TX,
130372,6905 Wentworth in,Austin,TX,
126735,3401 Parmer Ln in,Austin,TX,
15743,1717 W 35Th St in,Austin,TX,
39099,2511 Berkett Dr in,Austin,TX,
121061,9201 Circuit Of The Americas Blvd in Del,Valle,TX,
113047,903 W Meadowmere Ln in,Austin,TX,
35573,7801 Crazyhorse Dr in,Austin,TX,
64585,18701 Blake Manor Road in,Manor,TX,
71462,17308 E Darleen Dr in,Leander,TX,
16037,12508 Esplanade St in,Austin,TX,
72765,1101 Vasquez St in,Austin,TX,
122898,5701 Strathern in,Travis,TX,
15210,11405 Church Canyon Dr in,Austin,TX,
45088,19501 Perlange Pass in,Manor,TX,
25181,1430 Frontier Valley Dr in,Austin,TX,
101482,12151 in,Austin,TX,
133656,2111 E 9Th St in,Austin,TX,
92737,217 Cloudview in,Austin,TX,
110574,9620 Point Vista Pl in,Austin,TX,
67943,6203 Reicher Dr in,Austin,TX,
87779,3014 William Cannon in,Austin,TX,
51095,1103 Wheatley Ave in,Austin,TX,
116237,7400 N Ih 35 in,Austin,TX,
64728,4301 Gattis School Rd in,Travis,TX,
54572,5206 Village Trl in,Austin,TX,
112510,6800 Blue Dawn in,Austin,TX,
107114,11406 Catalonia Dr in,Austin,TX,
135943,10812 in,Austin,TX,
98493,8909 Briardale Dr in,Austin,TX,
60726,4500 Adelphi Ln in,Austin,TX,
45407,7106 Townsborough Dr in,Austin,TX,
35593,14225 Anita Marie in,Austin,TX,
67993,2916 Garwood St in,Austin,TX,
25208,1113 Banister Lane in,Austin,TX,
71835,17912 Cutback Dr in,Travis,TX,
28940,6001 Broken Spoke Trail in,Austin,TX,
107028,6700 West Gate Boulevard in,Austin,TX,
98555,5500 Ross Rd in,Austin,TX,
39148,7509 East Martin Luther King Junior Boulevard in,Austin,TX,
5069,110 Webberwood Way in,Travis,TX,
41915,11501 Georgia Coleman Bend in,Austin,TX,
8200,7613 Ladybug St in,Austin,TX,
53560,1206 Arthur Stiles in,Austin,TX,
31628,14745 Merrill Town in,Travis,TX,
20302,7259 Wardman Dr in Del,Valle,TX,
123371,6209 Emerald Forest Dr in,Austin,TX,
43337,500 East Anderson Lane in,Austin,TX,
70127,15416 Farm To Market Road 812 in Del,Valle,TX,
17906,900 Cougar Drive in,Austin,TX,
79238,5829 Kleberg Trl in,Austin,TX,
108390,1748 Ohlen Rd in,Austin,TX,
40592,3507 Susquehanna in,Austin,TX,
89722,1907 Ouida Dr in,Austin,TX,
107387,35 Robert T Martinez in,Austin,TX,
38920,709 Delmar in,Austin,TX,
74738,5800 Colton Rd in,Austin,TX,
37740,15208 Fm969 in,Travis,TX,
19964,600 West William Cannon Drive in,Austin,TX,
70694,14100 Joyce Dr in,Travis,TX,
123603,3303 Crownover St in,Austin,TX,
70850,1101 West Braker Lane in,Austin,TX,
56164,11704 Ralton Dr in Del,Valle,TX,
24331,6101 Perlita Dr in,Austin,TX,
117041,18421 Basketflower Bend in,Travis,TX,
83882,12214 Mustang Dr in Mustang,Ridge,TX,
71917,6904 Breezy Hill in,Austin,TX,
71398,6705 Cormarty Lane in,Austin,TX,
15866,9201 Circuit Of Americas Blvd in Del,Valle,TX,
94341,9801 South 1St Street in,Austin,TX,
48319,5207 Rogers Ln in,Austin,TX,
89660,7501 South Gate Lane in,Austin,TX,
69530,811 Audrey in,Austin,TX,
129939,10402 Little Pebble Dr in,Austin,TX,
112466,10700 Topperwein Dr in,Austin,TX,
12164,11917 Charing Cross Rd in,Austin,TX,
17958,2250 Ridgepoint in,Austin,TX,
109866,11936 Sunhillow Bend in,Austin,TX,
142637,5513 N Imperial Ln in,Travis,TX,
103502,1317 Green Pastures Dr in,Austin,TX,
125934,6300 Walnut Hills Dr in,Austin,TX,
101294,201 E Parsons Rd in,Manor,TX,
92782,6412 Colton Bluff in,Austin,TX,
96293,1710 E Oltrof St in,Austin,TX,
139881,2514 West Parmer Lane in,Austin,TX,
11338,504 Wilmes Dr in,Austin,TX,
113587,1927 Willow Creek in,Austin,TX,
118842,115 Havana in,Austin,TX,
101915,1211 Bonnie Brae B in,Austin,TX,
26740,14200 Dessau Rd in,Austin,TX,
102347,8626 Linden Rd in Del,Valle,TX,
52982,10911 Maha Loop Road in,Austin,TX,
26231,6300 Blk 1327 in,Austin,TX,
35088,9715 N Fm 620 in,Austin,TX,
57943,11705 Lapoynor St in,Manor,TX,
80370,11503 Parsons in,Travis,TX,
89923,7537 Cameron Road in,Austin,TX,
96922,9040 Elroy Road in Del,Valle,TX,
54955,8912 N Lamar in,Austin,TX,
22497,912 E 32Nd St in,Austin,TX,
123843,501 E 8Th St in,Austin,TX,
80208,1211 Bonnie Brae in,Austin,TX,
67162,1801 Anderson Ln #103 in,Austin,TX,
68065,15017 Stave Oak Ln. in,Austin,TX,
123363,402 Spicewood Springs in,Austin,TX,
95161,9715 Ochiltree Dr in,Austin,TX,
55889,12138 N. Lamar in,Austin,TX,
1270,5725 Trelawney in,Austin,TX,
36077,2206 Haskell in,Austin,TX,
120343,11704 Railton Dr in Del,Valle,TX,
137900,5307 Wasson Rd in,Austin,TX,
12968,2502 E Oltorf in,Austin,TX,
100542,3300 Manor Rd in,Austin,TX,
20555,8605 Altus Cove in,Austin,TX,
122605,16107 N 135 in,Austin,TX,
26815,2509 Ashley Way in,Austin,TX,
70330,8307 Fort Sumter Rd in,Austin,TX,
6333,514 Ramble in,Austin,TX,
138820,209 Schirra Pl in,Austin,TX,
105173,3601 West William Cannon Drive in,Austin,TX,
22911,7901 Bramble Drive in,Austin,TX,
132169,4812 Nuckols Crossing in,Austin,TX,
24801,1207 Faircrest Dr in,Austin,TX,
40643,7920 Old Lockhart Rd in,Travis,TX,
129793,8331 Fathom Cir in,Austin,TX,
54611,11020 Dessau Rd in,Austin,TX,
8170,10100 N Capital Of Texas Hwy in,Austin,TX,
30150,10917 S Interstate 35 Frontage Rd in,Austin,TX,
91775,2329 Bendridge Trl in,Austin,TX,
130810,6405 Clubway in,Austin,TX,
5086,18536 Blue Pond Dr in,Pflugerville,TX,
125192,408 Lightsey Rd in,Austin,TX,
73661,2705 Pectoral in,Austin,TX,
100518,916 East Koenig in,Austin,TX,
76060,2425 E Riverside Dr in,Austin,TX,
31078,815 E. 8Th in,Austin,TX,
103728,4715 Cypress Bend in,Austin,TX,
86877,4612 Glissman in,Austin,TX,
35915,824 Fairfield Dr in,Austin,TX,
56094,12907 Coridan Dr in,Austin,TX,
73921,3700 S Mopac in,Austin,TX,
91720,10209 Faylin Dr in,Austin,TX,
8184,5915 Old Lockhart Road in,Travis,TX,
59525,10201 Brownie in,Austin,TX,
97766,1004 Cherico St in,Austin,TX,
47809,4528 Credo in,Travis,TX,
31215,3711 S Mopac in,Austin,TX,
46914,12Th And Airport in,Austin,TX,
114828,3611 Pace Bend Rd S in,Travis,TX,
92853,15408 Ullman Dr in,Travis,TX,
22587,14209 Fort Smith in,Travis,TX,
124934,9911 Brodie Ln in,Austin,TX,
64955,1333 Warrington Dr in,Austin,TX,
56900,8911 Fm 973 in,Austin,TX,
129024,6909 Burnet Ln in,Austin,TX,
118012,4811 S Congress in,Austin,TX,
53804,6200 Walker Ln in,Austin,TX,
42302,5803 Wellington in,Austin,TX,
120568,7101 Astro View in,Austin,TX,
93126,9007 Blue Quail Dr in,Austin,TX,
38707,7709 E Ben White Blvd in,Austin,TX,
65003,912 Us Highway 183 S in,Austin,TX,
111651,1005 Ellingson Ln in,Austin,TX,
92855,9125 Manchaca Rd in,Austin,TX,
89574,1404 Marcus in,Austin,TX,
119662,4719 Castleman in,Austin,TX,
1135,1413 Muddy Waters Dr in,Pflugerville,TX,
55484,12022 South Highway 183 in,Travis,TX,
109179,8926 North Lamar Boulevard in,Austin,TX,
48684,11900 Fm 812 in,Travis,TX,
88056,7107 Appaloose Ct in Mustang,Ridge,TX,
140768,5909 Bolm Rd in,Austin,TX,
130361,1601 E Anderson Ln in,Austin,TX,
134887,183 And Ohlen Rd in,Austin,TX,
107251,13011 Irongate in,Austin,TX,
10974,12509 Terra Nova Ln in,Austin,TX,
3981,9302 Brents Elm Dr in,Austin,TX,
20589,5504 Larchbrook Dr in,Travis,TX,
54219,8005 Persimmon Trail in,Austin,TX,
112223,2306 Rachael Ct in,Austin,TX,
103450,6640 Isabelle Dr in,Austin,TX,
141876,3611 South Pace Bend Rd in,Travis,TX,
125694,1101 Wheatley Ave in,Austin,TX,
57961,1026 Clayton Ln in,Austin,TX,
99140,13812 Lazy Ridge Dr in,Pflugerville,TX,
32226,1422 North Ridge in,Austin,TX,
87698,1511 Faro Ln in,Austin,TX,
84246,201 E Parsons in,Manor,TX,
88173,3611 S Pace Bend Rd in,Travis,TX,
134422,2717 Parker Ln in,Austin,TX,
98581,31St & Ih35 in,Austin,TX,
46227,2525 West Anderson Lane in,Austin,TX,
51441,1636 E 3Rd St in,Austin,TX,
28039,4704 Rustown Dr in,Austin,TX,
103262,6102 Club Terrace in,Austin,TX,
110327,3401 Webberville Road in,Austin,TX,
134458,1906 Hearthston in,Austin,TX,
125729,1521 Sweet Leaf Lane in,Pflugerville,TX,
91875,1208 Fairfield in,Austin,TX,
27140,6914 Carwill in,Austin,TX,
107924,8001 S Ih 35 in,Austin,TX,
55452,6906 Meador Ave. #B in,Austin,TX,
18101,5Th St & Guadalupe in,Austin,TX,
98919,2222 And Riverplace Blvd in,Austin,TX,
13025,906 Westlake Dr in,Austin,TX,
41216,2011 Greenbrook Pkwy in,Austin,TX,
20920,11408 Tickford in,Travis,TX,
46943,9201 Brownie Ln in,Austin,TX,
40394,4811 S Congress Ave in,Austin,TX,
109507,3050 Tamarron in,Austin,TX,
137313,11106 Hialeah St in Del,Valle,TX,
127099,5412 Manor Rd in,Austin,TX,
25929,4200 Hampstead Ct in,Austin,TX,
134057,109 W Townes St in,Manor,TX,
4663,12300 Hymeadow Dr. #307 in,Austin,TX,
118929,6321 Parliament in,Austin,TX,
86019,917 Fieldwood Dr. in,Austin,TX,
48126,9927 Peterson Rd in Del,Valle,TX,
19583,4313 Shadowbrook Rl in,Austin,TX,
34765,14909 Cordero Dr in,Austin,TX,
117316,2300 W. Ben White Blvd in,Austin,TX,
131939,3005 S. Lamar in,Austin,TX,
89235,4601 Craigwood Dr in,Austin,TX,
34543,2310 Canterbury St in,Austin,TX,
35083,"9300, , Tx in",Austin,TX,
71446,3201 Northeast Dr in,Austin,TX,
120626,1500 Newton in,Austin,TX,
41105,11705 Manchaca Rd in,Austin,TX,
63589,6001 Airport Blvd in,Austin,TX,
122662,9102 Shepard Dr in,Austin,TX,
56977,1003 S 620 Rd in,Travis,TX,
83353,1605 Barney Dr in,Travis,TX,
50330,2107 Dove Springs Dr in,Austin,TX,
109906,2008 Alexander Ave in,Austin,TX,
31760,4509 Southwest Dr in,Austin,TX,
22148,510 Manchaca in,Travis,TX,
7375,17713 Wells Branch Pkwy in,Travis,TX,
14306,1161 Angelina St in,Austin,TX,
22701,4604 Gonzales in,Austin,TX,
134376,2815 E 71 #110 in,Austin,TX,
137131,11106 Persimmon in,Austin,TX,
33041,21506 Ann Showers in,Travis,TX,
39451,2900 Century Park Blvd in,Austin,TX,
3653,7115 Dee Gabriel Collins Rd in,Austin,TX,
44060,5508 Icon St in,Austin,TX,
18577,4810 Prock Ln in,Austin,TX,
107611,13401 Elm Grove Rd in Mustang,Ridge,TX,
29078,3516 Sand Dunes in,Austin,TX,
53689,9903 Cheryl Lynn in,Austin,TX,
93527,"510, Manchaca in",Travis,TX,
17735,12336 N Mopac Exprway in,Austin,TX,
8386,5500 Ross Rd in,Travis,TX,
135141,13101 Old Kimbro Rd in,Manor,TX,
99602,3110 Plantation Rd in,Austin,TX,
13352,4402 Hayride Ln in,Austin,TX,
82488,4360 South Congress Avenue in,Austin,TX,
68614,10601 Mcmillian in,Austin,TX,
98391,8127 Mesa Dr in,Austin,TX,
54022,1109 Canon Yeoman Trl in,Austin,TX,
138106,1422 Northridge in,Austin,TX,
3626,2613 W 49Th St in,Austin,TX,
101309,13016 S Madrone Trl in,Austin,TX,
22259,1802 Haskell St in,Austin,TX,
3810,2329 Bendridge in,Austin,TX,
32988,2329 Benridge Trl in,Austin,TX,
70107,2606 E 2Nd St in,Austin,TX,
113983,4502 Acres Ln in,Austin,TX,
142633,2804 Ware in,Austin,TX,
62865,1161 Eastfield Avenue in,Austin,TX,
121020,6701 Galindo St in,Austin,TX,
135382,9520 Quail Ct in,Austin,TX,
15853,6704 Galindo St in,Austin,TX,
8633,118616 Plains Valley Dr in,Travis,TX,
26747,12824 New Katy Ln in,Travis,TX,
26980,601 East Saint Johns Avenue in,Austin,TX,
11119,12213 Antoinette Place in,Austin,TX,
109096,359 The Ranch Rd in Del,Valle,TX,
125612,2604 Redleaf Ln in,Austin,TX,
96228,1881 Grove Boulevard in,Austin,TX,
101662,5508 Ridge Oak Dr in,Austin,TX,
101991,12004 Carmel Park Lane in,Austin,TX,
106896,9128 Texas Sun in,Austin,TX,
34108,10401 Sprinkle Rd in,Austin,TX,
47479,16297 Fm 1325 in,Austin,TX,
87377,2147 Sage Creek Loop in,Austin,TX,
80107,8312 Ih35 N in,Austin,TX,
73264,15812 Sambuca Cir in,Austin,TX,
43900,3018 Jubilee Trl in,Austin,TX,
127740,7314 Gaines Mill in,Austin,TX,
13417,11118 Dessau Rd in,Austin,TX,
104950,8800 Burnet Rd in,Austin,TX,
114584,1910 Hearthside Dr. #102 in,Austin,TX,
90522,1300 Luna St in,Austin,TX,
31562,1413 Muddy Waters Dr in,Austin,TX,
52892,11123 Old Lockhart Rd in,Austin,TX,
113401,11217 Doyle Overton Rd in Del,Valle,TX,
117945,5602 Honeybee Bend in,Austin,TX,
20435,12402 Knoll Ridge Dr in,Austin,TX,
35555,16301 Parkview Dr in,Austin,TX,
23684,6001 Emerald Forest in,Austin,TX,
99887,6710 Burnet Ln in,Austin,TX,
101563,4502 Turnstone Dr in,Austin,TX,
138655,8530 Maine Dr in,Austin,TX,
111309,614 Irma Dr. in,Austin,TX,
96821,812 And 183 in Del,Valle,TX,
52855,824 Fm 973 in,Austin,TX,
16641,1201 S 3Rd St in,Austin,TX,
111619,1201 S 3Rd in,Austin,TX,
107245,8125 Huddleston Lane in,Austin,TX,
104943,7307 Riverside in,Austin,TX,
137283,12508 Esplande St in,Austin,TX,
502,3755 B S Cap Texas Hwy in,Austin,TX,
109959,9420 N Ih 35 in,Austin,TX,
48905,13349 Indian Oak Bend in,Manor,TX,
137412,506 Bellemeade Blvd in,Pflugerville,TX,
48282,102 San Marcos in,Austin,TX,
12086,9600 Burnet Rd in,Austin,TX,
116515,6903 Bethune A in,Austin,TX,
10993,919 E 32Nd St in,Austin,TX,
59772,1316 Cloverleaf in,Austin,TX,
38054,6405 S Pleasant Valley in,Austin,TX,
37338,6505 Shirley Ave in,Austin,TX,
28426,10712 Watchful Fox in,Austin,TX,
55189,3704 Cloudy Ridge Rd. in,Travis,TX,
73601,13212 N. Lamar Blvd in,Austin,TX,
126849,2624 Whitis Ave in,Austin,TX,
61555,10306 Little Pebble Dr. in,Austin,TX,
67961,800 Gardner in,Austin,TX,
67551,3603 Goodwin Ave in,Austin,TX,
98085,1902 Mirabeau St in,Austin,TX,
97529,7315 Meador Avenue in,Austin,TX,
3386,2412 Kramer Lane in,Austin,TX,
85990,2300 Waterway Bnd in,Austin,TX,
99074,602 W 7Th St in,Austin,TX,
132238,6207 Richardson Ln in,Austin,TX,
80213,6800 West Gate Boulevard in,Austin,TX,
110709,11801 Byers in,Austin,TX,
136481,605 Masterson in,Austin,TX,
116231,6705 Sandshof Dr in,Austin,TX,
40717,11801 Sonoma Dr in,Austin,TX,
22131,10412 Fm 969 in,Travis,TX,
55397,4708 Cypress Bnd in,Austin,TX,
46312,12440 Alameda Trace in,Austin,TX,
42980,16404 Jacobson Rd in,Travis,TX,
79642,4400 Franklin Park Dr in,Austin,TX,
131255,414 Thompson in,Austin,TX,
117435,12001 New Sweden Church in,Travis,TX,
85879,290 Tillery Sq in,Austin,TX,
55289,1525 Grand Avenue Pkwy in,Pflugerville,TX,
104861,1233 Broadmoor Dr in,Austin,TX,
16577,2432 Sunny Hills Dr in,Austin,TX,
53516,18360 Basket Flower Bnd in,Travis,TX,
130649,512 Montopolis St in,Austin,TX,
3467,1802 Crazy Horse in,Travis,TX,
51069,7234 E 290 Hwy in,Austin,TX,
80053,1725 Cannon Yeoman Trl in,Austin,TX,
39216,7013 Hewers Dr in Del,Valle,TX,
44958,6918 Carwheel Dr in,Austin,TX,
4333,9414 North Lamar in,Austin,TX,
72779,1515 Grove Blvd in,Austin,TX,
76036,9475 E Hwy 290 in,Austin,TX,
55694,8312 Beaver Brook Ln in,Austin,TX,
180,6700 Elroy Rd in,Travis,TX,
57324,11920 Fm 1625 in,Creedmoor,TX,
21235,1413 Muddy Waters in,Pflugerville,TX,
107052,9010 Georgian Dr in,Austin,TX,
120107,11901 Springwater Cir in,Austin,TX,
127258,1208 Anise in,Austin,TX,
8983,10505 S Ih35 in,Austin,TX,
115262,6217 Perlita Dr in,Austin,TX,
128886,8909 Shepard Dr in,Austin,TX,
43908,1309 Summer Oaks Dr in,Austin,TX,
33645,16206 Greenwood Dr in Del,Valle,TX,
41435,8330 Fathom Cir in,Austin,TX,
139253,11515 Trinity Hills Dr in,Austin,TX,
45283,9601 Point Vista Pl in,Austin,TX,
50172,15527 Fm 969 in,Austin,TX,
36294,5904 Barton Skyway in,Austin,TX,
94849,5726 N Mopac in,Austin,TX,
24377,1700 Perez in,Austin,TX,
98006,309 W. William Cannon in,Austin,TX,
132031,1601 E Anderson in,Austin,TX,
122616,1911 Albury Cove in,Austin,TX,
65982,1804 Chicon Street in,Austin,TX,
25322,2403 Blue Meadow in,Austin,TX,
124993,4901 Scottish Thistle in,Austin,TX,
125864,10025 Manchaca in,Austin,TX,
136160,9323 Manchaca #816 in,Austin,TX,
87924,2403 Dove Springs Drive in,Austin,TX,
139773,8510 Whitecliff Dr in,Austin,TX,
33197,5307 Ledesma in,Austin,TX,
46839,2424 San Gabriel in,Austin,TX,
133640,2678 Crazyhorse Pass in,Austin,TX,
18239,1021 W. Braker Ln in,Austin,TX,
132024,8801 Mc Cann in,Austin,TX,
18205,1401 W Koenig Ln in,Austin,TX,
23233,508 E. Howard Ln in,Austin,TX,
120228,1225 Town Center Dr in,Pflugerville,TX,
141523,12800 Carillon Way in,Manor,TX,
125712,2020 Dry Seasons Trl in,Austin,TX,
84535,150 Comanche Trl in,Austin,TX,
86186,19429 Tayshas St in,Manor,TX,
39186,7513 N Ih-35 in,Austin,TX,
82597,13600 Clara Martin Dr. in,Manor,TX,
124854,6206 Arnold Drive in,Austin,TX,
4105,1620 W Braker in,Austin,TX,
71532,6405 Moonglow in,Austin,TX,
53086,14700 Earl Grey in,Austin,TX,
26398,1303 Cardinal Hill Cir in,Austin,TX,
63432,1401 E Rundburg in,Austin,TX,
135714,15 Waller St. in,Austin,TX,
89394,19424 Tayshas St in,Manor,TX,
124045,12000 Dessau Rd in,Austin,TX,
102723,4704 Rocking Chair in,Austin,TX,
71303,14202 Vandever in,Austin,TX,
5722,12009 Green Leaf Dr in,Austin,TX,
7173,8977 Fm 969 in,Austin,TX,
88765,7100 Decker in,Travis,TX,
88339,12036 Parson Rd in,Travis,TX,
126625,5620 Nijmegen Dr in Del,Valle,TX,
26451,9702 Marlborough Dr in,Austin,TX,
19115,6519 Moonglow in,Austin,TX,
48865,10707 N Ih 35 in,Austin,TX,
100090,1713 E 38 1/2 St in,Austin,TX,
108655,12120 Manchaca Rd in,Travis,TX,
4449,2009 Westridge Dr/Wilke in,Austin,TX,
27979,9704 Circle Drive in,Austin,TX,
35132,2120 Rabb Rd in,Austin,TX,
93681,8711 Johnny Morrios in,Travis,TX,
45181,10014 Childress Dr in,Austin,TX,
11469,8912 N Lamar Blvd in,Austin,TX,
108326,1013 Rutland Dr #242 in,Austin,TX,
119031,10607 Plains Trail in,Austin,TX,
47379,7700 Eastcrest in,Austin,TX,
10366,2201 Barton Hills in,Austin,TX,
138281,5717 Palo Blanco in,Austin,TX,
21297,5210 Buffalo Pass in,Austin,TX,
91713,800 Montopolis in,Austin,TX,
141842,1601 Montopolis Dr 218 in,Austin,TX,
136448,603 Kemp in,Austin,TX,
132382,7109 Shadywood Dr in,Austin,TX,
24385,5233 Coppermead Ln in,Austin,TX,
15408,1401 Rundberg Ln in,Austin,TX,
43828,10300 Taylor Ln in,Austin,TX,
18424,1106 Clayton in,Austin,TX,
114008,45Th And Mopac in,Austin,TX,
26333,5002 Savorey Ln in,Austin,TX,
132309,4305 Duval St in,Austin,TX,
19825,7200 Boyle Dr in,Austin,TX,
43133,4Th & Chicon in,Austin,TX,
61822,4434 Frontier Trl (No Found Address) in,Austin,TX,
82013,313 Tudor House Rd in,Travis,TX,
115924,3Rd And San Antonio in,Austin,TX,
37000,10600 Plain Trl in,Austin,TX,
27777,10600 Plains Trl in,Austin,TX,
56519,5800 Techni Center Drive in,Austin,TX,
4264,38Th And Ih35 in,Austin,TX,
105853,8608 Keynes Ln in,Austin,TX,
31767,510 W 26Th St in,Austin,TX,
123198,13502 Palmer Rd in,Travis,TX,
46224,3403 Peavy Dr in,Austin,TX,
5700,8532 N Lamar Blvd in,Austin,TX,
9479,9500 Hwy 290 East in,Austin,TX,
136670,3403 Peavey Dr in,Austin,TX,
16636,5102 Cueva Dr in,Austin,TX,
68088,4602 East Stassney Lane in,Austin,TX,
47460,4501 E Riverside Dr in,Austin,TX,
29101,2511 Tracy Creek in,Austin,TX,
85967,4808 Walden in,Austin,TX,
36835,3303 Crown Over in,Austin,TX,
39023,700 Middle Ln in,Austin,TX,
7366,13209 Old Gregg Ln in,Travis,TX,
23655,12901 Nih35 in,Austin,TX,
12121,20747 Fm 969 in,Travis,TX,
10461,7604 Lazy River Cove in,Austin,TX,
13738,5900 E Oltorf in,Austin,TX,
78876,6200 Burleson Road in,Austin,TX,
52673,3351 Killingsworth Ln#396 in,Travis,TX,
55638,8827 East Dr in,Austin,TX,
129558,6550 Comanche Trail in,Austin,TX,
11016,2504 Durwood St in,Austin,TX,
64686,2317 South Plesant Valley in,Austin,TX,
110108,12800 Harrisglenn in,Austin,TX,
106762,2011 Pace Bend Road in,Travis,TX,
12061,8406 Lyndon Ln in,Austin,TX,
84331,1606 Redd in,Austin,TX,
44850,9515 Hergotz Ln in,Austin,TX,
25857,5413 Avenue F in,Austin,TX,
19163,700 W Rundberg Ln in,Austin,TX,
38012,1110 Garner in,Austin,TX,
72158,7711 Rogers Ln West in,Austin,TX,
126617,1613 Lobo Mountain Ln in Round,Rock,TX,
6906,5616 Old Frederickburg in,Austin,TX,
106278,2929 S Lamar Blvd in,Austin,TX,
100212,308 West North Loop Boulevard in,Austin,TX,
118105,100 Wonsley Dr E in,Austin,TX,
108814,1113 York Castle in,Austin,TX,
77230,1017 N.Meadow in,Austin,TX,
65427,2508 East Riverside Drive in,Austin,TX,
72055,1506 Garden St in,Austin,TX,
107473,4800 Ross Rd in Del,Valle,TX,
104996,5700 West Slaughter Lane in,Austin,TX,
24909,3504 Harmon Ave in,Austin,TX,
67491,13000 N Ih 35 in,Austin,TX,
66784,5500 Manchaca Rd in,Austin,TX,
135169,1138 Cornell St in,Austin,TX,
120545,1840 Burton Drive in,Austin,TX,
91545,1701 Giles St in,Austin,TX,
124167,7900 Fm 1826 Rd in,Austin,TX,
90666,6801 Citadel Cot in,Austin,TX,
33918,5807 Sweeney Cir D in,Austin,TX,
127627,534 Sendeero Verde in,Travis,TX,
46736,3308 Thompson in,Austin,TX,
85037,4529 Clawson Rd in,Austin,TX,
41163,14020 Wells School Rd in,Travis,TX,
43930,901 Valdez St in,Austin,TX,
82116,1208 Anise Drive in,Austin,TX,
107905,6816 Lee Manor Cv in,Manor,TX,
53056,3901 Tannehill Lane in,Austin,TX,
24960,707 Botany Bay Circle in,Pflugerville,TX,
109331,124 W. Anderson Ln in,Austin,TX,
128918,750 Springdale Rd in,Austin,TX,
65908,6536 Tara Dr in,Austin,TX,
23045,2433 Rutland Dr #300 in,Austin,TX,
108855,7404 Danwood in,Austin,TX,
44107,9702 Swansons Ranch Rd in,Austin,TX,
23108,15419 Giese Ln in,Travis,TX,
48260,2310 Wickersham Ln #2007 in,Austin,TX,
63094,2502 Citation Dr in,Travis,TX,
87726,505 E Grady Dr in,Austin,TX,
135250,2308 Wickersham in,Austin,TX,
135384,5510 S I H 35 in,Austin,TX,
116999,4807 Aberdeen Dr in,Austin,TX,
142327,9201 Farm To Market Road 812 in,Travis,TX,
81000,45Th 1/2 And Caswell in,Austin,TX,
18011,7017 Hillcroft in,Austin,TX,
22613,1114 E Cesar Chavez St in,Austin,TX,
81058,14807 Hwy 290 E in,Manor,TX,
85432,4535 Texas 71 in Del,Valle,TX,
14367,7108 Hillcroft Dr in,Austin,TX,
130607,4604 Reyes St in,Austin,TX,
57907,5103 Palo Blanco Ln in,Austin,TX,
132532,6902 Providence Ave in,Austin,TX,
35897,755 Springdale Road in,Austin,TX,
74531,5925 J M Holloway in,Austin,TX,
90623,1706 Hether St in,Austin,TX,
129809,14201 Fagerquist Rd in Del,Valle,TX,
18629,407 Delmar Ave in,Austin,TX,
68850,1205 Southport Dr #104 in,Austin,TX,
87687,12140 Tunnel Trail in,Travis,TX,
109003,5413 Evans St in,Austin,TX,
24185,12317 Scribe Dr in,Austin,TX,
1565,5700 S 1St in,Austin,TX,
22376,10704 Quail Valley Dr in,Travis,TX,
104178,3001 Maplelawn Cir in,Austin,TX,
119727,3400 West Slaughter Ln in,Austin,TX,
71244,71 West And Hamilton Pool Rd in Bee,Cave,TX,
49274,2008 E Stassney in,Austin,TX,
133377,8800 Highway 290 in,Austin,TX,
31721,6106 Carnation Ter in,Austin,TX,
72353,5301 East Stassney Lane in,Austin,TX,
64611,4800 Steiner Ranch in,Austin,TX,
33760,747 Cherico St in,Austin,TX,
101753,109 West Anderson Lane in,Austin,TX,
55273,5011 Freidrich Ln in,Austin,TX,
96916,13450 N 183 Hwy in,Austin,TX,
21861,5102 Merrit Dr in,Austin,TX,
116794,7907 Persimmons Trl in,Austin,TX,
128334,6118 Hylawn in,Austin,TX,
68839,6608 Ashland Dr in,Austin,TX,
107650,6501 Ponton Place in,Austin,TX,
119355,614 South 1St in,Austin,TX,
45113,3115 Texas 71 in Del,Valle,TX,
48368,12317 Scribe in,Austin,TX,
44032,3935 Shoal Creek Blvd in,Austin,TX,
113074,1414 in,Austin,TX,
86915,5501 Avenue F in,Austin,TX,
102557,5413 Manchaca #153 in,Austin,TX,
50038,2310 Berkeley Avenue in,Austin,TX,
71472,3409 Hillview Rd. in,Austin,TX,
73345,3212 Barksdale Dr in,Austin,TX,
84505,1800 E Stassney Ln Under Bridge in,Austin,TX,
85733,8601 Fireside Dr in,Austin,TX,
71117,2008 Pompton in,Austin,TX,
35885,5819 Encinal in,Austin,TX,
104760,7122 Wood Hollow Drive in,Austin,TX,
116039,8708 Barrow Glen Loop in,Austin,TX,
72079,305 E Yager Lane in,Austin,TX,
77625,7100 E 290 in,Austin,TX,
43321,7205 Hart Lane in,Austin,TX,
220,183/Mlk in,Austin,TX,
85969,14025 Maricella Lane in,Pflugerville,TX,
64610,2009 Vista Ln in,Austin,TX,
4271,8401 South 1St Street in,Austin,TX,
89314,1000 E 41St Street in,Austin,TX,
97264,1711 Rutland in,Austin,TX,
12848,13000 N I-35 Svc Road Sb in,Austin,TX,
83778,8534 South Congress Avenue in,Austin,TX,
95832,5612 Sunday Silence in,Austin,TX,
15336,1104 Ebert in,Austin,TX,
98554,4800 Convict Hill Rd in,Austin,TX,
525,5710 Reicher Dr in,Austin,TX,
103138,3651 S Interstate 35 Frontage Rd in,Austin,TX,
122681,20300 #B Trappers Trl in,Manor,TX,
141768,4021 Steck in,Austin,TX,
99400,2603 Geronimo in,Travis,TX,
9847,8802 Little Walnut Dr in,Austin,TX,
30929,2506 Piping Rock Trl in,Austin,TX,
132521,4523 Tannen Hill Ln in,Austin,TX,
133911,2237 East Riveride Drive in,Austin,TX,
120250,801 Post Oak in,Austin,TX,
139162,5708 S Congress Ave in,Austin,TX,
30590,3401 Norwood Hill in,Austin,TX,
142700,6Th St/Comal in,Austin,TX,
42926,4706 Leslie Ave in,Austin,TX,
132616,5107 Ih 35 in,Austin,TX,
119317,324 Middle Ground Cove in,Austin,TX,
31523,2800 Metcalfe Rd in,Austin,TX,
101327,5Th St And San Jacinto in,Austin,TX,
1393,12069 Dessau Rd in,Austin,TX,
5999,18202 River Timber in,Travis,TX,
61018,7501 Compass Dr in,Travis,TX,
50264,8003 Decker Ln in,Travis,TX,
87227,1600 Citation in,Travis,TX,
107321,1305 Citation Cir in,Travis,TX,
135046,10101 S 1St St in,Austin,TX,
44414,3116 River Rd in,Travis,TX,
143014,831 N Meadows Dr Side A in,Austin,TX,
39721,2204 Donahue Ln #B in,Austin,TX,
128846,7403 Vinca Cir in,Austin,TX,
108505,7800 Broken Lance Dr in,Austin,TX,
64221,2854 East State Highway 71 Service Road in,Austin,TX,
91178,8609 Talyne Chaise in,Austin,TX,
9014,6801 Ashprington Ln in,Austin,TX,
112748,2409 Braxton Cv in,Austin,TX,
23080,51St And Berkman Dr in,Austin,TX,
132612,11208 Blossom Bell Drive in,Austin,TX,
73373,12324 Alderbrook Dr #B in,Austin,TX,
102267,1817 Wooten Dr in,Austin,TX,
6445,6611 Galindo St in,Austin,TX,
28163,1803 Chicon in,Austin,TX,
60652,107 Center Ridge Dr in,Austin,TX,
126675,7201 S. Congress Ave. in,Austin,TX,
41635,6405 Sandshof in,Austin,TX,
54037,12713 St Marys in,Manor,TX,
58656,12708 Ring Dr in,Manor,TX,
20696,1302 Begonia Ter in,Austin,TX,
73161,206 Red Bird in,Austin,TX,
117895,11411 Research Boulevard in,Austin,TX,
58618,6012 Speyside Dr in,Austin,TX,
26247,2333 Aldford in,Austin,TX,
4679,600 Block Great Britian in,Austin,TX,
69312,7102 Providence in,Austin,TX,
66253,7007 Apperson St in Del,Valle,TX,
122184,2829 South Lakeline Blvd in,Austin,TX,
140951,1400 Rosewood in,Austin,TX,
107862,109 W Mockingbird Ln in,Austin,TX,
56161,5107 Interstate 35 in,Austin,TX,
20052,4500 Nuckols Crossing in,Austin,TX,
143091,1106 Oak Hurst Dr in,Austin,TX,
139535,12424 Copperfield Dr in,Austin,TX,
50793,6410 Ponca in,Austin,TX,
48230,6912 Onion Crossing Dr in,Austin,TX,
58583,5811 Mesa Dr in,Austin,TX,
63855,11210 Rr2222 in,Austin,TX,
24836,11506 Eubanks Dr in,Austin,TX,
132450,9905 Woodglen Dr in,Austin,TX,
74631,7300 Elm Forest Road in,Austin,TX,
65633,101 E Starling in,Austin,TX,
114059,2700 Gracie Farms Ln 221 in,Austin,TX,
54612,6400 Fm 973 in,Austin,TX,
123725,2425 Cromwell Circle in,Austin,TX,
49208,4108 Clawson Rd in,Austin,TX,
121845,12420 Sky Harbor Dr in Del,Valle,TX,
120712,14101 Maricella Ln in,Pflugerville,TX,
20058,9500 Lime Creek Rd in,Travis,TX,
137635,8939 Anna Street in,Austin,TX,
1352,7806 Blue Goose Rd in,Manor,TX,
95480,9608 Crown Ridge Rd in,Austin,TX,
85741,6Th And 7Th Street in,Austin,TX,
25539,10702 Landshire in,Austin,TX,
20016,8521 E Parmer Ln in,Manor,TX,
110429,2209 Park Ln in,Webberville,TX,
54067,2215 East 51St Street in,Austin,TX,
5510,9100 Georgian Dr in,Austin,TX,
87636,2510 Sweet Clover Dr in,Austin,TX,
83279,11712 Hwy S 183 in,Travis,TX,
7755,1515 Royal Crest #3110 in,Austin,TX,
13093,8801 High Valley Rd in,Travis,TX,
32637,1770 Cricket Hollow Dr in,Austin,TX,
141224,8107 Seeling Drive in,Austin,TX,
99061,11537 Shady Meadow Was in,Austin,TX,
64305,8815 High Valley in,Travis,TX,
50067,5700 Stevens Creek Way in,Austin,TX,
76344,9036 Lamar # 109 in,Austin,TX,
58821,2210 Enfield Rd in,Austin,TX,
135012,4612 Convict Hill Rd in,Austin,TX,
111662,906 E 5Th St in,Austin,TX,
21379,9701 Burkland Farms in,Travis,TX,
114110,211 Comal in,Austin,TX,
110900,500 Canyon Ridge in,Austin,TX,
122614,5600 Vine Hill in,Austin,TX,
102448,6517 Moonglow in,Austin,TX,
26358,810 Bastrop Hwy #6 in,Austin,TX,
23868,6500 River Place Blvd in,Austin,TX,
7183,2809 Ray Wood Dr in,Austin,TX,
27553,1104 Strickling Dr in,Pflugerville,TX,
18498,6407 E Riverside Dr in,Austin,TX,
50092,7300 Salt Springs Dr in,Austin,TX,
77774,5205 Regency Dr in,Austin,TX,
96512,11300 Samsung Blvd in,Austin,TX,
31544,600 Trinity St in,Austin,TX,
97581,9109 Southwick in,Austin,TX,
65195,7400 Crystalbrook in,Austin,TX,
134527,2613 Friar Tuck in,Austin,TX,
117762,14808 Earl Grey Ln in,Pflugerville,TX,
104774,6118 Fairway St#135 in,Austin,TX,
56599,1604 Whellis in,Austin,TX,
138918,2601 S.Pleasant Valley in,Austin,TX,
45761,2901 S Capital Of Texas Hwy in,Austin,TX,
108478,1144 Gunter in,Austin,TX,
70177,7214 Dan-Jean Dr in,Austin,TX,
61015,7605 Marl in,Austin,TX,
62018,3107 Speedway in,Austin,TX,
88458,6810 Kings West Point in,Austin,TX,
10666,14809 Chicadee in,Travis,TX,
2811,1423 Westmoor Dr in,Austin,TX,
5432,1411 Shawee Circle in,Austin,TX,
135944,2503 Lakehurst Dr in,Austin,TX,
116599,3222 Lacy Ave in Del,Valle,TX,
110104,609 Bastrop Highway in,Austin,TX,
67007,6807 Pondsdale Ln in,Austin,TX,
20013,7008 Hillcroft in,Austin,TX,
58698,2101 Crystal Bend Dr in,Austin,TX,
129209,13628 Gregg Manor Rd in,Manor,TX,
117619,"5106, in",Austin,TX,
125068,8401 Colony Loop in,Austin,TX,
53155,6914 Colony Loop Dr in,Austin,TX,
8657,14306 Vandever in,Travis,TX,
127842,6804 Old Lockhart Rd in Mustang,Ridge,TX,
51258,1301 Mopac in,Austin,TX,
102667,4409 Stassney Ln in,Austin,TX,
126620,5004 Cape Verde Cove in,Austin,TX,
97664,3101 Wells Branch Parkway in,Austin,TX,
130299,16704 Trevin Cv in,Manor,TX,
47883,715 E 8Th Street in,Austin,TX,
21371,101 Hergotz Lane in,Austin,TX,
22357,700 South 1St in,Austin,TX,
69486,703 Enterprise Ct in,Austin,TX,
67238,5Th/Oltorf in,Austin,TX,
62299,9616 Point Vista in,Austin,TX,
105106,9811 Blocker Ln in,Travis,TX,
15410,2613 S 1St St in,Austin,TX,
49189,8306 Colony Loop & 7000 Decker Ln in,Austin,TX,
90255,6615 Berkman Drive in,Austin,TX,
125539,9716 Sugar Hill Dr in,Austin,TX,
7678,7109 Barnsdale Way in,Austin,TX,
79629,2410 Sheri Oak Ln in,Austin,TX,
49316,4800 South Congress in,Austin,TX,
78269,8220 W Sh71 Hwy in,Austin,TX,
58978,5609 Honeybee Bnd in,Austin,TX,
99480,11225 Avering Ln in,Austin,TX,
24165,4701 Ramies Run in,Austin,TX,
127533,14600 Yora Dr in,Austin,TX,
72660,5701 Signal Point in,Austin,TX,
43534,20747 Fm 969 in,Austin,TX,
123356,7233 Manchaca in,Austin,TX,
139097,"13903, in",Pflugerville,TX,
33647,619 South I H 35 in,Austin,TX,
77871,5609 Gloucester in,Austin,TX,
83360,8800 Little Walnut Dr in,Austin,TX,
93656,409 E William Cannon Dt in,Austin,TX,
129015,5808 Wilcab Rd in,Austin,TX,
101500,1129 Penion Drive in,Austin,TX,
30760,7421 Muffin Dr in,Austin,TX,
139196,8107 N Fm 973 in,Austin,TX,
35353,2101 Kenwood Avenue in,Austin,TX,
80664,1909 Tillotson Ave in,Austin,TX,
65356,1308 Thornberry #110 in,Austin,TX,
93635,1317 Exposition Blvd in,Austin,TX,
31756,8508 Daleview Dr in,Austin,TX,
105434,2018 W Rundberg Ln in,Austin,TX,
42455,2608 Tracy Trail in,Austin,TX,
124136,8611 Ingrid in,Austin,TX,
99593,7900 Persimmon Trail in,Austin,TX,
88901,1200 Alamo in,Austin,TX,
117917,1200 E. Rundberg in,Austin,TX,
14611,11503 Hill Top St in,Austin,TX,
92388,5200 Knoght Cir in,Austin,TX,
42271,701 E Stassney in,Austin,TX,
2943,21005 Godolphin Ct in,Pflugerville,TX,
139605,108 W 45Th in,Austin,TX,
63510,3733 Bronco Bend Loop in,Austin,TX,
113280,10007 Webbwood Way in,Austin,TX,
106739,8220 W Highway 71 in,Austin,TX,
40098,3500 Harmon in,Austin,TX,
13877,6920 Manchaca Road in,Austin,TX,
141396,2021 East Riverside Drive in,Austin,TX,
43251,4201 Monterey Oaks in,Austin,TX,
42316,3106 Northeast Dr in,Austin,TX,
19171,6212 Manchaca Rd in,Austin,TX,
141214,8907 Unice in,Travis,TX,
15736,6201 Sneed in,Austin,TX,
2988,10308 Littlepebble in,Austin,TX,
92224,6518 Ed Bluestein Blvd Sb in,Austin,TX,
14909,9308 Fm 969 in,Austin,TX,
44883,1401 St. Edwards Drive in,Austin,TX,
85670,2314 Deadwood Dr in,Austin,TX,
102298,13208 Billiem in,Austin,TX,
66238,406 Seminole in,Austin,TX,
27306,5108 Bob Wire in,Travis,TX,
29124,7314 Bennet Avenue in,Austin,TX,
18081,6501 E. Hill Dr in,Austin,TX,
62582,3401 Andtree Blvd in,Travis,TX,
31281,15325 Fernhill Dr in,Austin,TX,
85161,400 Bastrop Highway in,Austin,TX,
85089,"5607, , Tx in",Creedmoor,TX,
67718,103 W Applegate Dr in,Austin,TX,
82724,6700 Quinton Dr in,Austin,TX,
85820,9307 North Lamar in,Austin,TX,
9364,4220 Duval St in,Austin,TX,
51566,15004 Chamberlain Ct in,Austin,TX,
124971,9120 Swanson Ln in,Austin,TX,
41457,4600 Nuckols Crossing Rd in,Austin,TX,
65754,8900 Ni-H35 #1004 in,Austin,TX,
52479,503 Kenniston Dr in,Austin,TX,
96044,14811 Chicadee in,Travis,TX,
36441,821 Woodward St in,Austin,TX,
101341,3300 Killingsworth Ln in,Travis,TX,
54779,6309 Del Monte in,Austin,TX,
124098,6801 Northeast Dr in,Austin,TX,
33640,7209 Crystalbrook Drive in,Austin,TX,
37783,4107 River Rd in,Travis,TX,
54570,10701 South 1St St in,Austin,TX,
41582,14809 Vevey Dr in,Austin,TX,
79751,7209 N Lamar Blvd in,Austin,TX,
1774,500 E Wonsley in,Austin,TX,
113570,11193 Lambert Ln in,Travis,TX,
124088,11502 January Dr in,Austin,TX,
53937,13Th St And Harvey St in,Austin,TX,
69129,6200 Linda Ln in,Austin,TX,
50867,9100 Evelyn Rd in,Travis,TX,
108243,9704 Giles Ln in,Austin,TX,
125965,6711 Johnny Morris Rd in,Austin,TX,
24828,5701 Springdale Rd in,Austin,TX,
12894,4008 Rosedale Ave in,Austin,TX,
55755,14029 Lampting Dr in,Austin,TX,
118865,8202 Riverstone Dr in,Austin,TX,
90312,3413 Buck Race in,Austin,TX,
66262,5510 S Ih 35 in,Austin,TX,
79389,11411 La Poynor St in,Manor,TX,
109940,3906 Del Robles in,Austin,TX,
92444,5302 Towser Ct in,Austin,TX,
64021,4809 Brook Crest Rd in,Austin,TX,
113135,360 And Mopac in,Austin,TX,
100379,8900 Tronewood in,Austin,TX,
14097,2300 Berkett in,Austin,TX,
22989,6801 Beckett Rd in,Austin,TX,
56529,12511 Twin Creeks Rd in,Austin,TX,
123203,"12511 Twin, , Tx 78652 in",Austin,TX,
23541,5304 Ledesma Rd in,Austin,TX,
119516,"505, , Tx 78753 in",Austin,TX,
99284,11703 Oak Haven in,Austin,TX,
83473,6504 Colina Lane in,Austin,TX,
81550,14207 Weldon in,Austin,TX,
48404,5405 South Pleasant Valley Rd in,Austin,TX,
26654,10542 Indigo Broom Loop in,Austin,TX,
117340,8627 Research Blvd in,Austin,TX,
49294,4715 Little Hill Circle in,Austin,TX,
72577,6217 S Congress in,Austin,TX,
65888,7301 Glennhill Rd in,Austin,TX,
87428,1012 Wisteria Trail in,Austin,TX,
92894,6704 Edwardson Cv in,Austin,TX,
126068,2607 Alcott Ln in,Austin,TX,
140201,1601 Royal Crest Dr in,Austin,TX,
109848,4586 Clarno Dr in,Austin,TX,
12712,280 Dry Creek Rd in,Manor,TX,
1618,11703 Shoshone in,Austin,TX,
12981,9345 Hwy 290 E Apt #2207 in,Austin,TX,
104938,6600 Farm To Market 969 in,Austin,TX,
5353,7601 Bella Vista Trail in,Austin,TX,
112733,13817 Field Spar Dr in,Manor,TX,
2025,9307 N. Lamar Blvd in,Austin,TX,
57721,6601 Starcrest Ln in,Austin,TX,
77761,6728 Lost Valley in,Austin,TX,
51102,7020 Village Center in,Austin,TX,
1426,3209 Barksdale Dr in,Austin,TX,
9799,2518 Leon St in,Austin,TX,
136224,14711 Meniffe St in,Austin,TX,
64751,2700 Brodie Lane in,Austin,TX,
69715,12 And Ih 35 in,Austin,TX,
106453,15107 Lantern Dr in,Travis,TX,
83112,1720 Grand Ave Pkwy in,Pflugerville,TX,
43293,503 W 27Th Street in,Austin,TX,
102869,7000 Apperson St in,Travis,TX,
38372,6909 Wentworth Dr in,Austin,TX,
16985,1211 Dobie Dr. in,Austin,TX,
67566,13145 Us-183 in,Austin,TX,
119875,1610 E 3Rd St in,Austin,TX,
134158,4900 E Oltrof St in,Austin,TX,
102013,1906 Newton St in,Austin,TX,
88772,5605 Westminster Dr in,Austin,TX,
18642,4902 Russet Hill in,Austin,TX,
136611,4213 Canyon Glen Cir in,Austin,TX,
129445,19500 Block Of Ming Trail in Lago,Vista,TX,
42469,309 N Pleasant Valley Rd in,Austin,TX,
24680,5903 Wideleaf in,Austin,TX,
128860,1600 Webberville Rd in,Austin,TX,
100754,8209 Bluff Springs Rd in,Austin,TX,
88069,11500 Briarcreek Loop in,Manor,TX,
133395,10107 Rodriguez Rd in,Austin,TX,
45510,8417 Red Willow in,Austin,TX,
123144,14805 Vevey Dr in Del,Valle,TX,
121808,2104 E Anderson Lane in,Austin,TX,
5344,4411 Meinardus Dr in,Austin,TX,
136985,2011 Conestoga in,Austin,TX,
141386,7000 Woodhue Dr in,Austin,TX,
127483,124 W. Anderson in,Austin,TX,
54957,2303 Santa Rita St in,Austin,TX,
68884,11403 Burton St in,Manor,TX,
27331,10702 Topperwein Dr in,Austin,TX,
7119,9435 Middle Fiskville Rd in,Austin,TX,
9510,8905 Pointer Ln in,Austin,TX,
53229,3404 Webberville Rd #3401 in,Austin,TX,
66220,9408 Dessau Rd in,Austin,TX,
81068,8706 Dandelion Trl in,Austin,TX,
23982,4014 W William Cannon Dr in,Austin,TX,
7909,1011 Kramer Ln in,Austin,TX,
63907,12921 Galleria Cir in Bee,Cave,TX,
23046,11135 N Ih- 35 Service Rd in,Austin,TX,
76208,2800 Gettysburg Dr in,Austin,TX,
96456,6910 E William Cannon Dr in,Austin,TX,
117777,"1100 Grand, , Tx 78660 in",Travis,TX,
71852,1601 Montopolis in,Austin,TX,
69246,8701 Fm 969 in,Austin,TX,
25184,8007 Colony Loop in,Austin,TX,
116386,8003 Hidden Lake Crossing in,Pflugerville,TX,
127320,1209 Vargas in,Austin,TX,
135880,7908 Parliament Pl in,Austin,TX,
114668,5398 Purple Sage Dr in,Austin,TX,
34680,4511 Quicksilver Blvd in,Austin,TX,
25142,1818 S Lakeshore Blvd in,Austin,TX,
99442,1900 San Gabriel St in,Austin,TX,
13485,24601 Fawn Dr in,Travis,TX,
115978,1205 Fairbanks Dr in,Austin,TX,
120120,8700 S View Rd in,Austin,TX,
133547,7310 Blessing Ave in,Austin,TX,
36075,20289 Fm-969 in,Manor,TX,
126013,2402 Eagle Point in,Lakeway,TX,
67090,16721 Decker Creek Drive in,Manor,TX,
9668,11441 Ih-35 North in,Austin,TX,
4136,2100 Patsy Pkwy in,Austin,TX,
90466,1729 Constantino Cir in,Austin,TX,
3354,12111 Von Quintus Road in,Austin,TX,
106638,22906 Big Sandy Dr in,Leander,TX,
83615,12900 N Ih -35 in,Austin,TX,
45542,8778 Interstate 35 Frontage Rd in,Austin,TX,
110908,1555 Bastrop Hwy in,Austin,TX,
11596,18220 Great Valley Dr in,Travis,TX,
98823,40Th And Airport in,Austin,TX,
124140,1405 E 4Th St in,Austin,TX,
66317,508 E Howard in,Austin,TX,
62510,11011 Hwy 290 in,Manor,TX,
8337,501 El Paso St in,Austin,TX,
107569,183 And Maha Loop Rd in,Austin,TX,
21543,19111 Fm969 in,Travis,TX,
142447,5510 South Ih35 in,Austin,TX,
136343,110 Inner Campus Drive in,Austin,TX,
705,11814 Indianhead Dr in,Austin,TX,
33714,405 Pedernales St in,Austin,TX,
112960,13417 Cameron in,Manor,TX,
114893,12609 Dessau Rd #42 in,Austin,TX,
119180,2401 Glen Springs Way in,Austin,TX,
111452,9500 East Highway 290 in,Austin,TX,
119599,1598 Thornridge Rd in,Austin,TX,
77373,722 S 1St St in,Austin,TX,
50316,5707 Johnny Morrios in,Austin,TX,
401,1803 E Anderson Ln in,Austin,TX,
107160,1310 Delano St in,Austin,TX,
54288,2211 Lawnmont Ave in,Austin,TX,
78093,10528 Channel Island Dr in,Austin,TX,
95316,408 Eberhart Ln in,Austin,TX,
9497,2200 Palmera Cv in,Austin,TX,
97195,4803 Mandoza St in,Austin,TX,
2458,8644 Piney Creek Bend in,Austin,TX,
6528,6001 Shepherd Mountain Cv in,Austin,TX,
9859,1306 Perez St in,Austin,TX,
73335,5955 Ed Bluestein Blvd in,Austin,TX,
79904,1003 Justin Ln in,Austin,TX,
107130,907 West Slaughter Lane in,Austin,TX,
48914,8901 Viking in,Austin,TX,
63502,3100 Stardust Dr in,Austin,TX,
75427,8515 S 35 in,Austin,TX,
72138,10812 South Interstate 35 Frontage Road in,Austin,TX,
102852,6101 Caroline Ln in,Travis,TX,
77375,9501 Quail Village Ln in,Austin,TX,
116365,7512 Catseye Lane in,Austin,TX,
83948,1171 E Howard Ln in,Austin,TX,
28919,1500 West Parmer Lane in,Austin,TX,
4691,11110 Renel Dr #A in,Austin,TX,
47231,4712 E Mlk Jr in,Austin,TX,
87399,13221 Pecan Hill Cove in,Austin,TX,
15576,2711 South Ih 35 in,Austin,TX,
80395,2900 W Anderson Ln in,Austin,TX,
121856,7800 Johnny Morris Rd in,Austin,TX,
61755,1507 Man O War Dr in,Travis,TX,
112686,6801 E Riverside Dr in,Austin,TX,
18575,12219 Wallingstone Ln in,Austin,TX,
77258,2323 Teri Rd. in,Austin,TX,
36603,12300 Harris Branch Pkwy in,Manor,TX,
95823,220 Webberwood Way N in,Webberville,TX,
80838,1500 Royal Crest Dr Bldg 5 in,Austin,TX,
77615,2501 Wickersham Ln Bldg 18 in,Austin,TX,
131703,2632 Century Park Blvd in,Austin,TX,
109960,1007 W 24Th St in,Austin,TX,
102135,2305 Turtle Mountain in,Austin,TX,
12975,7200 Salt Springs in,Austin,TX,
84436,7155 E William Cannon Dr in,Austin,TX,
137739,801 Bluffstone Cove in,Austin,TX,
66580,11304 Hornsby St in,Austin,TX,
80636,1506 Pine Knoll Dr in,Austin,TX,
14537,6307 Bluff Springs Rd in,Austin,TX,
62934,2201 E Stassney Ln in,Austin,TX,
113782,4605 Cottonwood St in,Austin,TX,
109065,4500 Steiner in,Austin,TX,
77019,9205 Quail Cv in,Austin,TX,
47635,1206 Miami Dr in,Travis,TX,
18745,7007 Stonleigh Pl in,Austin,TX,
1646,5000 Coffee Cup Cove in,Austin,TX,
804,5707 Magee Bend in,Austin,TX,
118241,808 Dawson Rd in,Austin,TX,
2446,727 Airport in,Austin,TX,
36724,19500 Webberville Rd in,Austin,TX,
73724,2501 E Stassney in,Austin,TX,
129791,7002 Nez Perce Trce in,Manor,TX,
136625,12228 Paloma Blanca Way in Del,Valle,TX,
4323,2603 Cockburn in,Austin,TX,
113180,1945 West William Cannon Drive in,Austin,TX,
93214,508 El Paso St in,Austin,TX,
110873,9408 N Lamar Blvd in,Austin,TX,
83388,2417 W Ben White Blvd in,Austin,TX,
101513,2509 Lakehurst Dr in,Austin,TX,
139178,2506 Lakehurst in,Austin,TX,
100782,4800 Eilers Rd in,Austin,TX,
76256,1230 Bullet Pass in,Travis,TX,
28649,5719 China Berry Rd in,Austin,TX,
40467,5701 E Mlk Blvd in,Austin,TX,
71302,4009 Idalia Drive in,Austin,TX,
90456,2509 East 10Th Street in,Austin,TX,
99990,1312 Bob Harrison in,Austin,TX,
130838,18402 Easy St in,Jonestown,TX,
23276,4534 Westgate Blvd in,Austin,TX,
141345,15635 Vision Dr in,Travis,TX,
99022,8630 N Lamar Blvd in,Austin,TX,
37052,506 Clover Ct in,Austin,TX,
18259,2801 E 5Th St in,Austin,TX,
16261,1207 E St Johns in,Austin,TX,
49023,5511 Blue Bluff Road in,Austin,TX,
67376,9400 Brents Elm Drive in,Austin,TX,
39782,8601 Anderson Mill in,Travis,TX,
67324,10542 Indigo Broom Loop in,Austin,TX,
76333,11400 Concordia University Dr in,Austin,TX,
102242,11610 Prairie Hen Ln in,Austin,TX,
128003,12501 Tech Ridge #1528 in,Austin,TX,
23489,5908 Taylor Draper in,Austin,TX,
82337,6808 S Ih 35 Frontage Rd in,Austin,TX,
107680,14311 Juniper Trl. in,Leander,TX,
22146,714 Turtle Creek Drive in,Austin,TX,
22481,9904 Col Fax Dr in,Austin,TX,
80691,1200 Block Us Hwy 290 in,Austin,TX,
31165,1602 Chesnut Ave in,Austin,TX,
5225,1940 Webberville Rd in,Austin,TX,
66264,4411 Spicewood Springs Rd in,Austin,TX,
42395,6313 Kenilworth Dr in,Austin,TX,
121407,1101 Grove Boulevard in,Austin,TX,
42485,4605 Button Bend Rd in,Austin,TX,
84447,29220409 in,Austin,TX,
45409,2800 S Us Hwy 183 in,Austin,TX,
9706,1156 Hargrave St in,Austin,TX,
108202,4803 Mendoza Drive in,Austin,TX,
52977,12300 Riata Trace Pkwy in,Austin,TX,
127193,11220 North Lamar Boulevard in,Austin,TX,
32335,10515 N Mopac Expy in,Austin,TX,
29449,6705 Cooper Lane in,Austin,TX,
10822,19912 Agua Frio in,Travis,TX,
137380,14014 Denny Lane in,Pflugerville,TX,
128345,8318 Thaxton Rd in,Austin,TX,
139613,2009 Lear Ln. in,Austin,TX,
92763,14603 Fitzgibion Dr in,Austin,TX,
140678,1600 Garden St in,Austin,TX,
118846,12900 E Hwy 290 in,Manor,TX,
29127,1800 Fallwell Ln in,Austin,TX,
94661,2507 Campden Dr in,Austin,TX,
33805,3101 Davis Ln in,Austin,TX,
104691,8000 Decker Ln in,Austin,TX,
7043,409 Covenant Canyon Trl in,Lakeway,TX,
141904,12225 Wallingstone Lane in,Austin,TX,
123616,6610 N Lamar Blvd in,Austin,TX,
64254,8221 Belclaire Ln in,Austin,TX,
134431,401 Hergotz in,Austin,TX,
94617,2609 Rosewood Avenue in,Austin,TX,
101112,1930 W Rundberg Ln in,Austin,TX,
78632,7403 Blessing Ave in,Austin,TX,
19801,1120 Mason Ave in,Austin,TX,
64853,12200 N Mopac Expy in,Austin,TX,
74818,1104 Desirable Dr in,Austin,TX,
14513,10900 Sih35 in,Austin,TX,
52818,6802 Viewing Place in,Austin,TX,
103153,6211 Manor Rd in,Austin,TX,
12810,12611 Suite 100 Shops Parkway in Bee,Cave,TX,
113421,3910 S. I H 35 in,Austin,TX,
68102,"13435 Us Highway, Bldg. 7 in",Austin,TX,
128458,117 Balch Rd in,Travis,TX,
129857,8510 Ruddington Dr in,Austin,TX,
87131,7201 Gunnison Pass in,Austin,TX,
4285,100 Orion in,Lakeway,TX,
55426,1708 Holly in,Austin,TX,
29579,6907 N Capitol Of Texas Hwy in,Austin,TX,
14838,8829 Escabosa in,Austin,TX,
33995,21500 Block Of Boggyford in Lago,Vista,TX,
115674,1504 Cloverleaf Dr in,Austin,TX,
24260,2302 Kerr Trail in Cedar,Park,TX,
124738,312 Rowland Dr in,Austin,TX,
45889,6343 Shadow Bend #A in,Austin,TX,
74329,3702 Garden Villa Dr in,Austin,TX,
851,7117 Heine Farm Rd in Del,Valle,TX,
14332,979 Springdale Road in,Austin,TX,
35855,11193 Lambert Ln in,Austin,TX,
34784,1804 Perez St in,Austin,TX,
104506,5909 Wideleaf in,Austin,TX,
29230,11200 Lakeline Mall Dr in,Austin,TX,
85683,916 E 53Rd St in,Austin,TX,
9507,1112 Gunters in,Austin,TX,
10693,5517 War Adimaral Dr in Del,Valle,TX,
7593,5400 Freidrich Ln #14 in,Austin,TX,
135948,1700 Future in,Austin,TX,
103273,1826 And Dalea Dr in,Austin,TX,
64142,10528 Channel Island in,Austin,TX,
71204,3600 Block Of Pennsylvania in,Austin,TX,
37669,5803 Buckpasser Cv in,Austin,TX,
99157,8601 Research Blvd in,Austin,TX,
68852,2703 Alcott Ln in,Austin,TX,
96747,8303 N Mopac Expy in,Austin,TX,
20198,6110 Hogan in,Austin,TX,
67598,9805 Bal Harbor in,Travis,TX,
72314,13913 Fall Springs Way in,Manor,TX,
110579,1200 Treadwell St in,Austin,TX,
74806,16701 Pearce Ln in Del,Valle,TX,
131710,1900 Scofield Ridge Pkwy in,Austin,TX,
38323,2701 Caldwell Ln in Del,Valle,TX,
88956,12/San Jacinto in,Austin,TX,
33202,10009 Rodriguez Rd in,Travis,TX,
90932,4500S Congress in,Travis,TX,
26085,10302 Brownie Dr in,Austin,TX,
93316,6855 Hwy 290 in,Austin,TX,
102439,4624 Marlo Drive in,Austin,TX,
66164,1807 Rogge in,Austin,TX,
107958,11160 Jollyville Road in,Austin,TX,
78499,16218 Round Mountain in,Travis,TX,
105553,802 Dawlish in,Travis,TX,
124653,5800 Jacqueline in,Travis,TX,
57122,6000 Melody in,Travis,TX,
6177,10008 Capitol View Dr in,Austin,TX,
12390,911 Walter Street in,Austin,TX,
55637,11701 Metric #1811 in,Austin,TX,
119968,2110 Thrasher Ln in,Austin,TX,
65312,13005 Irongate Ave in,Austin,TX,
30046,14511 Callan in,Manor,TX,
108347,8807 High Valley Rd in,Austin,TX,
59753,6002 Burleson Rd in,Austin,TX,
2572,12113 Metric Blvd in,Austin,TX,
91075,15001 Wells Port Dr in,Austin,TX,
104644,4900 Crest Oak Rd in,Austin,TX,
50461,2200 Kale in,Travis,TX,
133737,911 Fieldwood Dr in,Austin,TX,
88670,4900 East Howard Ln in,Manor,TX,
567,3600 Abbate in,Austin,TX,
48612,4900 E Howard Ln in,Manor,TX,
88937,2112 Uphill Ln in,Austin,TX,
121138,12801 N Lexington St in,Manor,TX,
130048,8000 Belclaire Ln in,Austin,TX,
83647,2105 Elara Dr in,Austin,TX,
76470,15120 Arizona Oak in,Austin,TX,
22578,14702 Varrelman St in,Austin,TX,
37207,4605 E. 12Th Street in,Austin,TX,
47885,5213 Concho Creek Bend in,Austin,TX,
104160,12148 Trotwood in,Austin,TX,
93229,4606 Turnstone in,Austin,TX,
131180,4708 Carson Hill in,Austin,TX,
85006,6405 Aden Ln in,Austin,TX,
93328,4600 Brassie Wood in,Austin,TX,
68961,1020 Grove Boulevard in,Austin,TX,
57054,3505 South Lamar Blvd in,Austin,TX,
52540,10701 South 1St Stree in,Austin,TX,
46519,12326 Ballerstedt Road in,Travis,TX,
123161,2883 Texas 71 in Del,Valle,TX,
45806,1200 Broadmoor Dr in,Austin,TX,
20453,3600 Hycreek in,Austin,TX,
129552,1900 E Cesar Chavez St in,Austin,TX,
111083,14805 Copperridge Ln in,Travis,TX,
62007,7010 Highway 71 in,Travis,TX,
76646,12900 North Ih 35 in,Austin,TX,
45716,11300 Indianhead Dr in,Austin,TX,
35396,7709 Eastcrest Dr in,Austin,TX,
9746,9200 North Plz #904 in,Austin,TX,
50565,11209 Metric Blvd in,Austin,TX,
106159,8900 N Ih-35 in,Austin,TX,
104445,1907 Willow Creek Dr in,Austin,TX,
67042,11206 Wiskey River Dr in,Austin,TX,
14377,13501 Graef Rd in,Austin,TX,
74086,2016 Sorghum Hill Dr in,Austin,TX,
85894,8600 Manchaca Rd in,Austin,TX,
137493,13824 Abrahamson Road in,Manor,TX,
54637,5725 Abilene Trail in,Austin,TX,
65426,3003 S Lamar in,Austin,TX,
47936,2423 Town Lake Circle in,Austin,TX,
93806,1603 Cricket Hollow Drive in,Austin,TX,
120598,5612 Kleberg Trail in,Austin,TX,
60342,701 Eilers Ave in,Austin,TX,
36194,701 East Eilers in,Austin,TX,
15978,2609 Rosewood Ave #5502 in,Austin,TX,
140243,4603 Parkwood Rd in,Austin,TX,
75970,1822 West Braker Lane in,Austin,TX,
62900,106 Meteor Drive in,Austin,TX,
18614,1405 Crete Lane in,Travis,TX,
139916,1405 Crete Ln in,Travis,TX,
39448,7625 N Ih 35 in,Austin,TX,
37920,2400 Grove Boulevard in,Austin,TX,
101171,2200 Robert Dedman in,Austin,TX,
37691,11600 S 1St St in,Austin,TX,
79768,6300 Garden View Dr in,Austin,TX,
138615,8107 Research Blvd in,Austin,TX,
75553,17712 North Heatherwilde Blvd in,Pflugerville,TX,
69724,10714 San Jose Ave in,Austin,TX,
10304,7698 Cameron Rd in,Austin,TX,
88720,5710 Pecanwood Ln in,Austin,TX,
20140,3400 Halsell Ct in,Austin,TX,
140920,2208 East 2Nd Street in,Austin,TX,
28006,9300 S Interstate 35 Ste B in,Austin,TX,
101816,13808 Maha Rd in,Austin,TX,
75274,505 Vargas Rd in,Austin,TX,
119042,7226 Apperson St in Del,Valle,TX,
23914,12120 Manchaca Rd in,Austin,TX,
113634,290 & County Line Road in,Travis,TX,
62981,3101 Oak Springs Drive in,Austin,TX,
58956,1949 Webberville Rd in,Austin,TX,
13095,12201 Von Quintus Road in,Austin,TX,
44725,5809 Buffalo Pass in,Austin,TX,
11291,6203 Hickman Ave in,Austin,TX,
59730,12550 Country Trails Ln in,Austin,TX,
123961,21205 W 71 in,Travis,TX,
114568,7401 N Lamar Blvd in,Austin,TX,
105954,5800 Pino Ln in,Austin,TX,
90351,5270 E 71 in,Travis,TX,
67170,1002 Pleasant Valley Drive in,Pflugerville,TX,
112222,7918 El Dorado Dr in,Austin,TX,
27650,2250 Ridgepoint Dr in,Austin,TX,
116362,1500 W. William Cannon in,Austin,TX,
127676,4917 S Congress in,Austin,TX,
65984,1404 Cotton Street in,Austin,TX,
25621,2200 Barton Springs Rd in,Austin,TX,
125836,6009 Daffodil Rd in,Austin,TX,
52795,3737 Executive Center Dr in,Austin,TX,
61473,2811 La Frontera Blvd in,Austin,TX,
50684,6414 Elroy Rd in Del,Valle,TX,
80060,3002 Matador Dr in,Austin,TX,
70433,600 West Saint Elmo Road in,Austin,TX,
63608,5304 Bolm Rd in,Austin,TX,
13492,20500 Dawn Dr in Lago,Vista,TX,
18482,1817 E. Oltorf. St. in,Austin,TX,
25332,6200 Palm Circle in,Austin,TX,
12241,4300 Quinlan Park Rd in,Austin,TX,
130736,600 Meadow Lea in,Austin,TX,
13341,2602 E 3Rd St in,Austin,TX,
114074,20439 Fm 969 in,Webberville,TX,
93072,8300 Furness Drive in,Austin,TX,
126539,16419 Fm 969 in,Manor,TX,
68611,8700 Evelyn Rd in Mustang,Ridge,TX,
9112,6600 Elm Creek Dr #61 in,Austin,TX,
123268,3417 Minnie St in,Austin,TX,
142840,7102 N Sioux Trail in,Austin,TX,
41999,8908 Ipswich Bay Drive in,Austin,TX,
10191,6910 Hyland Cir in,Austin,TX,
52573,1411 Luna St in,Austin,TX,
44775,7101 Geneva in,Austin,TX,
2737,5500 Peppertree Pkwy in,Austin,TX,
79828,1200 W Saint Johns in,Austin,TX,
97434,2100 East Saint Elmo Road in,Austin,TX,
60302,13800 Long Meadow in,Travis,TX,
112416,11501 Burnet Road in,Austin,TX,
134720,2302 Tern Cir in,Austin,TX,
132083,7607 Blessing Ave #1112 in,Austin,TX,
37910,7209 S Pleasant Valley in,Austin,TX,
106904,4404 E. Oltorf in,Austin,TX,
134787,13000 N Ih 35 Svc Road in,Austin,TX,
109832,5904 Lux St in,Austin,TX,
121123,9211 Laurlan Dr in,Austin,TX,
75672,8104 Linden in,Travis,TX,
69896,4505 Terry-O Ln in,Austin,TX,
105111,7703 Lowdes Dr in,Austin,TX,
25150,7626 Northveiw in,Travis,TX,
22315,4803 Louis Ave in,Austin,TX,
36923,7701 Ponoma Trail in,Austin,TX,
25695,2111 W Braker in,Austin,TX,
22284,14312 Hunters Bend in,Travis,TX,
223,5118 Heflin Ln in,Austin,TX,
74438,5600 Nancy Drive A in,Austin,TX,
103042,12001 Dessau Rd (Walnut Creek Apts) in,Austin,TX,
113910,14501 Sandifer St in,Austin,TX,
105283,12117 Manchaca in,Travis,TX,
24949,6103 Lotus Ln in,Austin,TX,
120657,1314 Rosewood Ave in,Austin,TX,
101117,2206 Garden St in,Austin,TX,
139401,809 Buckingham Pl in,Austin,TX,
135378,1813 Cedar Ave in,Austin,TX,
137844,8613 Ganttcrest Dr in,Austin,TX,
103576,825 Watson Ways in,Pflugerville,TX,
42253,3209 S Ih35 in,Austin,TX,
23318,1800 E 11Th St in,Austin,TX,
49377,", Grand Ave Pkwy in",Pflugerville,TX,
97799,13712 Fm 969 in,Austin,TX,
116998,11911 Tedford St in,Austin,TX,
8851,412 Thompson in,Austin,TX,
141437,13245 Gregg Manor Rd. in,Austin,TX,
87882,14000 Lampting in,Pflugerville,TX,
95344,7629 W Hwy 71 in,Austin,TX,
38656,7906 Cinden in,Austin,TX,
11773,1411 Gracy Farms Lane in,Austin,TX,
7585,6900 E Riverside in,Austin,TX,
25419,3400 Crownover St in,Travis,TX,
67832,4409 Gaines Ranch Loop in,Austin,TX,
28835,3005 Blacksmith in,Austin,TX,
28500,24607 Long Hollow Trl in,Travis,TX,
101245,2007 New York Ave in,Austin,TX,
35311,2450 Wickersham Ln in,Austin,TX,
5958,1188 Coleto in,Austin,TX,
23063,1709 E 71 in,Austin,TX,
127418,12860 North Highway 183 in,Austin,TX,
37391,1808 Pace Bend in,Travis,TX,
20269,703 Lamar Pl in,Austin,TX,
50777,909 Cedar Glen in,Austin,TX,
1454,21101 Hog Eye Rd in,Travis,TX,
83356,7510 Eastcrest Dr in,Austin,TX,
31317,5613 Mesquite Grove Road in,Austin,TX,
113578,5200 Knight Cir. in,Austin,TX,
63186,4509 E. St Elmo in,Austin,TX,
116669,1101 Grove Blvd in,Austin,TX,
35125,360/Mopac At Greenbelt in,Austin,TX,
37659,1201E. Rundberg in,Austin,TX,
133306,14805 Vevery Dr in,Austin,TX,
41948,406 Venture South in,Travis,TX,
12868,3509 Rogge Lane in,Austin,TX,
14338,1140 Poquito # 105 in,Austin,TX,
58066,2404 Glen Springs Way in,Austin,TX,
15096,2801 W Wells Branch Pkwy in,Austin,TX,
4151,8106 Tonopa Ln in,Austin,TX,
19602,8314 Hwy 71 W in,Austin,TX,
3209,7213 Inspiration Dr. in,Austin,TX,
123401,3520 Victorine Ln in Del,Valle,TX,
98976,11208 Renel Drive in,Austin,TX,
104578,14407 Highsmith in,Austin,TX,
110566,5300 North Capital Of Texas Highway in,Austin,TX,
61219,2002 Holland Ave in,Austin,TX,
97365,14400 Farm To Market 969 in,Austin,TX,
63785,8129 Fm 973 in,Travis,TX,
126826,6100 Toll 130 in,Travis,TX,
79258,11204 Renel Dr in,Austin,TX,
317,6900 Geneva in,Austin,TX,
15489,19012 Texas 71 in,Travis,TX,
69387,183 & Farm Road 812 in,Austin,TX,
12669,10202 Annie Oakly Trl in,Austin,TX,
25033,12715 Heinemann Dr in,Austin,TX,
33132,415 Bastrop Hwy in,Austin,TX,
51615,1319 Mckie in,Austin,TX,
85996,10400 Doc Holliday Trl in,Austin,TX,
24995,15909 Fm812 in Del,Valle,TX,
98193,13009 Campos Dr in,Austin,TX,
22112,1310 Southport Drive in,Austin,TX,
112822,6800 Bill Hughes Rd in,Austin,TX,
59836,2414 Rockridge Dr in,Austin,TX,
128122,4903 Savorey Ln in,Austin,TX,
39953,8601 Pinegrass #A in,Austin,TX,
110467,305 E Fawnridge in,Austin,TX,
13529,9300 Ih35 in,Austin,TX,
10643,4705 Ribbecke Ave in,Austin,TX,
69463,12709 Waynespur in,Austin,TX,
114597,8500S Fm 973 in,Austin,TX,
7393,4024 Kenter Xing in,Travis,TX,
95939,520 Sacramento Dr in,Austin,TX,
22059,7106 Beckett in,Austin,TX,
100964,1300 S Pleasant Valley Rd in,Austin,TX,
54381,2200 Webberwood Dr in,Webberville,TX,
43067,700 San Jacinto Blvd in,Austin,TX,
50153,4804 Loyola in,Austin,TX,
134243,9506 Night Star Dr in,Austin,TX,
53101,2336 Douglas St in,Austin,TX,
32989,13604 Avery Trestle Ln in,Austin,TX,
143302,4825 Davis Ln in,Austin,TX,
83835,45Th St & N. Lamar in,Austin,TX,
103726,10400 Little Pebble Dr in,Austin,TX,
134742,17708 Bridgefarmer in,Austin,TX,
137275,13106 Bennington in,Austin,TX,
18001,4200 Watersedge Cv in,Austin,TX,
11011,15001 Spillman Ranch in,Austin,TX,
35602,5005 Hedgewood Dr in,Austin,TX,
11160,10608 Plains Trl in,Austin,TX,
126218,11706 Sweetwater Trl in,Austin,TX,
130809,12138 North Lamar Boulevard in,Austin,TX,
24734,50002 Westgate Blvd in,Austin,TX,
43888,2409 W. Slaughter Ln in,Austin,TX,
65965,45Th St And Ave F in,Austin,TX,
23247,5509 Imperial Dr in,Austin,TX,
107691,360 & Westlake Dr. in,Austin,TX,
94616,12208 Waterford Run Way in,Manor,TX,
104976,18417 Maxa Dr in,Manor,TX,
62035,12320 Dessau Road in,Austin,TX,
124666,745 Us-183 in,Austin,TX,
109803,702 W 25Th St in,Austin,TX,
34755,2316 Webberville Road in,Austin,TX,
44334,3203 Loyola in,Austin,TX,
13057,5807 Viewpoint Dr in,Austin,TX,
71794,7403 Bluff Springs Rd in,Austin,TX,
111739,7900 Thaxton in,Austin,TX,
56842,10223 Thaxton in,Austin,TX,
115872,516 Sweetleaf in,Pflugerville,TX,
64858,4010 Fm 1327 in,Creedmoor,TX,
67805,3707 Towerview Ct in,Austin,TX,
121064,220 Pompton Dr in,Austin,TX,
112018,7535 N Lamar Blvd in,Austin,TX,
66482,4508 Chesney Ridge Dr in,Austin,TX,
121295,4404 Stone Gate in,Austin,TX,
80512,15918 Littig Rd in,Manor,TX,
32760,2811 E 5Th St in,Austin,TX,
21678,1103 Rr 620 in,Austin,TX,
44552,4902 Maufrais Ln in,Austin,TX,
104596,4200 Smith School Rd in,Austin,TX,
70135,1109 N Meadows Dr in,Austin,TX,
51649,8805 North Interstate 35 in,Austin,TX,
99954,1302 South First Street in,Austin,TX,
17696,10704 S Interstate 35 Frontage Rd in,Austin,TX,
93080,100 W North Loop in,Austin,TX,
133622,10244 Old Lockhart Rd in,Travis,TX,
113394,14016 N 620 in,Austin,TX,
50073,1200 Larkwood Dr in,Austin,TX,
88068,11117 Desert Willow Loop in,Austin,TX,
71980,500 East 4Th Street in,Austin,TX,
21675,6420 Colton Bluff Springs Rd in,Austin,TX,
2079,6001 West Parmer Lane in,Austin,TX,
51801,12402 Audane Dr in,Austin,TX,
26800,12705 War Path in,Austin,TX,
53224,1301 West Oltorf in,Austin,TX,
49195,8733 Birmingham in,Austin,TX,
96362,12900 Blk S Us 183 in,Austin,TX,
39079,12916 Wood Lily Trail in,Travis,TX,
122206,1313 E 52Nd St in,Austin,TX,
142265,2909 Thurgood Ave in,Austin,TX,
47784,6807 Wentworth Dr in,Austin,TX,
88927,2717 S Lamar Blvd in,Austin,TX,
126910,7107 Shannon Dr in,Austin,TX,
38917,1304 Mc Kie Dr in,Austin,TX,
141072,1120 Denfield St in,Austin,TX,
56374,13845 Fallsprings Way in,Manor,TX,
140398,15109 Holly Lane in,Travis,TX,
39044,714 Turtle Creek Blvd in,Austin,TX,
140555,8610 N 620 in,Austin,TX,
136453,6912 Shannon Dr in,Austin,TX,
80990,2609 S 4Th St in,Austin,TX,
135073,4200 North Lamar Boulevard in,Austin,TX,
34681,21334 Blake Manor Rd in,Webberville,TX,
101672,5700 Spoke Cove in,Austin,TX,
125820,5318 Wellington Dr in,Austin,TX,
107890,7010 W Hwy 71 in,Austin,TX,
64552,7621 Crystalbrook Cv in,Austin,TX,
137457,11604 Loweswater in,Austin,TX,
74837,907 W 23Rd St in,Austin,TX,
43463,515 E 39Th in,Austin,TX,
128418,2500 Burleson Rd in,Austin,TX,
56300,5715 Springville in,Austin,TX,
113292,5800 Whitebrook Dr in,Austin,TX,
121264,1006 E. Yager Ln in,Austin,TX,
63546,1516 Indostnal Way#B in,Hays,TX,
66489,5100 S. 1St St in,Austin,TX,
89307,9151 Research Blvd in,Austin,TX,
75291,15010 Nuttall Dr in,Austin,TX,
96065,907 W. 23Rd St in,Austin,TX,
73737,13700 County Line Road in,Travis,TX,
56231,1841 Wooten Park Dr in,Austin,TX,
38491,16019 Milo Rd in,Austin,TX,
27901,8709 Fm 969 in,Austin,TX,
108711,3012 Guerrero Dr in Del,Valle,TX,
61968,183 And Geneva in,Austin,TX,
124369,835 N Pleasant Valley Rd in,Austin,TX,
10867,1323 Mckie Cv in,Austin,TX,
120477,5706 Spoke Ct in,Austin,TX,
24661,15100 Canary St in,Austin,TX,
117770,12904 Wedding Dr in,Travis,TX,
92674,412 East William Cannon in,Austin,TX,
136413,5603 Tura Ln in,Austin,TX,
77408,306 Pecan Dr in,Austin,TX,
38857,2304 Quicksilver in,Austin,TX,
36726,4901 Merritt Circle in,Austin,TX,
86888,8449 Nuckols Crossing in,Austin,TX,
39149,1841 Wooten Park in,Austin,TX,
37727,3400 Ranch Rd 620 S in Bee,Cave,TX,
96936,6806 Spruce Gum in,Austin,TX,
68388,11719 Charing Cross in,Austin,TX,
46718,5513 Paseo Nuevo Cir in Del,Valle,TX,
25656,2115 E 18Th St in,Austin,TX,
50158,1615 Ridgehaven Dr in,Austin,TX,
94678,306 B Pecan Drive in,Austin,TX,
137470,6214 S Fm 973 in Del,Valle,TX,
48011,8312 N Ih 35 Apt 235 in,Austin,TX,
28898,7912 Forbesdale Dr in,Austin,TX,
88154,902 Gardner Road in,Austin,TX,
10796,14603 Highsmith St in,Austin,TX,
56070,500 South Congress Ave in,Austin,TX,
116757,4512 Little Hill Cir in,Austin,TX,
6366,8008 Linden Rd in,Travis,TX,
82994,6300 S Congress Ave in,Austin,TX,
6759,8105 Research Blvd #51B in,Austin,TX,
61972,4802 Turnstone in,Austin,TX,
94437,8820 Millton Lease Dr in,Austin,TX,
128502,1114 Brookswood Ave in,Austin,TX,
73633,6215 Peggy Ln in,Austin,TX,
66947,1705 Travis Heights in,Austin,TX,
91800,1124 Rutland Dr #184 in,Austin,TX,
6557,5800 Techni Center Dr # 1023 in,Austin,TX,
136617,7704 Blue Goose Dr in,Austin,TX,
138332,7101 Hwy 71 in,Austin,TX,
91996,3404 U.S. 183 in,Austin,TX,
3198,9004 Quail Creek Dr in,Austin,TX,
48984,177 Stony Creek Dr in Del,Valle,TX,
95612,3006 Val Dr in,Austin,TX,
43405,6405 Linda Ln in,Austin,TX,
13724,6314 Woodhue Dr in,Austin,TX,
82755,2001 Highway 71 in Del,Valle,TX,
136189,10001 S 1St St in,Austin,TX,
36540,612 West Crestland in,Austin,TX,
58911,15100 Hebbe Ln in,Pflugerville,TX,
95298,1600 Wickersham #2076 in,Austin,TX,
52683,4025 Capitol Texas Highway in,Austin,TX,
68027,13114 New Boston Bend in,Austin,TX,
36254,2705 French Place in,Austin,TX,
228,209 Schirra Place in,Austin,TX,
69570,2306 Willow St in,Austin,TX,
121668,10920 Signal Hill Rd in,Austin,TX,
66829,1611 Sarcen Rd in,Austin,TX,
89193,1600 Cannon Yeomand in,Austin,TX,
106102,2313 Cocoa Ln in,Austin,TX,
127372,8645 Fm973 in,Manor,TX,
51746,1509 E 13Th Street in,Austin,TX,
123560,4606 Senda Ln in,Travis,TX,
17290,1615 Serenity Dr in,Pflugerville,TX,
9753,10904 Helms Deep Drive in,Austin,TX,
94514,6304 Earlyway Drive in,Austin,TX,
84641,830 W. 3Rd St #2143 in,Austin,TX,
73131,2225 E. Oltorf in,Austin,TX,
87626,10000 Block Of North Lamar in,Austin,TX,
141033,2000 Thrasher in,Austin,TX,
139230,211 E 3Rd in,Austin,TX,
19300,11306 Pencewood Dr in,Austin,TX,
3114,7122 Wood Hollow Dr in,Austin,TX,
70558,8225 Sam Rayburn Dr in,Austin,TX,
88762,10511 Brownie Dr in,Austin,TX,
41685,2205 Wirtz Ave in,Austin,TX,
28795,11000 Slaughter Creek Dr. in,Travis,TX,
28511,9610 Colfax Drive in,Travis,TX,
34386,5804 Bitterwood in,Travis,TX,
96867,2100 Barton Springs Road in,Austin,TX,
23853,10702 A Gungrove in,Austin,TX,
62846,4704 Cypress Bend in,Austin,TX,
121270,14619 Harcourt House Lane in,Pflugerville,TX,
134604,9070 Research Boulevard in,Austin,TX,
116324,20468 Fm 969 in,Travis,TX,
77805,1512 Sir Tropas Trl in,Austin,TX,
143017,6409 Moonglow Dr in,Austin,TX,
15212,7500 Lobelia Dr in,Austin,TX,
49017,12424 Research Blvd in,Austin,TX,
8457,11Th St. in,Austin,TX,
133348,"1510 North Loop, , Tx in",Austin,TX,
98429,5830 Shreveport Dr in,Austin,TX,
129804,"6855 E, , Tx in",Austin,TX,
77410,300 E Wild Senna in,Pflugerville,TX,
63944,11406 Tedford St & Scurry St in,Austin,TX,
122499,1420 Old Bastrop Hwy in,Austin,TX,
9857,13422 Onion Creek Dr in,Travis,TX,
59442,5220 Tahoe Trl in,Austin,TX,
8933,12310 Von Quintus in,Austin,TX,
71216,15402 Patrica St in,Travis,TX,
66894,3205 Dolphin Dr in,Austin,TX,
82604,7908 Gault Street in,Austin,TX,
72821,600 E Riverside Dr in,Austin,TX,
45179,4700 East Riverside Drive in,Austin,TX,
52152,602 Blue Valley in,Austin,TX,
124232,8200 Research Blvd #103 in,Austin,TX,
126163,1308 Thorneberry Rd in Del,Valle,TX,
67408,12305 Drummond Dr in,Austin,TX,
45411,20420 Lockwood Rd in,Manor,TX,
61642,8701 Ampezo Trl in,Austin,TX,
62982,2401 E 6Th St #2030 in,Austin,TX,
14143,16008 Litting Rd in,Manor,TX,
121961,1941 Gaston Pl in,Austin,TX,
85850,710 East Ben White in,Austin,TX,
113620,1410 Deupree Dr in,Austin,TX,
81500,6712 N Lamar Blvd in,Austin,TX,
104797,8100 Westgate Blvd in,Austin,TX,
40101,10017 Wind Dunes Dr in,Austin,TX,
142263,5901 E Stassney Ln in,Austin,TX,
46667,829 Park Plaza in,Austin,TX,
49686,1100 West Parmer Lane in,Austin,TX,
28722,2608 Gonzales in,Austin,TX,
99487,2400 Grove Blvd in,Austin,TX,
42241,212 Old Bastrop Rd in,Travis,TX,
9864,4305 Acropolis in,Austin,TX,
59305,7303 Wood Hollow in,Austin,TX,
57444,13400 Metric in,Austin,TX,
15238,8301 Furness Ave in,Austin,TX,
136626,9001 Amberglen Blvd in,Austin,TX,
90721,11Th And Chicon in,Austin,TX,
32077,22306 Honeycomb Ln in,Leander,TX,
39704,14938 Swiss in,Austin,TX,
125688,5010 Brassiewood in,Austin,TX,
106772,6908 Branchwood Dr # A in,Austin,TX,
23516,1405 Man O War Dr in,Travis,TX,
13596,9937 B Quail Blvd in,Austin,TX,
125778,10712 Razil Court in,Austin,TX,
26306,183 Vargas Rd in,Austin,TX,
117233,12437 Granton Cove in,Austin,TX,
1930,32Nd St And Hampton Rd in,Austin,TX,
33740,8805 N Plaza Ct #1593 in,Austin,TX,
2010,6114 S 1St in,Austin,TX,
127292,6013 Melody in,Travis,TX,
124066,2741 Citation Dr in Del,Valle,TX,
104215,1881 Grove Blvd #1012 in,Austin,TX,
77895,1303 Tuxford Cv in,Austin,TX,
60025,4700 E Riverside in,Austin,TX,
42584,904 Bird Creek in,Austin,TX,
84115,4424 Silverstone Dr in,Austin,TX,
80610,6855 E Hwy 290 in,Austin,TX,
48115,9900 S Ih 35 Frontage Road in,Austin,TX,
21727,16310 Framington in,Pflugerville,TX,
78272,1404 Anise in,Austin,TX,
775,4612 Sherwyn Dr in,Austin,TX,
52438,2603 Monitor in,Austin,TX,
129748,8401 Colony Lp in,Austin,TX,
80783,1102 South Congress Avenue in,Austin,TX,
81055,28Th St And San Pedro St in,Austin,TX,
47151,28Th St And Salado in,Austin,TX,
127297,15110 Pocmont Cir in,Travis,TX,
47190,3186 Texas 71 in Del,Valle,TX,
33048,3314 Burleson Rd in,Austin,TX,
99782,9300 South Interstate 35 Frontage Road in,Austin,TX,
83889,5600 Decker Creek Cv in,Manor,TX,
127954,7911 Briarton Dr in,Austin,TX,
64162,6900 Branchwood in,Austin,TX,
39217,3227 N Ih 35 in,Austin,TX,
24583,3811 East 12Th St in,Austin,TX,
57453,826 King Albert St in,Austin,TX,
97865,5802 N Lamar Blvd in,Austin,TX,
48674,2409 Town Lake Cir in,Austin,TX,
2881,9420 North Interstate 35 in,Austin,TX,
71700,2300 Turtle Mountain in,Austin,TX,
72438,18010 Blake Manor Rd in,Travis,TX,
1670,5305 Woodland Oaks Ct in,Austin,TX,
68680,7624 Northview Ln in,Austin,TX,
36316,17908 Cutback in,Travis,TX,
15043,2511 Jenibetth Lane in,Austin,TX,
13974,1106 Begonia in,Austin,TX,
74670,"2201 E, , Tx in",Austin,TX,
121308,21069 Blake Manor Rd in,Travis,TX,
78878,14938 Swiss Drive in Del,Valle,TX,
123686,4605 Circle S Rd in,Austin,TX,
134337,4507 Caswell in,Austin,TX,
137303,1503 Haskell in,Austin,TX,
29976,14412 Pebble Run Path in,Manor,TX,
38222,8505 Dulcet Dr in,Austin,TX,
97351,10011 Woodland Village in,Austin,TX,
97087,183/Oak Knoll Site Stuff in,Austin,TX,
105595,1700 Burton Dr in,Austin,TX,
132562,4614 Horseshoe Bend in,Austin,TX,
134589,1801 West Koenig Lane in,Austin,TX,
11367,11801 Doyle Overton Rd in,Travis,TX,
67927,8801 S I35 in,Austin,TX,
45236,9200 North Plaza Dr #38A in,Austin,TX,
45214,707 Blackson Ave in,Austin,TX,
92334,6010 West Parmer Lane in,Austin,TX,
96389,7902 Tisdale in,Austin,TX,
104693,183 & 973 in,Travis,TX,
1478,4010 Hwy 1327 Fire Station in,Austin,TX,
83817,1905 Nightview Dr in,Austin,TX,
39976,15099 Mallard Green Lane in,Austin,TX,
24262,3505 Lafayette Ave. in,Austin,TX,
65962,9805 Monarch Ln in,Travis,TX,
3175,4415 South Interstate 35 Frontage Road in,Austin,TX,
106888,12600 Campana Drive in,Austin,TX,
142871,8628 Manchaca Road in,Austin,TX,
5308,8921 Sun Shower Bend in,Austin,TX,
31084,2206 Peppertree Ct. in,Austin,TX,
44864,13905 Wild Turkey in,Travis,TX,
22839,812 And Hwy 183 in,Austin,TX,
96108,6111 South Congress in,Austin,TX,
81937,1201 Gregory Lane in Round,Rock,TX,
121803,5731 Arcadia in,Austin,TX,
61184,1208 Maple in,Austin,TX,
71838,2006 Conestoga Trail in,Austin,TX,
97693,16201 Cameron Rd in,Travis,TX,
53774,9414 Parkfield Dr in,Austin,TX,
49730,1611 E. Pfennig Ln in,Travis,TX,
63373,8019 Cedar Elm Trl in,Austin,TX,
5455,1814 Colony Creek Drive in,Austin,TX,
122741,120 Webberwood Way in,Travis,TX,
81049,11101 Centennial Trail in,Austin,TX,
141856,12425 Lamplight Village Ave in,Austin,TX,
51786,709 E Ben White in,Austin,TX,
27418,13800 N 183 in,Austin,TX,
121956,8519 Cahill Dr #1210 in,Austin,TX,
114969,4610 Hank Ave in,Austin,TX,
137661,9500 E Hwy 290 in,Austin,TX,
105895,8718 Fm 812 in,Austin,TX,
54451,15300 Lucien Dr in,Austin,TX,
110050,7008 Kildare Cv in,Austin,TX,
24853,8801 South Interstate 35 Frontage Road in,Austin,TX,
81227,4510 Craigwood in,Austin,TX,
76123,1901 Willow Creek Dr in,Austin,TX,
36331,600 Robert E Lee Rd in,Austin,TX,
6418,3002 Ellon Rd in,Austin,TX,
142319,13613 Long Meadow in,Travis,TX,
72117,14014 Thermal Dr in,Austin,TX,
99891,7029 Hillcroft Dr in,Austin,TX,
90374,1714 Rutland in,Austin,TX,
30250,518 Tanner in,Pflugerville,TX,
19506,9345 E Us 290 #13108 in,Austin,TX,
124569,1313 Montopolis Drive in,Austin,TX,
52947,5616 Kleberg Trail in,Austin,TX,
108566,110 W Slaughter Ln in,Austin,TX,
9407,5409 Ponciana Dr in,Austin,TX,
103012,9723 Blocker in,Austin,TX,
117095,6605 Greensboro in,Austin,TX,
38836,904 Bret Lane in,Austin,TX,
131830,5721 China Berry Rd in,Austin,TX,
19294,1616 East Oltorf Street in,Austin,TX,
12600,14702 Highsmith Street in,Travis,TX,
132019,304 Masterson Pass in,Austin,TX,
27591,12509 La Paz in,Travis,TX,
89349,7206 Scenic Brook in,Austin,TX,
134475,26300 Century Park Blvd in,Austin,TX,
104081,1814 Bitter Creek in,Austin,TX,
88860,6009 Daffodil in,Austin,TX,
83074,1215 W Slaughter Lane in,Austin,TX,
46733,3323 Thomas Kincheon St in,Austin,TX,
91485,9723 Blocker Rd in,Austin,TX,
70834,7000 Kildare Cv in,Austin,TX,
5071,4406 Dove Springs in,Austin,TX,
46285,2809 Single Trace Ct in,Austin,TX,
121293,2Nd And Pedernales St in,Austin,TX,
58152,4708 Castleman Dr in,Austin,TX,
66012,903 Ramble Creek in,Pflugerville,TX,
106377,9611 Carson Creek in,Austin,TX,
94450,9800 Curlew Drive in,Austin,TX,
37957,2402 Elmglen in,Austin,TX,
74024,6513 Hergotz in,Austin,TX,
125283,19700 Lockwood Rd in,Travis,TX,
87780,6400 E Hwy 290 in,Austin,TX,
92766,1402 Parker Ln in,Austin,TX,
126145,651 North Pleasant Valley in,Austin,TX,
49155,3500 Eskew Dr in,Austin,TX,
87749,11809 Charing Cross in,Austin,TX,
101984,5808 Cedardake Dr in,Austin,TX,
94819,3708 S 2Nd St in,Austin,TX,
123726,1St St And Wm Cannon in,Austin,TX,
31374,917 Chiswick Dr in,Austin,TX,
15380,6919 Old Post Lp in,Austin,TX,
56797,1008 Milferd Way in,Austin,TX,
33710,6010 N Lamar Blvd in,Austin,TX,
113101,1703 Broadmoor in,Austin,TX,
63940,11901 N Mopac Expwy in,Austin,TX,
16723,1301 Romeria Dr in,Austin,TX,
69915,3508 Alpine Cir in,Austin,TX,
81197,308 Le Grande Ave in,Austin,TX,
56507,406 Meadow Lea Dr. in,Austin,TX,
69828,1833 Cheddar Loop in,Austin,TX,
133443,8501 Yaupon Springs in,Travis,TX,
18754,7513 Rio Pass in,Austin,TX,
90303,9705 Thaxton in,Austin,TX,
36715,2101 E 12Th St in,Austin,TX,
68621,4110 Bunny Run in,Austin,TX,
50046,5500 Manchaca Road in,Austin,TX,
48626,8803 Georgian Dr #B in,Austin,TX,
70968,10546 Indigo Broom in,Austin,TX,
22266,7500 Bluff Springs in,Austin,TX,
105880,700 E Live Oak in,Austin,TX,
9547,2500 Montopolis in,Austin,TX,
44682,6208 Palm Cir in,Austin,TX,
120838,4711 Old Castle Rd in,Austin,TX,
94626,14608 Navarro Creek Pass in Del,Valle,TX,
88889,3012 Guerrero Dr in,Travis,TX,
120787,735 Patton Ave in,Austin,TX,
92525,9600 Blk Carson Creek in,Austin,TX,
72977,12729 Bartholdi St in,Austin,TX,
130719,616 Kemp St in,Austin,TX,
40491,3501 Ed Blustein in,Austin,TX,
133920,19716 Morrlynch Ave in,Travis,TX,
59254,2005 Conestoga Trl A in,Austin,TX,
80214,5400 Freidrich Ln #19 in,Austin,TX,
120220,7201 Meadowood in,Austin,TX,
5417,20708 Live Oak in,Manor,TX,
105212,5805 Bitterwood Drive in,Travis,TX,
28880,5805 Bitterwood in,Travis,TX,
62348,12350 Research Blvd in,Austin,TX,
53568,6114 Pizer in,Austin,TX,
103729,11150 Research Boulevard in,Austin,TX,
28117,18017 Honey Locus Ln in,Travis,TX,
20069,9704 Circle Dr in,Austin,TX,
139441,300 Barton Creek in,Austin,TX,
67602,100 West Cesar Chavez in,Austin,TX,
74492,12000 Briarcreek Loop in,Travis,TX,
139770,2305 Park Ln in,Travis,TX,
65922,9810 Mandeville in,Austin,TX,
85896,7902 Marble Ridge Dr in,Austin,TX,
104202,7201 Meadowwood Dr in,Austin,TX,
47101,1900 Burton Drive in,Austin,TX,
139936,10200 Bock in,Travis,TX,
37896,12900 White House St in,Manor,TX,
92233,1121 Shady Lane in,Austin,TX,
45571,155 Oak Forest Dr in,Bastrop,TX,
37070,4610 Duvall Road in,Austin,TX,
73184,8515 S. Ih 35 in,Austin,TX,
90970,1701 Smith Road in,Austin,TX,
95001,6801 Breezy Hill Dr in,Travis,TX,
22478,904 Cougar Cove in,Austin,TX,
126479,7902 Tisdale St in,Austin,TX,
8364,9308 Fm 9308 in,Austin,TX,
7610,1730 E Oltorf St in,Austin,TX,
27986,12001 Dessau Rd #1816 in,Austin,TX,
13742,18101 Littig Rd in,Travis,TX,
12723,21408 Greenridge Dr in,Williamson,TX,
25279,7201 Meadowood Dr in,Austin,TX,
21466,5700 Pinon Vista in,Austin,TX,
5127,8401Annabella in,Travis,TX,
6588,15Th /Rio Grande in,Austin,TX,
17849,4007 Avenue C in,Austin,TX,
83902,104 Masterson Pass in,Austin,TX,
74819,130 Gault St in,Austin,TX,
77735,1114 Lost Creek Blvd in,Austin,TX,
62646,6512 Kirkwynd in,Austin,TX,
90526,1500 Lupine Ln in,Austin,TX,
73597,3016 Fm 1327 Land Fill in,Austin,TX,
32136,805 Cool Water in,Austin,TX,
23043,10911 Thaxton Rd A in,Austin,TX,
60825,1602 Forest Hill in,Austin,TX,
68655,3100 Dolphin in,Austin,TX,
61890,15501 Fm 1100 in,Austin,TX,
26522,1020 Atkinson in,Austin,TX,
77852,9703 Nightjar Dr in,Austin,TX,
119038,7201 Meadowood Drive in,Austin,TX,
73823,9905 Tree Bend Cv in,Austin,TX,
7730,9600 Bl Bear Claw in,Austin,TX,
26551,1002 Warrington Drive in,Austin,TX,
112469,4909 Eastdake in,Austin,TX,
36568,12024 Herb Brook Dr. in,Austin,TX,
84923,7311 Blackson in,Austin,TX,
43487,11237 Pardoners Tale Lane in,Austin,TX,
128901,2620 E 4Th in,Austin,TX,
25059,14000 Renaissance Court in,Austin,TX,
5557,11781 Von Quintus Rd in,Austin,TX,
32827,9004 Thaxton Rd in,Austin,TX,
135151,1907 Haskell St in,Austin,TX,
7560,"12901, , Tx in",Austin,TX,
82575,1303 Mckie in,Austin,TX,
103721,11193 Lambert in,Austin,TX,
118139,6700 Emerald Forest in,Austin,TX,
21254,7302 Chisos Pass in,Austin,TX,
77838,8910 Research Blvd in,Austin,TX,
15163,6512 E Hill Dr in,Austin,TX,
75123,4915 Turnersville Rd in,Creedmoor,TX,
116837,900 Broken Feather St in,Pflugerville,TX,
134353,404 W Croslin in,Austin,TX,
12636,22804 Vivian Cir in,Travis,TX,
69981,6702 Breezy Hill in,Travis,TX,
97463,701 Center Ridge Dr #534 in,Austin,TX,
136082,115 N Laurelwood Dr in,Travis,TX,
123620,14308 Fm 812 in,Travis,TX,
993,255 Mallet Court in,Austin,TX,
40809,323 W. William Cannon in,Austin,TX,
106391,7415 Manchaca in,Austin,TX,
84418,6102 Marigold Ter in,Austin,TX,
116598,106 Oertli Ln in,Austin,TX,
126403,18704 Dry Lake Ln in,Pflugerville,TX,
106841,4537 S Ih 35 in,Austin,TX,
130503,19704 Hogeye Rd in,Manor,TX,
55555,7519 East Crest Dr in,Austin,TX,
55269,12844 St Mary Drive in,Manor,TX,
3550,8506 Georgian Drive in,Austin,TX,
94619,2704 Willow St in,Austin,TX,
17922,8205 Lazy Ln in,Austin,TX,
86822,4503 Glomar Avenue in,Austin,TX,
29525,209 Paleface Point in,Lakeway,TX,
76522,10025 Lisi Anne Dr in,Austin,TX,
136010,5203 Samuel Huston Ave in,Austin,TX,
18862,4801 Hedgerow in Del,Valle,TX,
111543,8701 Bluffstone Cove in,Austin,TX,
128446,3614 Bill Price Rd in,Travis,TX,
69249,9500 Dessau in,Austin,TX,
114112,715 E 8Th in,Austin,TX,
113967,17400 Carlson in,Travis,TX,
99250,38Th St And Guadalupe in,Austin,TX,
63541,3500 Alpine Cir in,Austin,TX,
130564,5504 Ledesma Rd in,Austin,TX,
27868,8220 West Highway 71 in,Austin,TX,
787,4000 Airport in,Austin,TX,
67013,2526 Durwood St in,Austin,TX,
89802,3820 East 16Th Street in,Austin,TX,
99620,11609 Austex Acres Ln in,Manor,TX,
125548,4415 Bucks Run in,Austin,TX,
133478,7Th St And N Pleasant Valley Rd in,Austin,TX,
82017,1421 E Wells Branch in,Travis,TX,
120260,11807 Carshalton Dr in,Austin,TX,
103979,2504 New York Dr # 134 in,Austin,TX,
85448,4400 Brandt Rd in,Travis,TX,
114353,915 Connecticut in,Austin,TX,
74079,2100 Polaris Rd in,Austin,TX,
90123,500 Harway in,Austin,TX,
133308,4500 Randig Ln in,Travis,TX,
48307,706 W Mlk in,Austin,TX,
9671,9210 Northgate in,Austin,TX,
127639,3300 S Congress in,Austin,TX,
62269,9723 Blocker Ln in,Austin,TX,
14619,11512 Oltons Bluff Cv in,Austin,TX,
38944,14108 Cypress in,Travis,TX,
30520,3112 Speidel in,Travis,TX,
114060,1913 E Riverside Dr in,Austin,TX,
57799,52 Ridgewood Circle in,Hays,TX,
109892,900 Broken Feather Trl in,Travis,TX,
27045,2009 Genievive Ln in,Austin,TX,
120336,6001 Manchaca Rd in,Austin,TX,
12176,4523 Tannehill in,Austin,TX,
40887,15404 Chaparral in,Travis,TX,
88199,4800 S Congress Ave in,Austin,TX,
134031,4912 N Interstate 35 in,Austin,TX,
61956,1003 E 45Th St in,Austin,TX,
65948,20400 Quiet Oaks in,Travis,TX,
78913,4908E Yager Ln in,Travis,TX,
100601,4906 Allison Cv in,Austin,TX,
134046,403 Elm View Way in,Austin,TX,
62233,1706 Webberville Rd in,Austin,TX,
108714,4204 Duval Rd in,Austin,TX,
89127,7001 S Congress in,Austin,TX,
28025,12701 Bransford Cv in,Austin,TX,
80455,810 E Slaughter in,Austin,TX,
115190,12113 Cascade Caverns Trl in,Austin,TX,
126944,9601 South Interstate 35 Frontage Road in,Austin,TX,
134714,1700 Terri Rd in,Austin,TX,
93381,7103 E Meadowbend in,Austin,TX,
65579,8652 Nuckols Crossing Rd in,Austin,TX,
78775,1710 E Oltorf in,Austin,TX,
86950,1149 Airport Blvd in,Austin,TX,
22687,9404 China Rose Dr in,Austin,TX,
23730,6Th St And Lavaca in,Austin,TX,
33943,9120 Northgate in,Austin,TX,
105508,7300 Block Of Carver in,Austin,TX,
78067,6504 Bridge Point Pwky in,Austin,TX,
29560,303 E. Croslin #108 in,Austin,TX,
86229,12800 Buenos Aires Pkwy in,Austin,TX,
116527,"14028 N Us, Bldg F in",Austin,TX,
87598,10555 U.S. 290 in,Manor,TX,
49575,1913 Margalene Way in,Austin,TX,
56054,9711 Blocker Lane in,Austin,TX,
83174,9015 Shepard in,Austin,TX,
86274,1511 Cripple Creek Drive in,Austin,TX,
22265,7201 Wood Hollow in,Austin,TX,
33378,2016 Goodrich Avenue in,Austin,TX,
65605,1505 Cherylyn Drive in,Austin,TX,
65163,6210 E. Hwy 290 in,Austin,TX,
35841,6112 Crow Ln in,Austin,TX,
34235,16804 Decker Creek Dr in,Manor,TX,
26841,10401 Anderson Mill Rd in,Austin,TX,
136672,6406 Capriola in,Austin,TX,
135532,780 Farm To Market 1626 in,Travis,TX,
109904,4800 East Highway 71 in Del,Valle,TX,
77124,18312 Maxa in,Manor,TX,
75797,5700 Blk Tracy Lynn in,Austin,TX,
137368,500 E 7Th St in,Austin,TX,
141705,6412 Colton Bluff Springs Road in,Austin,TX,
6754,10616 Doyle Road in Del,Valle,TX,
82750,7113 Burnet Rd in,Austin,TX,
2951,1840 Wooten Park in,Austin,TX,
63864,508 E Howard Ln # 569 in,Austin,TX,
110018,11915 Stone Hollow Dr in,Austin,TX,
80140,1548 Farm To Market Road 685 in,Pflugerville,TX,
7587,7003 Whispering Creek in,Austin,TX,
38339,10101 South 1St St in,Austin,TX,
115941,11501 Autumn Ash Dr in,Travis,TX,
111535,12322 Emery Oaks in,Austin,TX,
50632,7401 Annette Cove in,Austin,TX,
46527,1624 Barton Springs Road in,Austin,TX,
129978,1308 Thornberry in,Austin,TX,
91960,1416 Rutland Dr in,Austin,TX,
26709,1400 Darold Dr in,Austin,TX,
64365,2100 Deer Run Dr in,Austin,TX,
92873,4812 Clear View in,Austin,TX,
135218,10804 Galsworthy in,Austin,TX,
1156,5107 Edenbourgh in,Austin,TX,
52658,834 E Rundberg in,Austin,TX,
29675,1176 Oak Grove in,Austin,TX,
41829,1901 E Anderson Ln in,Austin,TX,
142528,2400 Cedar Bend in,Austin,TX,
51971,10420 Formith St in,Travis,TX,
120389,5300 Ross Rd in,Travis,TX,
107076,7000 Decker Ln. #4201 in,Austin,TX,
136084,1029 Lott Ave in,Austin,TX,
55514,12400 Sky Harbor Dr in,Austin,TX,
67080,12817 New Katy in,Manor,TX,
67210,12166 Metric Boulevard in,Austin,TX,
36016,1502 Estellas Dr in Del,Valle,TX,
88030,2015 Cedar Bend Dr in,Austin,TX,
81878,9515 Night Star in,Austin,TX,
2322,810 E Slaughter #9108 in,Austin,TX,
92989,23108 Sunny Oak Ln in,Leander,TX,
4742,5406 Samuel Huston in,Austin,TX,
67389,1509 Arcadia Ave in,Austin,TX,
114703,1009 W Dittmar Road in,Austin,TX,
90126,700 E Live Oak St in,Austin,TX,
5203,3502 Pennsylvania in,Austin,TX,
94333,8909 Curlew in,Austin,TX,
130750,10013 Rocking Horse Rd in,Austin,TX,
34255,11601 Elk Park Trl in,Austin,TX,
134167,19304 Blake Manor Rd in,Manor,TX,
102787,3401 Ed Bluestein in,Austin,TX,
114741,3000 Decker Ln in,Austin,TX,
132045,1404 Marlborough Cir in,Austin,TX,
62891,7417 N Lamar Blvd in,Austin,TX,
46309,8701 Burleson Manor Rd in,Manor,TX,
10353,"6600, Apt 1010 in",Austin,TX,
41830,1176 Oakgrove Ave in,Austin,TX,
73920,8911 Briardale Dr. in,Austin,TX,
113789,933 E Rundberg in,Austin,TX,
17629,412 W Alpine in,Austin,TX,
131121,3119 Chisholm Trl in,Austin,TX,
62463,8610 Ranch Rd 620 N in,Austin,TX,
103358,71 & Bee Caves in,Austin,TX,
87029,6806 Evelyn Rd in,Austin,TX,
115711,12151 N Ih35 in,Austin,TX,
90765,3203 Crownover St in,Travis,TX,
128748,6309 Tara Dr in,Austin,TX,
114265,2006 E 8Th St in,Austin,TX,
80378,1114 Camino La Costa in,Austin,TX,
10521,706 Wayside Dr in,Austin,TX,
47201,2924 Bond Drive in,Austin,TX,
65484,1011 Fauntleroy Trail in,Austin,TX,
117508,519 E 7Th Street in,Austin,TX,
53549,7700 Nez Perce Trace in,Manor,TX,
81877,10501 Us Hwy 290 East in,Manor,TX,
26058,15615 Fagerquist in,Travis,TX,
48878,17400 Littig Road in,Manor,TX,
27473,2010 Covered Wagon Pass in,Austin,TX,
87255,1000 Blk Lott Ave in,Austin,TX,
116029,1401 S Congress in,Austin,TX,
50551,7016 Destiny Hills Dr in,Austin,TX,
70296,7309 Cameron Rd in,Austin,TX,
25425,2202 Cedar Bend Dr # B in,Austin,TX,
122803,6306 Fm 1327 in,Austin,TX,
15176,13300 William Harrison+ in,Austin,TX,
16686,207 E Monroe St in,Austin,TX,
107021,14549 Plover Pl in,Travis,TX,
111348,6101 Orleans Dr in,Austin,TX,
133842,5002 Nuckols Crossing in,Austin,TX,
713,6913 Whispering Oaks in,Austin,TX,
124305,1185 Oak Grove Ave in,Austin,TX,
55129,1425 East Yager Lane in,Austin,TX,
67269,8402 Colony Loop in,Austin,TX,
43158,6801 Bryn Mawr in,Austin,TX,
93969,6910 East William Cannon Dr in,Austin,TX,
68225,1902 Webberville Rd in,Austin,TX,
52666,7405 Tumbleweed in,Austin,TX,
136288,2900 Prado St in,Austin,TX,
7109,1701 W 35Th St in,Austin,TX,
14407,1910 W. Braker Lane in,Austin,TX,
24,1501 S Fm 973 in,Austin,TX,
59275,8200 Colony Loop in,Austin,TX,
97435,6801 Doyal Dr in,Austin,TX,
77416,10304 N Lamar Blvd in,Austin,TX,
142193,1200 Haverford Dr in,Austin,TX,
57645,1881 Grove Blvd #1525 in,Austin,TX,
104961,1120 S Lamar Blvd in,Austin,TX,
48461,14000 Hytop Dr in,Travis,TX,
61389,5604 Manor Rd in,Austin,TX,
15549,2901 Sunridge in,Austin,TX,
137341,5301 Stassney Ln in,Austin,TX,
20061,13808 Maha Rd in,Travis,TX,
2106,2815 E Sh 71 in Del,Valle,TX,
18368,3120 Wavecrest Blvd in,Austin,TX,
109040,5708 Katydid Ln in,Austin,TX,
114816,47Th And Burnet in,Austin,TX,
135429,1628 Ohlen in,Austin,TX,
53156,8504 Linden in Del,Valle,TX,
93270,11718 Barchetta in,Austin,TX,
23358,12301 Colt Dr in,Travis,TX,
38004,701 Woodword in,Austin,TX,
93352,13300 William Harrison Ct in,Manor,TX,
101271,13906 Hymill Dr in,Austin,TX,
8239,8514 Maine Dr in,Austin,TX,
55868,1402 Sharps Rd in,Travis,TX,
68952,14912 Swiss Drive in Del,Valle,TX,
124735,2417 Little John Ln in,Austin,TX,
137636,19211 St Raguel in,Manor,TX,
47544,6017 Marrigold Terr. in,Austin,TX,
71225,1221 Eleanor St in,Austin,TX,
55639,6405 Ponca in,Austin,TX,
46444,507 Rhonda Ct in,Austin,TX,
68346,8500 Declur Lns in,Austin,TX,
122882,11908 Anderson Mill Rd in,Travis,TX,
124459,2507 Berwyn Cir in,Austin,TX,
32574,10212 Manchaca Rd in,Austin,TX,
99794,1908 William Cannon in,Austin,TX,
69692,11101 Champions Ln in,Austin,TX,
114360,1800 Webberwood Dr in,Webberville,TX,
35909,1140 Eleanor St in,Austin,TX,
25571,2222 & I-35 in,Austin,TX,
119145,1315 Broadmoor Drive in,Austin,TX,
60668,1301 E St Johns in,Austin,TX,
56291,3014 West Willam Cannon Drive in,Austin,TX,
136318,1613 Perlita Dr in,Austin,TX,
133742,10707 Mcangus Road in Del,Valle,TX,
129087,973 And Murchison St in,Manor,TX,
38396,912 Echo Ln in,Austin,TX,
137781,4500 Leslie Ave in,Austin,TX,
1453,4408 Glomar in,Austin,TX,
19889,210B East Croslin St in,Austin,TX,
29516,5816 Taylor Draper in,Austin,TX,
90316,2105 Donahue in,Austin,TX,
27485,5096 E St Elmo Rd in,Austin,TX,
98860,715 W Slaughter Ln in,Austin,TX,
80028,1705 Astor Pl in,Austin,TX,
7790,4608 Turnstone Drive in,Austin,TX,
138387,13212 N Lamar in,Austin,TX,
133148,11900 Green Grove in,Travis,TX,
8937,120 W. Slaughter in,Austin,TX,
139551,1606 Canyon Edge Dr in,Austin,TX,
27430,1514 Ed Bluestein Blvd in,Austin,TX,
73842,7419 Onion Creek in,Austin,TX,
32293,9Th And Lydia in,Austin,TX,
50672,4636 Ruiz in,Travis,TX,
57299,404 E 51St in,Austin,TX,
51228,9634 Chukar Cir in,Austin,TX,
38219,5712 Fitchwood Ln in,Austin,TX,
49363,250 N Lamar Blvd in,Austin,TX,
24404,11451 Ptarmigan Dr in,Austin,TX,
41274,2814 S Ih 35 in,Austin,TX,
53890,12006 Rosethorn in,Austin,TX,
123167,2611 Bee Cave Rd in,Austin,TX,
66697,3100 Crownover St in,Austin,TX,
122717,22370 Fm 1431 in Lago,Vista,TX,
3451,211611 Long Hollow Dr in,Leander,TX,
19104,5500 Ross Rd Elem Sch in,Austin,TX,
2316,14802 Branding Iron Pass in,Austin,TX,
94933,14802 Branding Iron Pass in,Travis,TX,
89886,1104 Omega St in,Austin,TX,
125495,2507 Tracy Trl in,Austin,TX,
23615,2001 Whirlaway in,Austin,TX,
6426,2000 Whirlaway in,Austin,TX,
22331,20212 Lockwood Rd in,Travis,TX,
110407,8508 Capitol View Dr in,Austin,TX,
80015,132 Old Hwy 20 in,Manor,TX,
3104,20113 Keilman Ln in,Travis,TX,
110400,11809 Garden Gate Dr in,Travis,TX,
44764,5411 Gregg Ln in,Travis,TX,
77246,2405 E Yager Ln in,Travis,TX,
115644,11400 North Lamar Boulevard in,Austin,TX,
86421,7627 Nez Perce Trace in,Travis,TX,
14128,5200 Purple Sage Dr in,Austin,TX,
57891,3005 Coleman Ave in,Austin,TX,
101953,900 Center Ridge Drive in,Austin,TX,
128431,5504 Larchbrook in,Travis,TX,
108752,10900 Old San Antonio Rd in,Austin,TX,
65418,21951 Ann Showers in,Travis,TX,
10665,6301 Hyside in,Austin,TX,
121780,2600 Scofield Ridge in,Austin,TX,
25624,5426 Manchaca #225 in,Austin,TX,
119759,9213 Bentley Garner Lane in,Austin,TX,
128059,21120 Hwy 71 in,Travis,TX,
59399,865 Airport in,Austin,TX,
56500,13713 Fm 969 in,Austin,TX,
38662,9005 Frock Ct in,Austin,TX,
45766,1101 Matthews Ln in,Austin,TX,
101031,9304 Carson Creek Blvd in,Travis,TX,
101406,12804 Marimba Trl in,Austin,TX,
57605,9711 Blocker Ln in,Austin,TX,
99381,5302 Pine Place in,Austin,TX,
28001,333 Mesa Drive in Del,Valle,TX,
94002,5712 Fitchwood Lane in,Austin,TX,
117601,8552 N Lamar Blvd Apt 2101 in,Austin,TX,
71805,4906 Allison Cove in,Austin,TX,
34621,1044 Camino La Costa Lane in,Austin,TX,
129731,3808 Maplewood in,Austin,TX,
63998,3807 Neil Street in,Austin,TX,
122823,11620 Fast Horse Dr in,Austin,TX,
97319,5901 E Stassney in,Austin,TX,
133077,5801 Ainez Drive in,Austin,TX,
16469,8539 Cap Of Tx Hwy N in,Austin,TX,
20880,2311 Tamarisk Cir in,Austin,TX,
11493,8700 Coulver in,Travis,TX,
133240,1101 Upland Dr in,Austin,TX,
69039,12503 Palmer Rd in,Travis,TX,
78578,15201 Thatcher Dr in,Austin,TX,
124638,2513 Keepsake Dr in,Austin,TX,
33184,2720 Lyons Rd 205 in,Austin,TX,
60497,4511 E Hwy 71 in,Travis,TX,
108959,11806 Navasota in,Travis,TX,
120996,5317 Wellington in,Austin,TX,
136254,11600 Fm 1625 in,Creedmoor,TX,
53407,9504 Quail Court in,Austin,TX,
100989,12919 Dessau in,Travis,TX,
87116,6203 Parliament Dr in,Austin,TX,
104463,", Oltorf in",Austin,TX,
12439,2422 Western Trails Blvd in,Austin,TX,
12210,9300 S Ih 35 Frontage Rd in,Austin,TX,
30662,3111 Parker Lane in,Austin,TX,
38047,4908 E. Yager Ln in,Travis,TX,
39286,908 Mansell Ave in,Austin,TX,
43302,6405 Ponca Street in,Austin,TX,
65980,5414 Conventry Ln in,Austin,TX,
125040,2009 Wright /Bluebonnet in,Austin,TX,
134629,2205 Chasewych Dr in,Austin,TX,
138276,15119 Ih 35 in,Pflugerville,TX,
77648,2400 Caldwell Rd in Del,Valle,TX,
33864,4612 Blue Meadow in,Austin,TX,
111080,5400 S Pleasent Valley in,Austin,TX,
41771,1310 Fm 1327 Rd in,Austin,TX,
20849,1000 E Applegate Dr in,Austin,TX,
111545,2312 Dovehill in,Austin,TX,
83915,10004 Grizzly Oak Dr in,Austin,TX,
73402,6401 Fm 969 in,Austin,TX,
35341,1703 Walnut Ave in,Austin,TX,
80999,18424 Great Falls Dr in,Travis,TX,
5027,7811 Burleson Manor Rd in,Travis,TX,
108952,90069 N Fm 620 in,Austin,TX,
32083,6830 S. Pleasant Valley in,Austin,TX,
112796,2304 E 10Th St in,Austin,TX,
65286,1907 W 42Nd St in,Austin,TX,
84975,6308 Decker Ln in,Travis,TX,
7268,5Th And 7Th St in,Austin,TX,
96341,7Th And 5Th Street in,Austin,TX,
89017,2443 East State Highway 71 Service Road in Del,Valle,TX,
12573,4505 Eric Cir in,Austin,TX,
123450,6108 Wheless in,Austin,TX,
30037,903 Vincent Place in,Travis,TX,
34085,5658 Wagon Train in,Austin,TX,
29603,6312 Tupelo Dr in,Austin,TX,
139808,828 West 6Th St in,Austin,TX,
10384,2713 Citation Rd in,Travis,TX,
47261,1709 Tx-71 in,Austin,TX,
107658,5000 Summerset in,Austin,TX,
55466,12704 La Salle in,Austin,TX,
63811,1801 Kinney Ave in,Austin,TX,
123192,5004 Coffee Cup in,Austin,TX,
116016,4703 Nuckols Crossing in,Austin,TX,
36109,1332 Lamar Square Drive in,Austin,TX,
122472,15702 Forest Glen Cove in,Travis,TX,
1987,6109 Conti Ct in,Austin,TX,
11793,8607 S Us Hwy 183 in,Travis,TX,
60584,817 Banyon St in,Austin,TX,
73270,901 W. Ben White Blvd in,Austin,TX,
142750,2421 W. Slaughter Ln in,Austin,TX,
69081,400 E. 4Th St in,Austin,TX,
29564,7800 San Felipe Rd #1108 in,Austin,TX,
63471,10111 S. 183 in,Travis,TX,
3393,305 Loganberry Ct in,Austin,TX,
51870,407 Vargas Road in,Austin,TX,
72363,6707 Meadow Lake in,Austin,TX,
30183,5702 Coolbrook in,Austin,TX,
9144,1001 East Ben White Boulevard in,Austin,TX,
71364,716 Sheraton Ave in,Austin,TX,
41964,2504 Collins Street in,Austin,TX,
134598,2313 Lafayette in,Austin,TX,
128170,6306 Nasco Dr in,Austin,TX,
37171,1712 Cherry Orchard Dr in,Austin,TX,
78243,8100 Boggy Ridge Dr in,Austin,TX,
105757,1219 S. Meadows Dr in,Austin,TX,
70413,5010 South Congress Avenue in,Austin,TX,
55915,7311 Decker Ln in,Austin,TX,
28046,13703 Long Meadow Dr in,Travis,TX,
152,2317 S.Pleasant Valley in,Austin,TX,
84577,1110 N Meadows Dr #A in,Austin,TX,
60567,1700 Cresthaven in,Austin,TX,
26866,7401 E Riverside Dr in,Austin,TX,
96132,2211 Richcreek Rd in,Austin,TX,
82204,10000 W Reed Park Rd in,Jonestown,TX,
121207,10405 Loring in,Austin,TX,
110457,221 E Parmer Ln in,Austin,TX,
77599,4501 Spanish Oaks Ter in,Austin,TX,
75270,5400 Ross Rd in,Austin,TX,
137438,6114 S 1St St in,Austin,TX,
95883,2014 Thrasher Ln in,Austin,TX,
133284,10108 N Ih 35 in,Austin,TX,
11071,4811 West Frances Pl in,Austin,TX,
58119,5600 Hudson St in,Austin,TX,
15216,22019 Ann Showers Dr in,Travis,TX,
46249,8309 N Ih 35 in,Austin,TX,
17369,12411 Jacobson Rd in,Manor,TX,
139419,6805 Breezyhill in,Travis,TX,
139478,130 And Hwy 71 in Del,Valle,TX,
61677,190 Headquarters in Del,Valle,TX,
75064,190 Headquarters Rd in Del,Valle,TX,
17763,810 Philco Dr in,Austin,TX,
77844,300 Barwood in,Austin,TX,
66828,2120 Grand Ave in,Austin,TX,
62225,2306 Inverrary Circle in,Austin,TX,
104174,12301 Farnish Cv in,Austin,TX,
131599,12008 Thyone Dr in,Austin,TX,
58817,8501 Cameron Rd in,Austin,TX,
28817,2507 Kumquat Ct #A in,Austin,TX,
7177,5001 E 5Th St in,Austin,TX,
51357,2403 Kumquat Ct in,Austin,TX,
122713,5307 Downs Dr in,Austin,TX,
95499,6205 Marigold in,Austin,TX,
60038,9104 Cameron Rd Ste 300 in,Austin,TX,
111665,12919 Dessau Rd in,Austin,TX,
24258,2940 Moss in,Austin,TX,
125658,905 Dawson Rd in,Austin,TX,
67407,5315 Ed Bluestein in,Austin,TX,
20521,4800 Manor Rd in,Austin,TX,
5657,1900 Burton in,Austin,TX,
92767,12001 Colt Dr in,Travis,TX,
9021,26 Yucca Dr in,Austin,TX,
86204,4705 Franklin Park Dr in,Austin,TX,
35843,5503 Larchbrook in,Austin,TX,
7201,4702 Santa Anna St in,Austin,TX,
58602,8104 Westgate Blvd in,Austin,TX,
43382,8227 N Lamar in,Austin,TX,
26690,9401 E Hunters Trace in,Austin,TX,
61410,306 W Oltorf St in,Austin,TX,
3954,133 Bolles Circle in,Austin,TX,
33593,4612 Sherwyn Drive in,Austin,TX,
48488,1637 E 4Th St in,Austin,TX,
70870,16510 Fagerquist Rd in Del,Valle,TX,
119154,2201 Barton Springs Road in,Austin,TX,
142218,12820 Noche Clara Dr in Del,Valle,TX,
99315,2101 Rio Grande St in,Austin,TX,
79209,2008 Grey Castle Dr in,Austin,TX,
70469,2611 Garrettson Dr in,Austin,TX,
121088,780 Fm 1626 in,Travis,TX,
38389,2717 Bitter Creek in,Austin,TX,
93536,7201 Ellington Circle in,Austin,TX,
134603,6111 Carnation Terrace in,Austin,TX,
53693,6002 Tracy Lynn Lane in,Austin,TX,
26605,7102 Bethune Ave in,Austin,TX,
54503,7301 North Fm 620 in,Austin,TX,
89440,6200 Loyola Lane in,Austin,TX,
8575,1717 Cricket Hollow in,Austin,TX,
34946,140001 Skyline Drive in,Austin,TX,
123940,3119 Chisholm Trail in,Austin,TX,
77645,1054 Springdale Rd #108 in,Austin,TX,
16016,4404 E Oltorf St #204 in,Austin,TX,
2952,5807 Steven Creek Way in,Austin,TX,
138777,304 E. 3Rd St in,Austin,TX,
61123,19103 Engelmann Ln in,Travis,TX,
82057,1902 Ridgemont in,Austin,TX,
96824,1103 Jolena in,Austin,TX,
48516,9308 Fm 969 in,Travis,TX,
54722,4408 Sooner in,Austin,TX,
30456,5600 Windward Dr in,Austin,TX,
839,1016 W Stassney Ln in,Austin,TX,
107398,9101 Sweetgum Dr in,Austin,TX,
141292,10248 Old Lockhart in,Travis,TX,
90295,4702 Dove Springs Drive in,Austin,TX,
16663,13838 The Lakes Blvd in,Pflugerville,TX,
18247,508 E Howard Lane in,Austin,TX,
53660,13103 Lubbock Ln in,Austin,TX,
22359,2505 Bitter Creek in,Austin,TX,
1589,9300 Brents Elm Dr in,Austin,TX,
28892,12529 Sky Harbor Drive in Del,Valle,TX,
49436,5006 Cape Verde Cv in,Austin,TX,
56662,5365 Westminster Dr in,Austin,TX,
96330,6103 Conti Ct in,Austin,TX,
78477,"4100 Duval Road, Suite 101 in",Austin,TX,
136496,5706 Teri Rd in,Austin,TX,
5734,7930 Rockwood in,Austin,TX,
22525,9810 Fm 969 in,Austin,TX,
134784,501 East 8Th in,Austin,TX,
32132,2900 Oak Springs in,Austin,TX,
87618,1614 Wheeles Lane in,Austin,TX,
60107,5607 Highland Crest Dr in,Austin,TX,
96564,2809 W Hwy 290 in,Austin,TX,
69294,2Nd And Salina in,Austin,TX,
26666,9300 Ih 35 Frontage Rd in,Austin,TX,
2492,7208 Thannas in,Austin,TX,
78476,3101 West Terrace Drive in,Austin,TX,
109145,107 Cloudview Dr in,Austin,TX,
89355,1737 Cricket Hollow Drive in,Austin,TX,
125508,8303 Beaver Brook Ln in,Austin,TX,
17094,1517 Fairfield in,Austin,TX,
15275,10015 Lake Creek Parkway in,Austin,TX,
6062,9701 Aberdeen Way in,Austin,TX,
19139,9112 Evelyn Rd in Del,Valle,TX,
111240,2828 Locke Lane A in,Austin,TX,
132633,2811 East 2Nd in,Austin,TX,
22286,1701 Corona Dr in,Austin,TX,
3561,7247 Cameron Rd in,Austin,TX,
18297,420 E Fm 1626 A in,Austin,TX,
14280,506 West 37Th St in,Austin,TX,
119431,12708 Poquoson in,Austin,TX,
87676,1600 Royal Crest Dr in,Austin,TX,
21222,13812 Flat Top Ranch in,Austin,TX,
100838,3301 Thompson St in,Austin,TX,
35610,6309 Dooley Trl in,Austin,TX,
140694,12400 Zeller in,Austin,TX,
75236,506 W 37Th in,Austin,TX,
137557,12100 Block Walter Vaughn Dr in,Manor,TX,
136029,2201 Langford Cv in,Austin,TX,
58248,3005 E 3Rd St in,Austin,TX,
114705,5613 Man O War Stretch Drive in Del,Valle,TX,
560,2205 Voyageurs in,Austin,TX,
79864,2801 Lyons Rd in,Austin,TX,
79070,13021 Legendary in,Austin,TX,
26896,4600 Rocking Chair Rd in,Austin,TX,
50573,8400 Tree House Lane in,Austin,TX,
121429,1011 Chesapeake Dr in,Austin,TX,
61966,12407 N Mopac Expy in,Austin,TX,
72223,8746 Shoal Creek Blvd in,Austin,TX,
68244,2305 Park Ln in,Austin,TX,
32676,484 Ralph Ablanedo in,Austin,TX,
109937,1704 Mems Dr in,Austin,TX,
76214,16415 Greenwood Drive in Del,Valle,TX,
45803,6806 Trendel Ln in,Austin,TX,
138092,412 E William Cannon in,Austin,TX,
63875,7619 Interstate 35 Frontage Rd in,Austin,TX,
41588,1910 Bouldin Ave in,Austin,TX,
61095,2800 Webberville Road in,Austin,TX,
24656,1102 Colony North Dr in,Austin,TX,
111919,8107 Matchlock Cove in,Austin,TX,
48387,10610 Morado Circle # 2631 in,Austin,TX,
42022,1040 Springdale Rd in,Austin,TX,
85935,3504 Basford Rd in,Austin,TX,
37592,5338 Thunder Creek Dr in,Austin,TX,
86675,5502 Sapote Ct in,Austin,TX,
1837,5400 Fence Row in,Austin,TX,
74869,402 Chippendale in,Austin,TX,
140174,2508 E Riverside in,Austin,TX,
57626,4801 Candletree Ln in,Austin,TX,
130342,20 Strandtman Cv in,Austin,TX,
122526,13252 George Bush St in,Manor,TX,
128061,2607 Corabella Pl in Cedar,Park,TX,
4849,3721 N Rr 620 in,Austin,TX,
87400,6113 Caddie St in,Austin,TX,
129784,9202 Fm 812 in,Austin,TX,
4172,5400 Brodie Lane in,Austin,TX,
115837,1405 Theodora Cv in,Austin,TX,
75995,3101 Shoreline in,Austin,TX,
61045,4812 N Ih35 in,Austin,TX,
61077,8800 N Ih35 in,Austin,TX,
40312,16913 Jaron Dr in,Manor,TX,
139870,1201 E Rundberg Ln in,Austin,TX,
70440,3001 S Congress in,Austin,TX,
50043,12574 Research Blvd in,Austin,TX,
89438,8507 Remington Ln in,Austin,TX,
19721,109 W Towns in,Manor,TX,
83131,9401 N Ih 35 in,Austin,TX,
40639,206 E Skyview Rd in,Austin,TX,
105233,609 E 48Th St in,Austin,TX,
52460,15000 Pearce Ln in,Austin,TX,
43566,9620 Beck Circle in,Austin,TX,
31498,1501 S Mopac Espressway in,Austin,TX,
1996,1704 Ridgemont in,Austin,TX,
46338,15300 Fm 969 in,Travis,TX,
42179,604 Turley Dr in,Austin,TX,
41365,5410 Porsche Lane in,Austin,TX,
128888,11203 Pencewood Dr in,Austin,TX,
12783,900 Plaza Dr in,Austin,TX,
67636,2600 Heatherwilde in,Travis,TX,
102760,12300 Briar Creek Loop in,Austin,TX,
4494,8509 Farm To Market 969 in,Austin,TX,
27818,23924 Milestone Road in,Travis,TX,
125784,7406 Eganhill in,Austin,TX,
77212,1711 Crown in,Austin,TX,
18351,13606 Long Meadow Dr. in,Pflugerville,TX,
135848,9201 Scenic Bluff Dr in,Austin,TX,
21593,5219 Tortuga Trail in,Austin,TX,
73481,818 A King Albert Street in,Austin,TX,
84368,35 Robert T. Martinez in,Austin,TX,
63251,5601 Gloucester in,Austin,TX,
71920,400 Grove Blvd. in,Austin,TX,
52282,3405 N Ih 35 in,Austin,TX,
141232,1215 Slaughter Ln in,Austin,TX,
116783,8700 Coulver Road in,Travis,TX,
62226,404 Rio Grande in,Austin,TX,
29634,3600 S Capital Of Tx Hwy in,Austin,TX,
60335,1000 Rocking Horse in,Austin,TX,
101989,20902 Jumpers Delight in,Pflugerville,TX,
136778,"3115, 302 in",Austin,TX,
18118,1212 W 39Th in,Austin,TX,
55118,4911 Blueberry Trl in,Austin,TX,
86617,11610 Parkfield Dr in,Austin,TX,
101544,8700 Brookfield Drive in,Austin,TX,
9634,2123 Fordham in,Austin,TX,
89991,2613 Rogers Avenue in,Austin,TX,
122493,9300 Ih 35 in,Austin,TX,
96827,7631 Hwy 290 in,Austin,TX,
105052,1628 Ohlen Rd in,Austin,TX,
21599,260 Abott in,Austin,TX,
50789,7404 Poinsetta Ln in,Austin,TX,
116097,2624 Gwendolyn Ln #B in,Austin,TX,
13821,1410 Crestwood Rd in,Austin,TX,
83761,12413 Briarcreek Loop in,Manor,TX,
37887,22Nd St And Coleto in,Austin,TX,
122324,6001 Pino Ln in,Austin,TX,
56544,2239 Cromwell Cir in,Austin,TX,
27639,7234 Highway 290 in,Austin,TX,
82393,2219 Post Rd in,Austin,TX,
80807,8608 Swanson Ln in,Austin,TX,
108457,7416 Onion Creek Drive in,Austin,TX,
70246,2904 Brinwood Ave in,Austin,TX,
138746,1210 Gobi Dr in,Austin,TX,
69852,2704 Rivercrest Dr in,Austin,TX,
13248,206 East 9Th St in,Austin,TX,
17764,710 East Ben White Boulevard in,Austin,TX,
5501,1908 Palm Vista Dr in,Travis,TX,
24211,7211 Meador Ave in,Austin,TX,
97532,11402 Indianhead Dr in,Austin,TX,
37204,1400 Maricella Ln in,Austin,TX,
70743,11120 Boundless Valley Dr in,Austin,TX,
36910,11920 Shropshire in,Austin,TX,
1470,629 Dalton Ln in,Austin,TX,
73700,1516 Villanova Dr in,Austin,TX,
33718,814 E Rundberg Ln in,Austin,TX,
31790,7131 Oak Hollow Dr in,Austin,TX,
136332,7500 S I H 35 in,Austin,TX,
73172,2929 Longhorn Blvd in,Austin,TX,
118752,1144 Airport Boulevard in,Austin,TX,
59536,8010 N Ih 35 Sb Service Rd in,Austin,TX,
62694,7313 South Glenn St in,Austin,TX,
129988,1912 Smith Rd in,Austin,TX,
100662,403 Hackberry Ln in,Austin,TX,
119454,310 West Wheeler Street in,Manor,TX,
91158,6000 Palm Circle in,Austin,TX,
31228,9052 Galewood in,Austin,TX,
30374,515 Vargas Road in,Austin,TX,
24252,115069 Old Lockhart Rd in,Creedmoor,TX,
131456,907 Thompson Ln #6001 in,Austin,TX,
116093,1307 Smith Road in,Austin,TX,
53777,1607 Cattle Cove in,Austin,TX,
138560,8405 Old Bee Caves Rd in,Austin,TX,
25547,11808 Plains Valley in Del,Valle,TX,
13852,12633 Campana Drive in Del,Valle,TX,
75900,1400 Colleto Street in,Austin,TX,
54729,6911 Bennet St A in,Austin,TX,
126878,9501 Hergotz in,Austin,TX,
108086,501 Stassney Lane in,Austin,TX,
53572,9020 Tuscany Way in,Austin,TX,
80839,11213 Kirkland Hill Path in,Austin,TX,
103866,2305 Windsor Rd in,Austin,TX,
113860,20907 Delorio St in,Manor,TX,
51557,4702 Creek Bend Dr in,Austin,TX,
94090,17112 Rocky Ridge Rd #8 in,Austin,TX,
142073,53Rd/Airport in,Austin,TX,
16885,2119 Trede Drive in,Austin,TX,
34663,8210 Briarwood Lane in,Austin,TX,
29695,8436 Bangor Bend in,Austin,TX,
74395,1502 Estrellas Dr in,Travis,TX,
130248,5810 Trade Center Drive in,Austin,TX,
136104,7707 S Ih 35 Frontage Rd in,Austin,TX,
134249,3917 Glengarry Dr in,Austin,TX,
4083,115 East Old Settlers Blvd in,Austin,TX,
136714,106 Florest Bnd in,Austin,TX,
25831,6319 N I 35 in,Austin,TX,
22454,6804 North Capital Of Texas in,Austin,TX,
91330,25909 Hamilton Pool Road in,Travis,TX,
120824,15701 Pearce Ln in,Travis,TX,
49618,8900 N Lamar in,Austin,TX,
87461,2204 Mission Hill in,Austin,TX,
138181,183 & Fm 812 in,Travis,TX,
113732,1601 Montopolis De in,Austin,TX,
142258,4611 Creek Bend Drive in,Austin,TX,
116967,5103 Woodgreen Cove in,Austin,TX,
139970,4932 Lexington Meadow Ln in Del,Valle,TX,
62401,6798 Blue Bluff Rd in,Austin,TX,
22990,4303 Banister Lane in,Austin,TX,
114381,14601 Alps in,Austin,TX,
28602,9112 Evelyn Rd in,Travis,TX,
78682,4600 Nuckles Crossing Road 903 in,Austin,TX,
88544,1207 Southport Drive 101 in,Austin,TX,
90523,13433 Breezy Meadow in,Manor,TX,
138583,1705 Pebble Brook Dr in,Austin,TX,
79592,9121 Nih35 in,Austin,TX,
141680,1220 Camino La Costa in,Austin,TX,
92847,1149 Ebert Ave in,Austin,TX,
39541,7107 Appaloosa Ct in Mustang,Ridge,TX,
8922,909 Fairfield Dr in,Austin,TX,
52704,909 Fairfield in,Austin,TX,
80200,4709 Lake George Ln in,Austin,TX,
125602,508 East Howard Lane in,Austin,TX,
133823,6806 Breezy Hill in,Travis,TX,
94886,1400 Coleto St in,Austin,TX,
30005,6906 Breezy Hill in,Travis,TX,
48618,8105 Linden in,Travis,TX,
94874,6717 Adair Dr in,Austin,TX,
86700,21200 Bertram Ln in,Lakeway,TX,
37157,9300 Northgate Apt 219 in,Austin,TX,
91240,9424 Sawyer Fay Ln in,Austin,TX,
101736,4609 Mantle Dr in,Austin,TX,
28656,1300 Broadmoor Dr in,Austin,TX,
70831,2800 S Lamar Blvd in,Austin,TX,
134362,2418 Stratford Dr in,Austin,TX,
132485,11505 Catalona Dr in,Austin,TX,
93147,10000 Research Blvd in,Austin,TX,
107643,3039 Tx-71 in Del,Valle,TX,
28612,13404 Saddlebrook Trail in,Austin,TX,
62622,6803 Viewing Pl in,Austin,TX,
7072,1601 E 5Th St in,Austin,TX,
124491,5920 San Felipe in,Austin,TX,
26920,6810 Deatonhill Dr in,Austin,TX,
3564,2301 Polaris St in,Austin,TX,
55021,11701 Tallow Field Way in,Austin,TX,
108791,8300 Citation Ave in,Travis,TX,
132527,973 + 969 in,Travis,TX,
22955,10013 N Fm 620 in,Austin,TX,
79958,4910 Brassiewood Dr in,Austin,TX,
128279,107 E. Wheeler St in,Manor,TX,
45390,5215 Halmark Drive in,Austin,TX,
110771,8101 Pinto Path in,Austin,TX,
86559,13110 Bennington Ln in,Austin,TX,
7184,4501 Blue Meadow in,Austin,TX,
74556,17002 Majestic Ridge in,Travis,TX,
121980,5526 Ih35 #236 in,Austin,TX,
66837,4903 Crest Oak Road in,Austin,TX,
20433,3516 5Th Ave in,Austin,TX,
130385,1303 Grafton Lane in,Pflugerville,TX,
60745,1126 Gardner in,Austin,TX,
36586,9410 Circle Drive in,Austin,TX,
90922,1920 Crooked Ln in,Austin,TX,
135270,401 Cloudview in,Austin,TX,
69107,71 & Tx 45 in,Austin,TX,
15063,2409 Rick Whinery Dr in,Travis,TX,
20516,3737 Airport Blvd in,Austin,TX,
101028,7601 Daffan Ln # 168 in,Austin,TX,
125268,325 E Garrett Run in,Austin,TX,
126999,15918 Windermere Dr in,Austin,TX,
113013,1817 E Oltorf St Building 20 in,Austin,TX,
128031,3108 Wheeler Street in,Austin,TX,
27130,1006 Banister Lane in,Austin,TX,
102913,6222 Hillston Dr in,Austin,TX,
21730,1307 Astor Pl in,Austin,TX,
56821,10124 Aspen Street in,Austin,TX,
112580,12419 Metric Blvd in,Austin,TX,
79907,7110 Cadwill Dr in,Austin,TX,
62539,2206 Donahue Lane in,Austin,TX,
70769,5700 Garden Oaks in,Austin,TX,
95667,600 River Road in,Austin,TX,
111585,10708 Keystone Bend in,Austin,TX,
78937,8310 Canoga in,Austin,TX,
31418,6027 Bluebell Cir in,Austin,TX,
2156,13706 Lazyridge Dr in,Travis,TX,
122641,11923 Us Hwy 290 E in,Manor,TX,
17695,12Th St And Airport Blvd in,Austin,TX,
33176,5304 Spring Meadow Road in,Austin,TX,
23703,12202 Tyson Cv in,Austin,TX,
106694,5703 Whitebrook Dr in,Austin,TX,
98540,6403 Plesant Valley in,Austin,TX,
79829,8821 Ingrid Dr in,Austin,TX,
116310,8200 Dunn St in,Austin,TX,
55130,2513 Rockridge Dr in,Austin,TX,
104714,7402 Ladybug in,Austin,TX,
98954,1909 W 36Th in,Austin,TX,
19906,4520 Bennett Ave in,Austin,TX,
36313,10000 Blk Of Metric in,Austin,TX,
142138,6009 Merriwood in,Austin,TX,
22053,720 Bastrop Highway in,Austin,TX,
65788,5600 Signal Pt in,Austin,TX,
36760,5606 Palo Blanco in,Austin,TX,
95820,5606 Fence Row in,Austin,TX,
38428,9422 Brown Lane in,Austin,TX,
4015,3324 Plantation Dr in,Austin,TX,
93127,2200 Panther Trl in,Austin,TX,
52653,1115 Estes Ave in,Austin,TX,
12499,5717 Paseo Nuevo Circle in,Austin,TX,
37050,4414 E. St Elmo Rd in,Austin,TX,
58828,6157 Turnersville Rd in,Travis,TX,
44745,2317 E. Stassney in,Austin,TX,
79737,10050 U.S. 183 in,Austin,TX,
104135,501 Bastrop Hwy in,Austin,TX,
27181,3101 Oak Springs Dr in,Austin,TX,
100127,7410 Mcneil Dr in,Austin,TX,
46688,5606 Roosevelt Ave in,Austin,TX,
13559,12912 Armstrong Ave in,Austin,TX,
9970,7210 Geneva Drive in,Austin,TX,
85375,4402 Dovewood Dr in,Austin,TX,
101213,4701 Quicksilver Blvd in,Austin,TX,
115616,6738 Elm Creek in,Austin,TX,
131489,3308 Elija Street in,Austin,TX,
70227,7522 N I H 35 in,Austin,TX,
48339,9971 Quail Blvd in,Austin,TX,
21787,11923 Sunhillow Bend in,Austin,TX,
2759,11300 Doyle Overton Rd in,Austin,TX,
19049,2005 Conestoga Trl #A in,Austin,TX,
77094,9103 1625 Rd in,Travis,TX,
77946,6605 Via Correto Dr in,Austin,TX,
94563,1920 Gaston Pl in,Austin,TX,
32139,7513 N Interstate Hwy 35 in,Austin,TX,
59088,713 Culp in,Austin,TX,
5192,7404 Mcneil Drive in,Austin,TX,
71069,9506 Teasdale Terr # B in,Austin,TX,
102580,9506 Teasdale Terr in,Austin,TX,
96405,715 S Lamar Blvd in,Austin,TX,
113481,1605 Tamara in,Austin,TX,
75730,14010 North Us Highway 183 Suite 430 in,Austin,TX,
77762,7007 Guadalupe St in,Austin,TX,
33662,911 E 3Rd St in,Austin,TX,
30699,10710 Research Blvd in,Austin,TX,
34383,10807 Topperwein Dr in,Austin,TX,
10373,1416 Braes Ridge in,Austin,TX,
10694,6005 Fm 973 in Del,Valle,TX,
88174,1604 E 11Th in,Austin,TX,
38789,3508 Breckenridge Drive in,Austin,TX,
121710,1414 Kramer Ln in,Austin,TX,
51310,2309 Ventura Dr in,Austin,TX,
83566,6112 Blue Bluff in,Travis,TX,
108733,6708 Lancret Hill Dr in,Austin,TX,
84121,16905 Jaron Drive in,Manor,TX,
22643,8213 Edgemoore Place in,Austin,TX,
47961,10610 Morado Circle in,Austin,TX,
41477,1773 Wells Branch in,Travis,TX,
83653,1511 Pasadena Dr in,Austin,TX,
67360,11601 Domain Dr in,Austin,TX,
111752,5508 Hwy 290 West in,Austin,TX,
67005,96 S Congress Ave & Cesar Chevez in,Austin,TX,
64170,819 Wagon Trl in,Austin,TX,
106028,4703 Gonzalez in,Austin,TX,
97739,20800 Block East Us 290 in,Manor,TX,
86185,1301 East Keeton Street in,Austin,TX,
72164,2309 Granberry Dr in,Austin,TX,
8931,13121 Spiers Way in,Austin,TX,
66857,10001 Burleson Rd in,Austin,TX,
74456,3111 Parker Lane #157 in,Austin,TX,
64986,1703 Cloverleaf Drive in,Austin,TX,
104573,17817 Aleppo in,Travis,TX,
108851,13808 Old Hwy 20 in,Manor,TX,
70643,6802 Millikin Cove in,Austin,TX,
119396,9220 Interstate 35 Frontage Rd in,Austin,TX,
141476,1601 East Anderson Lane in,Austin,TX,
93055,1313 Ginger Spice Ln in,Pflugerville,TX,
30779,5517 Thunder Gulch in,Travis,TX,
38500,1701 East 13Th in,Austin,TX,
29207,4612 Turnstone in,Austin,TX,
57978,6900 Trendal Ln in,Austin,TX,
139187,528 S Meadowlark St in,Austin,TX,
100968,1102 Fiesta in,Austin,TX,
42309,805 Nile Street in,Austin,TX,
95898,5400 Jimmy Clay Drive in,Austin,TX,
77713,2536 Sol Wilson in,Austin,TX,
103157,2807 Collins Creek Dr in,Austin,TX,
103296,710 E Ben White Blvd (Walmart Parking Lot) in,Austin,TX,
103892,9515 Old Lockhart Rd in,Austin,TX,
129023,1830 Simond Ave in,Austin,TX,
119206,525 N. Lamar in,Austin,TX,
69569,740 Simonetti Drive in,Austin,TX,
137115,1703 S 1St St in,Austin,TX,
14528,2623 A Alcott Ln in,Austin,TX,
95525,9400 N Interstate 35 in,Austin,TX,
127725,12554 Riata Vista Circle in,Austin,TX,
68448,1600 Wickersham in,Austin,TX,
125907,301 W. Slaughter in,Austin,TX,
141478,6104 Jfk Drive in,Austin,TX,
107248,204 Beaver in,Austin,TX,
57678,5836 Pinon Vista in,Austin,TX,
51035,2713 East 3Rd Street in,Austin,TX,
42636,6104 Deridder Ct in,Austin,TX,
57077,2808 Webberville Road in,Austin,TX,
16176,9222 Burklund Farm Rd in Del,Valle,TX,
119503,2513 Euclid Avenue in,Austin,TX,
94048,6412 Ponca Street in,Austin,TX,
5883,1500 Mossycup Lane in,Austin,TX,
78803,100 W North Loop Blvd in,Austin,TX,
132438,10707 Ih35 North in,Austin,TX,
118313,5304 Brookdale Ln in,Austin,TX,
93167,12808 James Madison in,Travis,TX,
107157,1148 Miss Kimberly'S Ln in,Pflugerville,TX,
3366,2417 W. Ben White in,Austin,TX,
86067,88 Congress Ave in,Austin,TX,
84897,1100 E 3Rd St in,Austin,TX,
47614,2308 Perry Ave #106 in,Austin,TX,
110349,2621 Alcott Ln in,Austin,TX,
41213,12117 Manchaca in,Austin,TX,
104060,4908 E Yager Ln in,Travis,TX,
128189,9901 Ledgestone in,Travis,TX,
21784,15104 Pocmont Trail in,Austin,TX,
16845,3200 Jones Rd in,Austin,TX,
46558,7920 San Felipe Blvd in,Austin,TX,
81713,12400 Tx-71 in Bee,Cave,TX,
80710,9207 Quial Wood Dr in,Austin,TX,
62467,12808 Old San Antonio Rd in,Travis,TX,
107487,2500 E Stassney Ln in,Austin,TX,
52834,4834 N Ih 35 in,Austin,TX,
56064,19313 Stokes Ln in,Travis,TX,
52742,8001 S Ih 35 Frontage Rd in,Austin,TX,
45857,1212 Westheimer Dr in,Austin,TX,
127550,815 W Slaughter Ln in,Austin,TX,
99402,911 Battle Bend Blvd in,Austin,TX,
107841,309 W Eggleston St in,Manor,TX,
52823,1418 E Anderson Ln in,Austin,TX,
106679,11008 N Lamar Blvd #A in,Austin,TX,
18327,5305 Delores in,Austin,TX,
79676,2529 Winsted in,Austin,TX,
124100,11931 Sunhillow in,Austin,TX,
42115,11700 Us Hwy 183 S in,Travis,TX,
124583,11612 Doyle Overton in,Travis,TX,
121336,8903 Pointer Ln in,Austin,TX,
70884,10706 Windy in,Austin,TX,
139129,21St And Speedway in,Austin,TX,
98568,1205 Begonia in,Austin,TX,
67746,400 South Lamar Street in,Austin,TX,
61034,5400 Cameron Rd in,Austin,TX,
30661,8400 Jamestown in,Austin,TX,
115400,3500 Dime Cir in,Austin,TX,
42746,6214 Fm 973 South in Del,Valle,TX,
64409,1902 Nueces in,Austin,TX,
62465,12001 Metric Blvd Building 9 in,Austin,TX,
89190,1400 Tillery Street in,Austin,TX,
102077,1308 Hyman Lane in,Austin,TX,
110106,2000 E 7Th St in,Austin,TX,
7969,1300 Parker Lane in,Austin,TX,
42392,16901 Faguerquis Rd in Del,Valle,TX,
106392,2200 Blue Meadow Drive in,Austin,TX,
122507,6707 Gold Moss Cv in,Austin,TX,
110538,14495 Robert I Walker Blvd in,Austin,TX,
116161,2101 Frate Braker Road in,Austin,TX,
34437,7622 N 35 in,Austin,TX,
129676,10505 Brownie Dr in,Austin,TX,
951,401 Masterson Pass in,Austin,TX,
142894,1700 Barton Hills in,Austin,TX,
5579,8503 Ganttcrest Dr in,Austin,TX,
30582,512 Evans Ave in,Austin,TX,
42566,6808 Porter Street in,Austin,TX,
91004,3009 A Chevoit Lane in Del,Valle,TX,
137884,1209 Crupp Ct in,Austin,TX,
87104,508 East Howard in,Austin,TX,
52517,3100 Garwood in,Austin,TX,
11179,4100 Nixon Ln in,Austin,TX,
11245,1130 Spur Street in,Austin,TX,
117066,14609 Great Eagle Trl in,Austin,TX,
76862,5401 Prock Ln. in,Austin,TX,
93838,2005 Willow Creek #2004 in,Austin,TX,
72672,1001 E Ben White Blvd in,Austin,TX,
36145,2300 N Ih 35 in,Austin,TX,
137566,5112 Caswell Ave in,Austin,TX,
26727,10217 Pinnacle Crest Loop in,Austin,TX,
42592,12400 Amherst Dr in,Austin,TX,
98301,6208 Sam Houston in,Austin,TX,
57601,11516 Melstone Dr in,Manor,TX,
97778,4718 Us-183 in,Austin,TX,
103291,2507 Burleson Rd in,Austin,TX,
24267,10409 Beard Ave in,Austin,TX,
3305,739 Cherrico in,Austin,TX,
90457,2117 Philomena St in,Austin,TX,
114051,1135 Barton Hills in,Austin,TX,
70117,10317 Old Manchaca Rd in,Austin,TX,
29131,1412 Lance Way in,Austin,TX,
112623,6307 Cameron Rd in,Austin,TX,
117057,1026 Clayton #4401 in,Austin,TX,
119019,13205 Coomes in,Austin,TX,
83217,400 E Rundberg in,Austin,TX,
139241,11543 Mountain Top Cir in,Jonestown,TX,
7388,4513 Blue Meadow Dr in,Austin,TX,
41219,201 E Mary St in,Austin,TX,
104754,6004 Broken Spoke Trail in,Austin,TX,
11880,6205 Carnation Terr in,Austin,TX,
58837,7541 Sringtime Trl in,Austin,TX,
102482,501 S Hwy 183 in,Austin,TX,
115741,2108 Ashby Ave in,Austin,TX,
128438,5004 Joshua Ct in,Austin,TX,
82777,5408 S Hearsey Dr in,Austin,TX,
6156,6613 Ashland Dr in,Austin,TX,
35891,5400 Jimmy Clay Dr in,Austin,TX,
98119,8108 N Fm 973 in,Austin,TX,
84851,7007 #03 Guadalupe St in,Austin,TX,
74049,9024 Sawtooth in,Austin,TX,
24391,5333 Thunder Creek Rd in,Austin,TX,
60820,1300 Tuffit Ln in,Austin,TX,
92517,5000 E Cesar Chavez in,Austin,TX,
40412,1701 Briarcliff Blvd in,Austin,TX,
103566,11021 Jones Rd in,Manor,TX,
117338,6Th Exit Ramp From Mopac in,Austin,TX,
123379,7029 Craybrough Cir in,Austin,TX,
113261,4805 Brook Creek Cv in,Austin,TX,
62766,835 Kramer Ln in,Austin,TX,
83122,6912 Nubian Ln in,Austin,TX,
4907,102 Farley Dr in,Austin,TX,
103034,10102 Woodland Village Dr. in,Austin,TX,
74313,7112 Carwill Dr in,Austin,TX,
9819,6308 Harold Ct in,Austin,TX,
22193,1510 Holstein Dr in,Austin,TX,
82301,911 North Meadow Dr in,Austin,TX,
129824,7004 Shannon Dr in,Austin,TX,
44802,901 Crystal Creek Dr in,Austin,TX,
9690,1000 W Rundberg Ln in,Austin,TX,
90412,1600 Poppy Seed Ln in,Austin,TX,
20903,10706 Plains Trail in,Austin,TX,
113659,11809 Garden Gate Dr in,Austin,TX,
8693,7632 W 71 in,Austin,TX,
19532,13200 Marie Ln in,Manor,TX,
142715,7201 Wood Hollow Dr in,Austin,TX,
947,7730 Manassas Dr in,Austin,TX,
135177,205 Ferguson Dr in,Austin,TX,
103002,6702 Isabelle Dr in,Austin,TX,
57442,8515 S Ih 35 Frontage Rd in,Austin,TX,
28035,6509 Berkman Drive in,Austin,TX,
89162,6509 Berkman Dr in,Austin,TX,
131125,234 Old Bastrop Rd in,Travis,TX,
74873,2027 Anchor Ln in,Austin,TX,
102918,2626 Monarch Dr in,Austin,TX,
96283,16006 Agua Vista in,Austin,TX,
127874,2001 E Hwy 71 in,Austin,TX,
96611,7505 Aspen Brook in,Austin,TX,
110513,2215 E Cesar Chavez in,Austin,TX,
126811,4710 Little Hill Cir in,Austin,TX,
83073,4605 Hawkhaven Ln in,Austin,TX,
40831,1613 E M Franklin Ave in,Austin,TX,
85339,2104 Kirksey Dr in,Austin,TX,
118710,701 Woodward St #1036 in,Austin,TX,
17438,2815 E Hwy 71 in,Austin,TX,
39078,1403 Bob Harrison St in,Austin,TX,
135994,11123 Old Lockhart in,Austin,TX,
12620,10616 Mellow Meadow in,Austin,TX,
139112,12504 Mexicana Cove in,Austin,TX,
132246,102 E Rundberg Lane in,Austin,TX,
117957,1104 Jolena Cir in,Austin,TX,
115959,3809 South Congress in,Austin,TX,
38937,2610 Prado in,Austin,TX,
24212,9724 Sydney Marilyn in,Austin,TX,
50431,1000 Vasquez St in,Austin,TX,
86292,1701 S Congress in,Austin,TX,
112827,221 W North Loop Blvd in,Austin,TX,
45067,1508 Canterbury St in,Austin,TX,
138620,4609 Silverstone Dr in,Austin,TX,
132766,8007 Caribou Parke Cove in,Travis,TX,
39517,18101 Litteg Rd in,Manor,TX,
87870,18101 Littig Rd in,Manor,TX,
111198,12222 Shropeshirer in,Austin,TX,
38967,5900 Coventry Ln in,Austin,TX,
57663,209 N Bastrop in,Austin,TX,
141671,12505 Utah Cir in,Travis,TX,
1849,711 W 7Th St in,Austin,TX,
122990,15025 Wells Port Dr in,Austin,TX,
120810,2020 Nueces St in,Austin,TX,
21978,2101 Uphill in,Austin,TX,
69960,1207 Baylor St in,Austin,TX,
57311,5201 Berkman Drive in,Austin,TX,
96911,2800 Leeds in,Austin,TX,
123569,17317 West Beach in,Travis,TX,
87256,6800 Mcneil Dr in,Austin,TX,
67605,3410 East 5Th Street in,Austin,TX,
12170,1619 Ashberry in,Austin,TX,
129149,11111 Bending Bought Trail in,Austin,TX,
120550,164 Casa Verde Drive in,Austin,TX,
77533,20804 Kearney Hill Road in,Pflugerville,TX,
36783,907 Minturn Ln in,Austin,TX,
22968,5402 Agua Caliente Cove in,Austin,TX,
131997,9608 Covey Ridge Lane in,Austin,TX,
23241,10001 Pinnacle Crest Loop in,Austin,TX,
69813,501 Tech Ridge Blvd in,Austin,TX,
48606,303 W. Mlk in,Austin,TX,
50865,1408 Valleyridge Drive in,Austin,TX,
32759,6301 W Parmer Ln in,Austin,TX,
109905,10600 Old Lockhart Rd in,Travis,TX,
46984,1403 Marcus Pl in,Austin,TX,
30181,1801 Blue Crest Drive in,Austin,TX,
113305,9306 Old Manor Road in,Travis,TX,
118942,2601 Lehigh Dr in,Austin,TX,
136226,3851 Manor Rd in,Austin,TX,
36800,6Th And San Jacinto in,Austin,TX,
96789,6906 Guadalupe St in,Austin,TX,
105207,210 W 27Th St in,Austin,TX,
76835,22601 Deidra in,Travis,TX,
140608,19379 Wilkey Lane in,Pflugerville,TX,
136398,6405 Nasoni Cv in,Austin,TX,
124736,700 River St in,Austin,TX,
121869,12210 Manchaca in,Travis,TX,
88085,2809 Summit Heights Ct in,Pflugerville,TX,
2116,6909 Shannon Drive in,Austin,TX,
73328,6818 Thistle Hill in,Austin,TX,
127881,9070 Research Blvd in,Austin,TX,
26601,8021 N 620 Rd in,Austin,TX,
112368,5008 Cape Verde in,Austin,TX,
46239,1122 Mark St in,Austin,TX,
87477,1211 South Meadows in,Austin,TX,
104536,1900 Santa Clara St in,Austin,TX,
45681,7002 Onion Creek Dr in,Austin,TX,
17905,5330 N. Ih35 in,Austin,TX,
13744,2207 Holly St in,Austin,TX,
14991,1021 Quail Park Dr in,Austin,TX,
134905,3Rd St E & Tillery Square in,Austin,TX,
131798,6710 Loyola in,Austin,TX,
42650,51St Street And Old Manor Rd in,Austin,TX,
135478,1167 Harvey in,Austin,TX,
74200,1663 Chippeway Lane in,Austin,TX,
90178,1613B Garden St in,Austin,TX,
52911,7313 Cilantro Way in,Austin,TX,
85729,11716 Birchmark Trail in,Austin,TX,
86903,3721 Rr North 620 in,Austin,TX,
127264,6828 Marble Creek Loop in,Austin,TX,
135977,2901 Enfield Rd in,Austin,TX,
99118,10909 Gaillardia in,Austin,TX,
35236,12813 #A Broughton Way in,Austin,TX,
50055,10516 Jones Road in,Manor,TX,
58565,14608 Navarro Creek Road in Del,Valle,TX,
59897,12609 Limerick Ave in,Austin,TX,
127635,5107 Regency Dr in,Austin,TX,
108500,2506 Howellwood Way in,Austin,TX,
7551,913 Coronation Way in,Austin,TX,
68281,2218 Donahue Ln #A in,Austin,TX,
79788,12554 Riata Vista Cir in,Austin,TX,
8257,3755-B S Capital Of Texas Hwy in,Austin,TX,
747,4801 Pimico in Del,Valle,TX,
89579,4501 Avenue H in,Austin,TX,
118156,209 N Bastrop in,Manor,TX,
15760,1100 W Cesar Chavez St in,Austin,TX,
57986,402 W 45Th St in,Austin,TX,
40252,2601 Braker Ln in,Austin,TX,
120327,701 E Parmer Ln in,Austin,TX,
127946,8880 Tee Drive in,Austin,TX,
121374,7019 Colony Loop in,Austin,TX,
70636,9706 Bilbrook Pl in,Austin,TX,
84984,51St And Burkman in,Austin,TX,
32097,117 Kimble Ln in,Austin,TX,
136128,5330 N Ih 35 in,Austin,TX,
138802,1909 Smith Rd in,Austin,TX,
17431,3050 Tamarron Blvd in,Austin,TX,
38148,1012 Stacias Way in,Pflugerville,TX,
10387,19211 Blake Manor Rd in,Manor,TX,
68463,2500 Tx-71 in,Austin,TX,
97891,2516 Elara Dr in,Travis,TX,
66687,6575 Decker Ln in,Travis,TX,
142266,905 Castleton Dr in,Pflugerville,TX,
74795,1405 E M Franklin Ave in,Austin,TX,
82536,12430 Metric Blvd in,Austin,TX,
136815,2817 E 5Th St in,Austin,TX,
124408,5916 Abby Ann Lane in,Austin,TX,
57814,9501 N 620 # 5108 in,Austin,TX,
49119,11214 Pinehurst Dr in,Austin,TX,
49347,6001 Navarro Creek Rd in,Travis,TX,
75971,15835 Foothill Farms Loop in,Austin,TX,
93119,2715 Santa Rosa St in,Austin,TX,
91978,9609 Carson Creek Blvd in Del,Valle,TX,
46877,906 W Milton St in,Austin,TX,
14994,14912 Fagerquist in Del,Valle,TX,
143126,6902 Highland Circle #B in,Austin,TX,
130655,1719 E 2Nd St in,Austin,TX,
24594,7904 Fm 969 in,Austin,TX,
40747,7117 Wood Hollow in,Austin,TX,
135701,2104 Brandywine Ln in,Austin,TX,
85784,2628 Alcott Ln in,Austin,TX,
134953,6705 Covered Bridge Dr in,Austin,TX,
137793,15200 Anderson Mill Rd in,Travis,TX,
39395,8301 Furness Dr in,Austin,TX,
119269,6600 Johnny Morris Cv in,Austin,TX,
78009,704 Hyde Park Ct in,Austin,TX,
74026,7711 Mullen in,Austin,TX,
94683,1515 Palma Plaza in,Austin,TX,
68693,201 Chicon St in,Austin,TX,
125076,14611 Burnet Rd in,Austin,TX,
2866,9805 Parkfield Dr in,Austin,TX,
39126,10420 Fm 812 in,Travis,TX,
86707,2931 Ellon Rd in,Austin,TX,
121553,8717 Burnet Rd in,Austin,TX,
141639,817 W Fm 1626 in,Austin,TX,
16511,5930 Middle Fiskville Rd in,Austin,TX,
55756,21967 Silvia in,Travis,TX,
141653,1088 Park Plz in,Austin,TX,
101290,6610 Windrift Way in,Austin,TX,
42072,5917 Little Creek Trail in,Austin,TX,
121760,6204 Club Terrace in,Austin,TX,
113480,300 Colorado St in,Austin,TX,
83648,6005 Signal Point in,Austin,TX,
118188,6913 Carwill Dr in,Austin,TX,
87613,12800 Turtle Rock Road in,Austin,TX,
59268,20818 Hog Eye Rd in,Manor,TX,
40958,13838 Lakes Blvd in,Travis,TX,
99462,9707 Colpax Drive in,Austin,TX,
109139,11519 Pecan Creek in,Austin,TX,
124616,611 Carpenter in,Austin,TX,
34457,3706 Goodwin in,Austin,TX,
76593,5308 Peppertree Pkwy in,Austin,TX,
48364,1000 Mopac Cir in,Austin,TX,
74751,166 Ed Bluestein Blvd in,Austin,TX,
35320,7900 San Felipe Blvd in,Austin,TX,
37864,1706 Rutland in,Austin,TX,
135511,8222 North Lamar in,Austin,TX,
131298,1835 Burton Dr in,Austin,TX,
19166,1647 Brookyln St in,Austin,TX,
1697,1905 East William Cannon in,Austin,TX,
21883,6422 Us-183 in,Austin,TX,
128101,5217 Canela in,Austin,TX,
22750,3404 S 183 in,Austin,TX,
90081,9500 Tobrina Lane in,Austin,TX,
89170,8519 Cahill Drive in,Austin,TX,
78703,1704 East 5Th in,Austin,TX,
1587,1822 W Braker Ln in,Austin,TX,
3918,4211 S Lamar Blvd in,Austin,TX,
53498,10041 Lake Creek Pkwy in,Austin,TX,
24800,3207 Sunny Ln in,Austin,TX,
137652,9001 Grandview Drive in,Jonestown,TX,
26987,11610 Crosstimber Drive in,Austin,TX,
135681,1803 Garden in,Austin,TX,
128158,6817 Sabrina Drive in,Austin,TX,
28538,2913 Northland Dr in,Austin,TX,
87719,5604 Hudson St in,Austin,TX,
8777,12005 Garden Meadow Rd in,Austin,TX,
101159,2000 Cullen Avenue in,Austin,TX,
129325,13405 Wisterwood St in,Austin,TX,
121430,9905 Briar Ridge Dr in,Austin,TX,
105665,6717 Savann Canyon in Del,Valle,TX,
90620,2808 Alsatia in,Austin,TX,
127061,5525 Nelson Oaks in,Austin,TX,
19355,8907 Briardale Dr in,Austin,TX,
2026,10712 Pratt Ln in,Austin,TX,
123204,1524 Whittard Of Chelsea Ln in,Travis,TX,
44118,2307 Daisy Dr in,Travis,TX,
138490,11505 Melstone Dr in,Manor,TX,
23021,899 Us-183 in,Austin,TX,
12946,7407 Burleson Rd in,Austin,TX,
80303,1013 S Center St in,Austin,TX,
37080,7909 Rosenberry in,Austin,TX,
3628,2319 Montague in,Austin,TX,
59952,11441 Ptarmigan Drive in,Austin,TX,
48607,7300 White Oak in Lago,Vista,TX,
116710,601 Alan in,Austin,TX,
136740,6603 S Ih 35 Frontage Rd in,Austin,TX,
66919,2214 Onion Creek Pkwy in,Austin,TX,
103252,6000 S 183 in,Travis,TX,
90910,7817 Overstreet Cir in Mustang,Ridge,TX,
43425,5206 Glissman Rd in,Austin,TX,
91767,2616 Lou John St in,Austin,TX,
98889,2905 Noack Dr in,Travis,TX,
80506,6902 Frontera Lane in,Austin,TX,
68896,10302 Quail Valley Blvd in,Austin,TX,
84700,1515 Wickersham Lane in,Austin,TX,
798,5902 North Hampton Drive in,Austin,TX,
50008,3601 Bluestein in,Austin,TX,
110330,6600 Fm 969 in,Austin,TX,
105492,1157 Salina St in,Austin,TX,
114066,10808 Clubhouse in,Austin,TX,
13459,183 Access Near 45 in,Austin,TX,
104896,12100 Emerald Oaks in,Austin,TX,
78652,2705 Wheless Ln in,Austin,TX,
123724,13600 Coomes in,Austin,TX,
108822,7900 Hammermill in,Austin,TX,
14781,2101 Crystal Bend Dr in,Travis,TX,
87001,605 Arroyo Vista Dr in,Travis,TX,
130758,3317 Hycreek Dr in,Austin,TX,
8201,3527 River Rd. in,Austin,TX,
71528,8301 Springdale Rd in,Austin,TX,
55519,100 Mopac Cirl in,Austin,TX,
9982,6403 Tiner Trl in,Austin,TX,
27213,11923 Briarcreek in,Austin,TX,
12661,6311 Colina Ln in,Austin,TX,
106825,9112 Anderson Mill Rd in,Austin,TX,
72367,11709 Spring Head Loop in,Austin,TX,
48450,506 Blueberry Hill in,Austin,TX,
108847,3525 Webberville Rd in,Austin,TX,
143076,4903 Ledesma Rd in,Austin,TX,
45104,8965 Research Blvd in,Austin,TX,
82903,8400 Ganttcrest Drive in,Austin,TX,
40400,7201 Hart Ln in,Austin,TX,
76657,11702 Brookwood in,Austin,TX,
25813,1205 Clearfield Dr in,Austin,TX,
41155,9052 Galewood Dr in,Austin,TX,
68234,1604 Astor Pl in,Austin,TX,
6446,3506 Darby St in,Austin,TX,
71595,12032 Von Quintus in,Travis,TX,
101086,3100 S Congress Ave in,Austin,TX,
126795,5720 Wellington Dr in,Austin,TX,
130849,6307 Monsanto Dr in,Austin,TX,
110853,1176 Oakgrove in,Austin,TX,
92642,8214 E Riverside Dr in,Austin,TX,
118567,7706 Old Bee Caves Rd in,Travis,TX,
1669,5211 Eilers Avenue in,Austin,TX,
102946,7023 Bee Cave Rd in,Austin,TX,
48511,10904 Pinehurst Dr in,Austin,TX,
125319,3200 S 1St St in,Austin,TX,
124315,15104 Pacmont Trl in,Austin,TX,
81132,5706 Apple Orchard Ln in,Austin,TX,
142640,12Th/Airport in,Travis,TX,
136097,1181 Airport Blvd #120 in,Austin,TX,
127167,1106 Christie Dr in,Austin,TX,
37153,1408 Summit St in,Austin,TX,
134822,6916 Celtic Ct in,Austin,TX,
70217,6208 Hofan Ave in,Austin,TX,
32583,6301 Harold Ct in,Austin,TX,
7540,2006 Nogales Trl in,Austin,TX,
43313,29Th St And Lamar in,Austin,TX,
32082,8038 Exchange Dr in,Austin,TX,
111768,1701 Smith in,Austin,TX,
126610,1400 Marcus Pl in,Austin,TX,
69645,1310 Canterburry Street in,Austin,TX,
117539,7206 Bennett Ave in,Austin,TX,
102830,5703 Mcneil Dr in,Austin,TX,
76529,5720 Chesterfield Ave in,Austin,TX,
47599,1200 Mearns Meadow Blvd in,Austin,TX,
140888,15835 Foothill Farms Loop in,Pflugerville,TX,
1531,1620 E Riverside Dr in,Austin,TX,
64119,10800 Lakeline Blvd in,Austin,TX,
89831,2801 Sauls Dr in,Austin,TX,
9116,403 Leslie Ave in,Austin,TX,
138801,1300 Fm 812 in,Austin,TX,
12461,7707 Adobe Trail in,Austin,TX,
12942,8718 Fm 812 in,Travis,TX,
68713,8509 Fm 969 in,Austin,TX,
81390,1139 Stephanie Lee in,Austin,TX,
59766,3203 16Th St in,Austin,TX,
48995,1124 Ruthland in,Austin,TX,
116992,14117 Briarcreek Loop in,Manor,TX,
88046,8109 Colony Loop in,Austin,TX,
53912,6002 Broken Spoke Trail in,Austin,TX,
74789,10506 Newmon Rd #B in,Austin,TX,
105500,3300 Wells Branch Pkwy in,Austin,TX,
128568,1212 Vargas Rd in,Austin,TX,
68160,2009 Maize Bend in,Austin,TX,
104781,10615 Metric Blvd in,Austin,TX,
59876,3801 S Capital Tx Hwy in,Austin,TX,
104334,5201 Navarro Creek Rd in,Travis,TX,
10741,2606 Wheless Lane in,Austin,TX,
127887,1814 East Martin Luther King Blvd in,Austin,TX,
97925,8807 Tressina Drive in,Austin,TX,
121580,5205 Woodland Oak in,Austin,TX,
49952,505 Seminole in,Austin,TX,
24751,6906 Burnell Dr in,Austin,TX,
128531,10601 Manchaca in,Austin,TX,
65110,12814 Copper Cliff in,Austin,TX,
1831,8005 S Fm 973 in,Travis,TX,
45333,8701 Parkfield Dr in,Austin,TX,
49357,14000 Westall Street in Del,Valle,TX,
137596,2313 Willow St in,Austin,TX,
27585,5300 China Berry Rd in,Austin,TX,
136508,8009 Tapo Lane in,Austin,TX,
10457,3407B Willow Springs in,Austin,TX,
142854,3800 Alexandria in,Austin,TX,
79749,741 Cherico St in,Austin,TX,
68887,1006 Ogden in,Austin,TX,
133198,8210 Ih 35 in,Austin,TX,
93871,2016 Singingbrook in,Austin,TX,
98005,4100 Victory Dr in,Austin,TX,
112724,205 E Croslin St in,Austin,TX,
140743,10300 Golden Meadow in,Austin,TX,
72999,211 Schirra Pl in,Austin,TX,
142054,20906 Delorio in,Manor,TX,
133359,1022 Gardner Rd in,Austin,TX,
2040,936 East 54Th Street in,Austin,TX,
11723,1211 Lily Ter in,Austin,TX,
54341,5000 Blue Bluff Rd in,Austin,TX,
72245,5612 Clayberg Trail in,Austin,TX,
96991,12200 Briarcreek Loop in,Manor,TX,
115828,6800 Bill Hughes in,Austin,TX,
99154,9300 S I H 35 # B in,Austin,TX,
41536,12916 Carillon Way in,Manor,TX,
132845,8909 Briardale Drive in,Austin,TX,
14081,10500 Plains Trail in,Austin,TX,
1725,11603 Hidden Quail in,Austin,TX,
57112,11202 Amythyst Trl in,Austin,TX,
16132,7708 Marble Crest in,Austin,TX,
946,2753 Citation Drive in Del,Valle,TX,
128571,8500 Decker Ln in,Austin,TX,
53455,3000 Block Of River Rd in,Travis,TX,
99454,14804 Moonsead Cove in,Austin,TX,
60166,2901 Barton Skwy in,Austin,TX,
18937,8800 S Ih 35 Frontage Rd in,Austin,TX,
106757,1300 Crossing Place Building 34 in,Austin,TX,
76200,11505 Plow Horse Cv in,Austin,TX,
33230,3805 Bronco Bend Loop in,Austin,TX,
26428,12435 Dessau Rd in,Austin,TX,
94866,5707 Cougar Dr in,Austin,TX,
101796,6204 Breeze Way in,Austin,TX,
35727,9020 Tuscany in,Austin,TX,
44657,12421 Zeller Ln in,Austin,TX,
3162,4906 N Imperial Dr in,Austin,TX,
141509,305 N Heatherwilde Blvd in,Pflugerville,TX,
95425,4505 Duval St in,Austin,TX,
80423,1647 Rutland in,Austin,TX,
126097,603 E. Applegate Dr in,Austin,TX,
133407,5306 Medford Dr in,Austin,TX,
25486,21422 Webberwood Ridge in,Travis,TX,
92901,800 Yager Ln in,Austin,TX,
22054,2109 Jesse Owens Dr in,Austin,TX,
3860,13505 Burnet Rd in,Austin,TX,
11196,8606 Alpine Dr in,Travis,TX,
25312,807 Sirocco Dr in,Austin,TX,
99236,9804 Murmuring Creek Dr in,Austin,TX,
53421,301 Navasota in,Austin,TX,
47893,13817 Long Hollow Loop in,Leander,TX,
138068,7404 Mcneil Dr in,Austin,TX,
73048,5612 E Mlk in,Austin,TX,
19325,811 Thompson St in,Austin,TX,
90338,505 Grady Dr in,Austin,TX,
77853,1020 Bird Creek Dr #102 in,Austin,TX,
17673,5600 Blk Of Coventry Ln in,Austin,TX,
18236,5600 Coventry Ln in,Austin,TX,
81684,1920 S Congress Ave in,Austin,TX,
126407,7714 Tx-71 in,Austin,TX,
44185,2025 W Ben White Blvd in,Austin,TX,
103363,9001 N 620 in,Austin,TX,
89665,1901 E 51St St in,Austin,TX,
112914,5310 S Pleasant Valley in,Austin,TX,
12299,400 Flournoy Dr in,Austin,TX,
62594,7700 Northcross Dr in,Austin,TX,
89253,7209 Crystal Brook Dr in,Austin,TX,
3739,15204 Sweet Caddies Dr in,Travis,TX,
43203,7200 Creekside Rd in,Austin,TX,
74040,921 E 46Th St in,Austin,TX,
10163,4715 Cedargrove Dr in,Austin,TX,
40282,9019 Elroy Rd in,Austin,TX,
36888,3651 S Ih 35 Frontage Rd in,Austin,TX,
45673,5811 Van Winkle Ln in,Austin,TX,
49057,12200 Fm 969 in,Austin,TX,
15854,4703 Bucks Run in,Austin,TX,
38780,14314 Jennave in,Austin,TX,
22406,18104 Maxa Dr in,Manor,TX,
42542,800 E 5Th St in,Austin,TX,
5670,200 W Anderson Ln in,Austin,TX,
75370,2412 Richcreek Rd in,Austin,TX,
49630,2815 E Hwy 71 in Del,Valle,TX,
33567,9802 Cottle Dr in,Austin,TX,
74367,5806 Coolbrook Dr in,Austin,TX,
62236,1603 E Oltorf in,Austin,TX,
28873,8305 Forest Heights Ln in,Austin,TX,
45117,25715 Cliff Cir in,Austin,TX,
6765,741 Cherico in,Austin,TX,
56328,6300 1327Rd in,Travis,TX,
24710,11044 Research in,Austin,TX,
7708,5400 Ross Road in Del,Valle,TX,
130057,12550 Metric Blvd in,Austin,TX,
11440,5616 Emerald Forest Dr in,Austin,TX,
13841,6700 Krollton in,Austin,TX,
114309,2813 Palomino Trl in,Austin,TX,
95427,9201 Circuit Of Americas in,Travis,TX,
61618,21428 Creekside in,Leander,TX,
1089,11105 2Nd St in,Jonestown,TX,
89759,1800 East Stassney Lane in,Austin,TX,
54449,1604 Wheeles Lane in,Austin,TX,
8408,2435 Oak Crest Ave in,Austin,TX,
41530,1401 Caladendra in,Austin,TX,
21210,806 Park Blvd in,Austin,TX,
118348,12518 Research Blvd in,Austin,TX,
26279,8516 Georgian in,Austin,TX,
28682,2904 Ellon Rd in Del,Valle,TX,
429,5525 Foxfield Ln in,Travis,TX,
76928,4607 Munson St in,Austin,TX,
58175,5915 Old Lockhart Rd in,Travis,TX,
85350,8801 S Ih 35 Frontage Rd in,Austin,TX,
105990,11404 Briarcreek Loop in,Travis,TX,
37282,6118 Fairway St #222 in,Austin,TX,
138912,5717 Teri Rd in,Austin,TX,
134771,2104 Dove Pass in,Austin,TX,
100541,2109 Jesse Owens Drive in,Austin,TX,
94144,1605 Barney Drive in,Austin,TX,
47564,3010 Leaf Ln in,Austin,TX,
43018,10108 Rodriguez Rd in,Austin,TX,
4784,1716 Woodward in,Austin,TX,
45785,1941 Gaston Place Dr in,Austin,TX,
1415,2800 Bartons Bluff Ln in,Austin,TX,
75569,619 S Ih35 And 7Th St in,Austin,TX,
77134,9510 Quail Ct in,Austin,TX,
1611,2415 West Pecan in,Pflugerville,TX,
61141,1704 Perez in,Austin,TX,
57789,1618 Chippeway in,Austin,TX,
56265,18649 Dry Pond Drive in,Pflugerville,TX,
21944,4202 Alexandria Dr in,Austin,TX,
46711,12900 Waynespur Lane in,Travis,TX,
2518,14407 Joy Lee Ln Manor Tx 78653 in,Manor,TX,
138569,1009 W Dittmar Dr in,Austin,TX,
121713,2215 Townlake Cir in,Austin,TX,
139560,6917 Sunderland Trl in,Austin,TX,
127824,412 E Ben White Blvd in,Austin,TX,
137998,1364 Woodward St in,Austin,TX,
48854,13913 Fm812 in Del,Valle,TX,
85914,3406 Manchaca Rd in,Austin,TX,
121882,8800 S. Ih 35 in,Austin,TX,
104450,18112 Canopy Lane in,Manor,TX,
9006,1609 E 13Th St in,Austin,TX,
72411,4600 Button Bend Rd in,Austin,TX,
63709,3110 E 12Th in,Austin,TX,
18796,2900 East 13Th in,Austin,TX,
25398,5220 Hudson Bend Rd in,Austin,TX,
64165,6805 Aries Ln in,Austin,TX,
123740,6700 Evelyn Rd in,Austin,TX,
142314,811 West Johanna in,Austin,TX,
71695,2117 E 8Th St in,Austin,TX,
61017,12100 Metric Blvd in,Austin,TX,
60816,8609 Alpine Dr in Del,Valle,TX,
90737,1903 Kinney Ave in,Austin,TX,
130622,10601 Topperwin Drive in,Austin,TX,
27714,9505 Blocker in,Austin,TX,
20600,1408 A Cool Shadow in,Austin,TX,
60907,12708 Descartes Cv in,Austin,TX,
121975,14297 Farm To Market 2769 in,Travis,TX,
58725,3700 Manchaca in,Austin,TX,
113051,4634 Westgate Blvd in,Austin,TX,
135339,2701 Tisdale Dr in,Austin,TX,
90080,5329 N Ih35 in,Austin,TX,
757,2323 San Antonio Street in,Austin,TX,
6831,309 Thelma Drive in,Austin,TX,
81476,11900 Fm812 in,Travis,TX,
14674,500 E Stassney in,Austin,TX,
36617,716 Prospect in,Austin,TX,
11912,5005 Brassiewood in,Austin,TX,
53814,9805 Shively in,Travis,TX,
32737,5100 Brassiewood in,Austin,TX,
40688,18303 Park Drive in,Jonestown,TX,
19776,13329 Vizquel Loop in Del,Valle,TX,
123998,6514 Pevensey Dr in,Austin,TX,
115536,7609 Wild Onion Dr in,Austin,TX,
71839,5801 W Us Hwy 290 Service Rd in,Austin,TX,
45450,8604 Ipswich Bay in,Austin,TX,
135251,8818 Travis Hills Dr in,Austin,TX,
44840,4646 Mueller Blvd in,Austin,TX,
137676,3017 Rasberry Rd in,Austin,TX,
37953,6813 Sabrina Dr in,Austin,TX,
923,3300 Killingsworth Ln in,Pflugerville,TX,
68984,10515 Sprinkle Cutoff Rd in,Austin,TX,
69194,11511 Liberty St in,Manor,TX,
102499,2500 Audubon Pl B in,Austin,TX,
65072,6448 U.S. 290 Frontage Rd in,Austin,TX,
56812,12219 Tanglewild Drive in,Austin,TX,
138604,5124 Pepper Ln in,Austin,TX,
82691,919 Springdale Rd in,Austin,TX,
46433,4025 Duval in,Austin,TX,
106664,501 Sweet Leaf in,Pflugerville,TX,
129608,7100 East Hwy 290 in,Austin,TX,
31314,20751 Fm 969 in,Travis,TX,
118198,2600 Gracy Farms Lane in,Austin,TX,
33157,1210 W Braker Ln in,Austin,TX,
603,7108 Northeast Dr in,Austin,TX,
37217,1120 Brookswood Ave in,Austin,TX,
130532,2013 Stephanne Creek in,Austin,TX,
2376,3200 Northeast Dr in,Austin,TX,
52252,1412 Norseman Terrace in,Austin,TX,
83280,15100 Donna Jane Loop in,Pflugerville,TX,
131332,1905 Kramer Ln #A in,Austin,TX,
112149,6611 Argentia Rd in,Austin,TX,
126015,8308 Flaxen Dr in,Austin,TX,
131742,2416 Wagon Crossing Path in,Austin,TX,
53505,5703 Imperial Dr in,Travis,TX,
7658,6215 Brookside Dr in,Austin,TX,
66270,21608 Highclimb Ct in,Travis,TX,
104689,5209 Coppermead Ln in,Austin,TX,
57291,2509 Flora Cv in,Austin,TX,
78868,13805 Abrahamson Court in,Manor,TX,
33371,4008 E 12Th St in,Austin,TX,
99015,11533 Timber Heights in,Austin,TX,
66000,1217 August in,Austin,TX,
63858,9807 Farm To Market 620 N in,Austin,TX,
4732,2104 E Stassney in,Austin,TX,
115442,21306 Dodge Trl in Lago,Vista,TX,
9121,101 E Rundberg Ln in,Austin,TX,
66750,14100 Sleepy Hollow Dr in,Travis,TX,
79653,1909 Greenwood Ave in,Austin,TX,
11731,1612 Canterbury St in,Austin,TX,
67762,1931 E Ben White Blvd in,Austin,TX,
106601,7116 Lazy Creek Dr in,Austin,TX,
122832,902 E Meadowmere Ln in,Austin,TX,
69850,2939 W Pecan St in,Pflugerville,TX,
26198,4909 Flaming Oak Cv in,Austin,TX,
36256,11514 Research Blvd in,Austin,TX,
74353,15609 Us Hwy 290 East in,Travis,TX,
111235,924 East 51St St in,Austin,TX,
97257,2005 Rosewood Ave in,Austin,TX,
59255,40 N Ih 35 in,Austin,TX,
72801,4701 Little Hill Circle in,Austin,TX,
100770,6605 Johnny Morris Cove in,Austin,TX,
88139,9000 Lockwood Springs Rd in,Travis,TX,
142514,13212 Pecan Hill Cove in,Manor,TX,
119613,4600 Teri Rd in,Austin,TX,
60634,7905 Whitsun in,Austin,TX,
16765,12Th & Chicon in,Austin,TX,
96585,1408 Cool Shadow in Del,Valle,TX,
118028,7833 Mcangus Rd in Del,Valle,TX,
61989,6300 Bluff Springs in,Austin,TX,
50611,408 Ralph Alanedo in,Austin,TX,
41544,900 Battle Bend in,Austin,TX,
52236,16901 Hayride Circle in,Travis,TX,
136316,6314 Libyan Drive in,Austin,TX,
18630,1410 W North Loop Blvd in,Austin,TX,
38199,17201 Pearce Lane in Del,Valle,TX,
111515,11012 Us-183 in,Austin,TX,
108312,10721 N Platt River Dr in,Austin,TX,
10368,2412 Canterbury St in,Austin,TX,
25922,2305 Teri Rd. in,Austin,TX,
129233,6550 Comanche Trl in,Travis,TX,
132620,6301 Berkman Dr in,Austin,TX,
83692,1300 St Johns in,Austin,TX,
138072,5528 Liberton Ln in,Austin,TX,
138922,12215 Hunters Chase Dr in,Austin,TX,
41977,12313 Sky Harbor Dr in Del,Valle,TX,
109133,6511 Lancret Hill in,Austin,TX,
133469,16901 Hayride in,Austin,TX,
129781,1421 Fairfield in,Austin,TX,
78362,7808 Linden Rd in Del,Valle,TX,
33892,3007 Leaning Oak Cir in,Austin,TX,
121752,8405 Riverstone in,Austin,TX,
66144,12421 Turtleback Ln in,Austin,TX,
68631,6016 Ponca in,Austin,TX,
62752,7201 Thannas Way in,Austin,TX,
86088,5510 Delwood Dr in,Austin,TX,
69386,11606 N Lamar in,Austin,TX,
108294,9345 East Hwy 290 in,Austin,TX,
141836,6900 Manor Rd in,Austin,TX,
128144,5902 Blythewood Drive in,Austin,TX,
113098,1004 Olive St in,Austin,TX,
44214,3320 Clarksburg in,Austin,TX,
82098,10100 N Capital Of Tx Hwy in,Austin,TX,
137093,5238 Thunder Creek in,Austin,TX,
128419,1307 Fort Branch in,Austin,TX,
74342,12512 Wright Road in,Creedmoor,TX,
53969,2000 Hamilton Ave in,Austin,TX,
133548,19210 Blake Manor Rd in,Manor,TX,
79945,12816 Sky Harbor Dr in Del,Valle,TX,
57758,10926 Jollyville Rd #1501 in,Austin,TX,
87018,6506 Williamson Road in,Creedmoor,TX,
141083,1004 Brass St in,Austin,TX,
63696,13015 Silver Creek Dr in,Austin,TX,
82167,3100 Rogge Lane in,Austin,TX,
2674,13104 Lofton Cliff Dr in,Austin,TX,
10561,3507 Vara Dr in,Austin,TX,
55625,21525 Union Lee Church in,Manor,TX,
116443,4700 Turnstone in,Austin,TX,
42911,9814 Marlborough Dr in,Austin,TX,
14699,14707 Noya Dr in,Austin,TX,
108331,6904 Tulane Dr in,Austin,TX,
64005,13300 William Harrison Ct. in,Manor,TX,
127262,7807 Ardmore Cir in,Austin,TX,
118034,1419 Marsh Harbour Dr in,Travis,TX,
86890,14503 Fitzgibbon in,Travis,TX,
130986,3214 Barnsley in,Austin,TX,
137240,2714 Carnarvon in,Austin,TX,
2701,8650 Spicewood Springs Cove in,Travis,TX,
96025,14404 Geronimo in,Travis,TX,
76239,8101 N Lamar in,Austin,TX,
137174,1108 Blue Fox Dr in,Austin,TX,
119067,1110 Westbank Dr B in,Austin,TX,
3678,1931 E Ben White in,Austin,TX,
121202,2500 Davis Ln in,Austin,TX,
40301,1305 Warrington Dr in,Austin,TX,
80182,9022 Sawtooth Lane in,Austin,TX,
59522,8413 Kimble Cv in,Austin,TX,
50916,4200 Turnerville Rd in,Creedmoor,TX,
40419,11725 Channing Dr in,Austin,TX,
246,8000 Taza Ln in,Travis,TX,
48719,12308 Limerick Ave in,Austin,TX,
62498,701 W Longspur Blvd in,Austin,TX,
10762,1905 Blue Crest in,Austin,TX,
34396,6904 Tulane in,Austin,TX,
122474,9009 N Fm 620 in,Austin,TX,
32751,7905 San Felipe #124 in,Austin,TX,
98629,10111 Rodriguez Rd in,Austin,TX,
36455,6506 Bolm Rd in,Austin,TX,
62380,7700 Burleson in,Austin,TX,
139825,1707 Airport Commerce Blvd in,Austin,TX,
19773,9600 Cliffbrook in,Travis,TX,
28777,11609 Sherwood Forrest in,Austin,TX,
134184,211 E. 7Th St in,Austin,TX,
54919,9009 N Fm 620 #2006 in,Austin,TX,
30758,2011 Oak Montte in,Austin,TX,
41596,1315 Norwalk Ln in,Austin,TX,
7606,1150 Airport Blvd in,Austin,TX,
63013,2502 Chaparral Trl in,Austin,TX,
40345,7512 Compass Dr in,Travis,TX,
73171,1144 Mansell Ave in,Austin,TX,
131238,4713 Teri Rd A in,Austin,TX,
50552,1603 Shaol Creek Blvd in,Austin,TX,
7486,1804 Victoria in,Austin,TX,
73743,6000 Middle Fiskville Rd in,Austin,TX,
3831,5310 Burnet Rd in,Austin,TX,
29085,3702 Crownover in,Travis,TX,
61789,9000 Burklund Farms in,Travis,TX,
84315,6904 Cameron Rd in,Austin,TX,
19396,506 S Pacebend in,Travis,TX,
95294,4315 Caldwell Ln in Del,Valle,TX,
115511,13723 Greinert in,Pflugerville,TX,
119923,1508 Northridge in,Austin,TX,
128712,11208 Pickard Ln in,Austin,TX,
130458,2014 Thrasher in,Austin,TX,
87178,3108 Windsor Rd in,Austin,TX,
74191,1102 Praire Trl in,Austin,TX,
14934,18619 Hwy 290 in,Travis,TX,
139389,4510 Tejas in,Austin,TX,
127642,17808 Majestic Elm in,Travis,TX,
108179,4904 West Gate Blvd #101 in,Austin,TX,
108427,8023 Coulver Rd in,Austin,TX,
22439,1145 Richardine Ave in,Austin,TX,
27059,6607 Ih35 S in,Austin,TX,
135989,1812 Miles Ave in,Austin,TX,
131227,2215 E M Franklin Ave in,Austin,TX,
63017,1811 Miles Ave in,Austin,TX,
26777,3722 S 1St St in,Austin,TX,
11747,815 E William Cannon in,Austin,TX,
24574,7629 Northview Ln in,Travis,TX,
12603,18111 Praire Knoll Ct in,Austin,TX,
131753,3408 Banton Rd in,Austin,TX,
4263,8707 Birmingham Dr in,Austin,TX,
82950,8335 Research Blvd in,Austin,TX,
10690,12113 Metric Blvd in,Austin,TX,
135680,6614 Blue Bluff in,Austin,TX,
40192,1000 Ellingson Ln in,Austin,TX,
77477,4601 E St Elmo in,Austin,TX,
121354,1219 South Lamar in,Austin,TX,
63893,5015 S Ih 35 Rd in,Austin,TX,
100294,34Th/North Lamar in,Austin,TX,
46979,1101 Upland Drive in,Austin,TX,
136546,13405 Brahmin Dr in,Austin,TX,
41033,2500 E. 71 in,Austin,TX,
41743,2115 Holly St in,Austin,TX,
115049,8304 Flaxen Dr in,Austin,TX,
124412,1182 Hargrave in,Austin,TX,
104019,9814 Teasdale Ter in,Austin,TX,
42142,4607 Elohi Dr in,Travis,TX,
40551,12304 Innes View Rd in,Austin,TX,
130778,6212 Crow Lane in,Austin,TX,
2218,1145 Perry Rd in,Austin,TX,
79289,13525 Coomes Dr in Del,Valle,TX,
96016,1600 Man-O-War in Del,Valle,TX,
70218,5904 Dunbury Dr in,Austin,TX,
4243,5101 Merritt in,Austin,TX,
100315,6540 Ed Bluestein Blvd in,Austin,TX,
123472,5107 Wolf Ln in Del,Valle,TX,
30822,5600 S 1St St in,Austin,TX,
50479,15107 Pearce Ln in Del,Valle,TX,
49319,5900 Blk Waymaker Cv in,Austin,TX,
19093,2854 E State Hwy 71 Service Rd in Del,Valle,TX,
83967,1227 Armadillo Rd A in,Austin,TX,
107607,300 John Nance Garner Cir. in,Austin,TX,
109670,301 South Canyonwood in,Hays,TX,
129755,6004 Blythewood Dr in,Austin,TX,
28739,8004 El Dorado in,Austin,TX,
11663,8731 Minot Circle in,Austin,TX,
104067,8409 Tyhurst in,Austin,TX,
26994,8001 Tx-71 in,Austin,TX,
356,22009 Hogeye Rd in,Austin,TX,
141415,4504 Lyra in,Austin,TX,
39697,812 Springdale in,Austin,TX,
17128,2602 S Congress in,Austin,TX,
116079,1600 Man-O-War in,Austin,TX,
119722,11503 Hereford Street in,Manor,TX,
131102,6201 Softwood in,Austin,TX,
134919,5713 Purple Sage Dr in,Austin,TX,
11473,6302 Salcon Cliff Dr in,Austin,TX,
60554,11545 Maha Loop Road in,Austin,TX,
17745,6901 Colt Cv in,Austin,TX,
66654,2901 Montopolis Dr in,Austin,TX,
119839,6004 Melwood Drive in,Austin,TX,
77881,5952 Hammermill in,Austin,TX,
68061,6007 North I H 35 in,Austin,TX,
140120,6900 Colt Cv in,Austin,TX,
88628,2329 Cesar Chavez in,Austin,TX,
43043,5009 Caoe Verde Cv in,Austin,TX,
18793,1109 Taulbee Lane in,Austin,TX,
3642,7651 Delwau Ln in,Austin,TX,
18800,10606 Bluff Bend Dr. in,Austin,TX,
71571,5811 Berkman Dr. in,Austin,TX,
65323,1415 Mearns Meadows Blvd in,Austin,TX,
102235,16207 Round Mountain Rd in,Travis,TX,
133706,2800 S Ih 35 Frontage Rd in,Austin,TX,
84346,5501 Ed Bluestein Blvd in,Austin,TX,
56080,7209 Barnsdale Way in,Austin,TX,
825,14907 Lucerne Dr in,Travis,TX,
103523,801 Ramble Ln in,Austin,TX,
21693,10511 Jean Dr in,Austin,TX,
90727,7801 Pitter Pat in,Austin,TX,
136356,1624 W 5Th in,Austin,TX,
27685,7400 W William Cannon Dr in,Austin,TX,
21679,12904 Gregg Manor Rd in,Manor,TX,
70400,1401 E. Rundberg Ln in,Austin,TX,
5351,1824 River Crossing Cir in,Austin,TX,
136080,8409 Tyhurst Dr in,Austin,TX,
27343,17908 Powder Creek Dr in,Manor,TX,
97273,709 Springdale in,Austin,TX,
122969,4701 Crest Oak in,Austin,TX,
101723,4600 Elmont Ln in,Austin,TX,
65479,3414 Lynridge Dr in,Austin,TX,
127983,103 Lakeway Dr in,Lakeway,TX,
93502,1300 Perez St in,Austin,TX,
82607,4909 Cannan Cv in,Austin,TX,
31370,34Th/ Guadalupe in,Austin,TX,
47449,7009 Priscilla Dr in,Austin,TX,
108412,1800 E Riverside Dr in,Austin,TX,
125585,1801 E Wells Branch in,Travis,TX,
49611,901 Neal St in,Austin,TX,
129821,24806 Long Hollow Trl in,Leander,TX,
8674,1500 S Lamar in,Austin,TX,
8548,5702 Richmond Ave in,Austin,TX,
105960,12800 Harrisgleen Dr in,Austin,TX,
51536,844 Airport Blvd in,Austin,TX,
45002,3300 Killingsworth Ln #263 in,Austin,TX,
27698,4511 Airport Blvd in,Austin,TX,
41405,2701 W William Cannon Dr in,Austin,TX,
128427,9607 Monmouth Cir in,Austin,TX,
34757,7305 Onion Creek Dr in,Austin,TX,
128405,2210 Pearl St in,Austin,TX,
127266,15303 Kollmeyer Dr in,Austin,TX,
28108,4315 S Congress Ave in,Austin,TX,
126805,2612 Alcott Lane in,Austin,TX,
119879,7537 Cameron Rd in,Austin,TX,
86983,308 E Parsons St in,Manor,TX,
104111,4Th /San Jacinto in,Austin,TX,
101210,51St in,Austin,TX,
88727,11511 Metric Blvd in,Austin,TX,
137146,4600 Imperial Drive in,Travis,TX,
126960,4404 Imperial Drive in,Travis,TX,
119082,3209 E 17Th St in,Austin,TX,
95603,2407 Southland Dr in,Austin,TX,
39579,9061 Research Blvd in,Austin,TX,
83646,1200 Barbara Jordan Bldg 3 in,Austin,TX,
3698,3001 Cedar St in,Austin,TX,
130122,20 North Ih-35 in,Austin,TX,
38844,17709 Powder Creek Drive in,Manor,TX,
100990,6006 Turnstone Ct in,Austin,TX,
143085,17411 Blake Manor Rd in,Manor,TX,
99868,1704 Forestglade in,Austin,TX,
87515,6200 Hillston Dr in,Austin,TX,
40970,5303 Wolf Ln in,Travis,TX,
128407,3500 Jackson Ave in,Austin,TX,
53916,4500 Steiner Ranch in,Austin,TX,
105658,1501 Fm 973 in,Travis,TX,
55565,11500 Lapoynor Street in,Manor,TX,
99855,2601 Orsobello Cv in,Travis,TX,
122747,2414 Bolm Road in,Austin,TX,
48008,6940 Chinook Dr in,Austin,TX,
28256,1138 Eleanor St in,Austin,TX,
124362,14901 Nuttall Drive in,Travis,TX,
130339,5701 Adair Drive in,Austin,TX,
125200,15113 Lariat Trail in,Austin,TX,
24924,1911 Albury Cove A in,Austin,TX,
112961,3308 Thompson Street in,Austin,TX,
90230,7111 Fm 973 in Del,Valle,TX,
83183,183 And Techni Center in,Austin,TX,
18523,7901 Tapo Lane in,Austin,TX,
28518,1401 Rundberg in,Austin,TX,
117933,7100 Dubuque Ln in,Austin,TX,
142286,10004 Shively Lane in,Austin,TX,
114303,12151 Hunters Chase Dr in,Austin,TX,
70482,6013 Nelson Oaks Drive in,Austin,TX,
43053,11679 Research Blvd in,Austin,TX,
119040,14004 Ceylon Tea Circle in,Pflugerville,TX,
104304,4703 Crest Oak in,Austin,TX,
78377,2214 Metcalf Rd in,Austin,TX,
91555,2504 Stratford Drive in,Austin,TX,
89680,6503 Bluff Springs Rd #812 in,Austin,TX,
124751,1000 East 41St in,Austin,TX,
127234,911 W Anderson Ln in,Austin,TX,
91439,7003 Ten Oaks Cir in,Austin,TX,
18147,10141 Macmora Rd in,Austin,TX,
100894,2332 Rodeo Dr in,Austin,TX,
55078,101 E 15Th St in,Austin,TX,
20895,3416 Kahala Sunset Dr in,Travis,TX,
98526,78725 Beauregaurd Cir in,Austin,TX,
38530,2710 Deeringhill Dr in,Austin,TX,
81557,6117 Los Cielos in Del,Valle,TX,
1084,13300 Dessau in,Austin,TX,
97055,23393 Nameless Rd #108 in,Austin,TX,
29779,509 Strawberry Cove in,Austin,TX,
53214,11012 Us 183 in,Austin,TX,
110619,12101 Moore Rd in,Austin,TX,
114835,1902 Crest Haven in,Austin,TX,
90723,2213 Patsy Pkwy in,Austin,TX,
117482,801 Olympic Dr in,Travis,TX,
41444,"5701, Unit 329 in",Austin,TX,
124012,8600 Research Blvd in,Austin,TX,
88101,2809 Lovell in,Austin,TX,
57069,7209 Antoine Cir in,Austin,TX,
98566,4020 Edge Creek in,Austin,TX,
63189,1212 Westheimer in,Austin,TX,
76515,10815 Fm 1625 in,Travis,TX,
2874,5801 Signal Point in,Austin,TX,
103999,13211 Dessau in,Austin,TX,
81822,5400 Basswood Ln in,Austin,TX,
67155,11212 Chatam Berry Ln in,Austin,TX,
134795,5306 Peppertree in,Austin,TX,
58595,4900 E Oltorf St in,Austin,TX,
44942,13211 Dessau Rd in,Austin,TX,
11254,8204 North Lamar B-14 in,Austin,TX,
133830,901 W. Ben White in,Austin,TX,
37370,7901 Cameron Rd in,Austin,TX,
6225,8916 China Rose Dr in,Austin,TX,
82325,7201 in,Austin,TX,
49429,1126 B Gardner Rd in,Austin,TX,
4986,1308 Fairbanks Dr A in,Austin,TX,
45376,408 W 15Th St in,Austin,TX,
106187,1012 Maxines Cv in,Travis,TX,
84420,4001 N Lamar in,Austin,TX,
59387,7312 Colony Park in,Austin,TX,
94565,1311S Lamar Blvd in,Austin,TX,
104544,9010 Shephard Dr in,Austin,TX,
112708,6904 Carwill Dr in,Austin,TX,
38786,801 East William Cannon Drive in,Austin,TX,
108094,1709 E 6Th St in,Austin,TX,
12979,13205 Coomes Dr in Del,Valle,TX,
56049,1153 Webberville Rd in,Austin,TX,
99828,16672 Round Mountain in,Travis,TX,
107474,13508 John F Kennedy St in,Travis,TX,
109537,10333 Old Hwy 20 in,Manor,TX,
27259,1012 Neans Dr in,Austin,TX,
115676,5822 Trade Center Dr in,Austin,TX,
117212,6901 Stonleigh Pl in,Austin,TX,
80560,10617 Deer Canyon Rd in,Jonestown,TX,
30629,1015 E Yager in,Austin,TX,
51757,4200 Ed Bluestein Blvd in,Austin,TX,
68296,10206 Laredo Dr in,Austin,TX,
51356,14606 Gold Fish Pond Ave in,Austin,TX,
104649,8405 Steamline Cir in,Austin,TX,
17031,805 W Annie in,Austin,TX,
58440,2130 Ponciana Loop in,Austin,TX,
21139,4301 Manzamillo Dr in,Austin,TX,
15938,5326 Manchaca in,Austin,TX,
109111,7005 Ten Oaks Cir in,Austin,TX,
33925,6201 S Congress in,Austin,TX,
30716,4801Pimlic in,Austin,TX,
133637,4801 Pimlico Dr in Del,Valle,TX,
35107,4801 Pimlico in,Austin,TX,
33205,11010 Domain Dr in,Austin,TX,
57849,700 W Applegate Dr in,Austin,TX,
96640,1931 E Ben White Blvd #300 in,Austin,TX,
55061,5708 Jfk in,Travis,TX,
40105,617 Congress Ave in,Austin,TX,
78506,22828 Fine Road in,Travis,TX,
104661,2011 Pace Bend Rd N in,Travis,TX,
58484,1610 Colony Creek Dr in,Austin,TX,
39414,2900 N Fm 973 in,Austin,TX,
36855,2110 Thrasher Ln Lot 13 in,Austin,TX,
117560,1207 Southport Dr in,Austin,TX,
9036,1701 Teri Street in,Austin,TX,
23070,1215-8 Research Blvd in,Austin,TX,
88646,1044 Rosemont St in,Austin,TX,
72826,4140 Governors Row in,Austin,TX,
134320,200 El Paso in,Austin,TX,
56401,5400 W Parmer Ln in,Austin,TX,
17885,1607 Fort View in,Austin,TX,
13965,12815 Shops Parkway in Bee,Cave,TX,
100323,805 Great Britain Blvd in,Austin,TX,
27733,2317 Willow St in,Austin,TX,
27484,2504 E 6Th St in,Austin,TX,
77423,14813 Debba Dr in,Travis,TX,
101898,13000 Fm812 in,Travis,TX,
134236,8000 Linden Rd in Del,Valle,TX,
75479,5609 Stuart Cir in,Austin,TX,
21301,4413 Garnett St in,Austin,TX,
5941,6706 Clubway Ln in,Austin,TX,
71380,901 Little Texas Ln in,Austin,TX,
28214,7215 Ellington Cir in,Austin,TX,
80811,12604 Tomanet Trail in,Austin,TX,
1515,2801 Crest Ave in,Austin,TX,
113351,4811 Aberdeen in,Austin,TX,
59277,7100 Barnesdale Way in,Austin,TX,
17284,2106 Sambra Cove in,Austin,TX,
67037,5600 Ledesma Road in,Austin,TX,
57285,5217 Canella Drive in,Austin,TX,
49608,1909 Riverview St in,Austin,TX,
90216,12117 Stoney Meadow in,Austin,TX,
59586,12337 Limerick Ave in,Austin,TX,
29022,16600 Block Jaron Drive in,Manor,TX,
57759,24300 Hamilton Pool Rd in,Travis,TX,
143040,11215 Hwy 290 in,Manor,TX,
136282,4210 S Congress Ave in,Austin,TX,
12240,7511 Carver Ave in,Austin,TX,
63866,12824 Armstrong Ave in,Manor,TX,
55022,11610 Crosstimber Dr in,Austin,TX,
1,9409 Bluegrass Dr in,Austin,TX,
12478,12707 Pondwoods in,Austin,TX,
121968,2402 Guadalupe St in,Austin,TX,
23203,10500 School House Lane in,Austin,TX,
19388,6709 Tulane Dr in,Austin,TX,
9865,3621 Long Day in,Austin,TX,
31844,6308 Decker Ln in,Austin,TX,
108745,11266 Taylor Draper in,Austin,TX,
58369,206 Caney St in,Austin,TX,
90334,13021 Dessau in,Travis,TX,
70631,18216 Gallant in,Manor,TX,
36770,2107 Rio Grande in,Austin,TX,
40964,2702 Loyola Ln in,Austin,TX,
35348,1509 Canterbury in,Austin,TX,
141949,18507 River Timber in Del,Valle,TX,
25823,3108 Windsor Road in,Austin,TX,
137572,2906 E Mlk Jr Blvd in,Austin,TX,
137705,19309 James Manor in,Manor,TX,
138474,11705 Laponor St in,Manor,TX,
135925,4710 Carter Ln in,Austin,TX,
90164,7020 Easywind Drive in,Austin,TX,
131503,916 Reseach Blvd in,Austin,TX,
138322,2401 Wagon Crossing Path in,Austin,TX,
141043,11113 Research Blvd in,Austin,TX,
1126,924 Shady Lane in,Austin,TX,
133884,11401 Us Hwy 290 in,Manor,TX,
63428,8805 North Plaza Drive in,Austin,TX,
18155,8801 Mccann Dr in,Austin,TX,
119980,105 West 51St St in,Austin,TX,
78850,1306 Dominique in,Austin,TX,
57522,1700 Spyglass Dr in,Austin,TX,
81472,703 Vargas Rd in,Austin,TX,
50941,1005 W 34Th St in,Austin,TX,
118552,4904 Turnstone in,Austin,TX,
121426,15412 Staked Plains in,Travis,TX,
70156,1054 Springdale Dr Apt B104 in,Austin,TX,
108603,9600 Old Lockhart Rd in,Austin,TX,
127310,4417 Lucksinger in,Austin,TX,
104438,2514 E Stassney in,Austin,TX,
16040,2800 Bartons Bluff in,Austin,TX,
72323,1429 Braided Rope Dr in,Austin,TX,
42166,8219 Research Blvd in,Austin,TX,
14030,1158 Shady Ln in,Austin,TX,
98117,9736 Anderson Village Dr in,Austin,TX,
20619,12524 Wethersby Way in,Austin,TX,
123335,5907 Cedardale in,Austin,TX,
74512,3721 N 620 in,Austin,TX,
62367,5209 S Pleasant Valley in,Austin,TX,
70588,2110 Oxford Ave in,Austin,TX,
76510,2000 Desco Dr in,Austin,TX,
55857,7318 Onion Creek Dr in,Austin,TX,
99819,5413 Manchaca Rd in,Austin,TX,
78958,6700 Blk in,Austin,TX,
10146,5446 Walnut Grove in,Austin,TX,
66822,14812 Rim Rock in,Travis,TX,
22729,10212 Manchaca Road in,Austin,TX,
60803,1003 Stoneoak Ln in,Austin,TX,
66295,11001 Champions in,Austin,TX,
56013,4500 Gladeline in,Austin,TX,
117312,5701 Johnny Morris Lot 112 in,Austin,TX,
9923,14411 Hwy 290 East in,Travis,TX,
42702,9034 North Ih-35 in,Austin,TX,
106196,3502 East 7Th St in,Austin,TX,
119101,4701 Timber Creek Dr in,Travis,TX,
126854,2106 Sombra Cove in,Austin,TX,
22669,2000 Pearl St in,Austin,TX,
53984,14111 Dewberyy in,Pflugerville,TX,
93056,5600 Tallow Tree in,Austin,TX,
26591,9301 Old Bee Cave Rd in,Austin,TX,
5360,903 Austin Highland Blvd in,Austin,TX,
87673,10001 Burleson Rd in,Travis,TX,
76525,6703 Us-183 in,Austin,TX,
1165,10 Casa Verde in,Lakeway,TX,
64970,5205 Texas Bluebell Dr in,Travis,TX,
42784,902 Emerald Wood Dr in,Austin,TX,
131098,5812 Garden Oaks Dr in,Austin,TX,
11998,16808 High Noon in Del,Valle,TX,
12938,21201 Ann Showers Dr in,Travis,TX,
96507,6111 Idlewood Cv in,Austin,TX,
79302,2407 Canterbury in,Austin,TX,
131752,2200 Guadalupe in,Austin,TX,
72191,15302 Marsha St in,Austin,TX,
14956,4604 Destinys Gate Dr in,Austin,TX,
74573,3915 Doctor Scott in,Travis,TX,
132490,1316 West Braker in,Austin,TX,
1325,1906 Valley Hill Cir #A in,Austin,TX,
27410,15134 Sarahs Creek Drive in,Travis,TX,