Index_ID,Address,City,State,Zipcode
104793,12034 Research Blvd in,Austin,TX,
118068,1912 E William Cannon Rd in,Austin,TX,
60050,4616 E Cesar Chavez in,Austin,TX,
90293,4424 S Mopac #412 in,Austin,TX,
13564,14611 Wells Port Dr in,Austin,TX,
129697,7400 Arrowmound in,Austin,TX,
143221,12317 Wycliff Ln in,Austin,TX,
42348,1401 E Rundberg Ln in,Austin,TX,
89463,8411 Ganttcrest Dr in,Austin,TX,
30566,50Th And Martin in,Austin,TX,
87022,10605 Berthound in,Austin,TX,
24674,2905 French Place in,Austin,TX,
137667,1305 W Oltorf in,Austin,TX,
44677,8603 Fathom Cir in,Austin,TX,
72325,1001 Pres Arriba Rd in,Austin,TX,
14892,600 Barwood Place in,Austin,TX,
82914,17800 Aleppo Pine Trl in,Travis,TX,
34271,3706 Steck Ave in,Austin,TX,
133464,9112 Edmundsburg Dr in,Austin,TX,
127669,4434 Frontier Trl in,Austin,TX,
28222,7201 Levander Loop in,Austin,TX,
118835,2100 Turtle Mountain in,Austin,TX,
19983,183 And Great Hills Trail in,Travis,TX,
36646,11705 Chapel in,Austin,TX,
64376,1704 Nelms Dr #1925 in,Austin,TX,
30995,3304 Webberville Rd in,Austin,TX,
69127,6005 Walnut Hills in,Austin,TX,
127621,1706 City Park Road in,Austin,TX,
45898,3404 Touch Stone St in,Austin,TX,
26,1801 Westridge in,Austin,TX,
25310,1601 Montopolis Dr in,Austin,TX,
102929,2200 S Pleasant Valley Rd in,Austin,TX,
141516,5800 Berkman Dr in,Austin,TX,
111287,6503 Bluff Springs in,Austin,TX,
19415,11309 Bow Ct. in,Austin,TX,
55596,2100 Barton Springs Rd in,Austin,TX,
23612,1201 E. Rundburg in,Austin,TX,
125093,5209 Burnet Rd in,Austin,TX,
98545,1700 E 4Th St in,Austin,TX,
84949,4412 Brandt Rd in,Austin,TX,
39527,11612 Arroyo Blanco in,Austin,TX,
81658,123 East Cesar Chavez in,Austin,TX,
123439,2243 Bagbad Rd in,Austin,TX,
26602,7205 Tumbleweed in,Austin,TX,
23117,2912 E 12Th in,Austin,TX,
15672,12500 Amherst in,Austin,TX,
11202,3225 Oak Aly in,Austin,TX,
110295,10801 Sierra Oaks in,Austin,TX,
17337,5601 Manchaca Rd in,Austin,TX,
109963,14713 Noya Dr in,Travis,TX,
4635,8111 Elkhorn Mountain Trail in,Austin,TX,
38021,1156 W Cesar Chavez in,Austin,TX,
124792,18619 Hamilton Pool Rd in,Travis,TX,
63450,200 W Carrie Manor in,Manor,TX,
141583,38Th in,Austin,TX,
53032,1600 City Park Road in,Austin,TX,
116526,4501 E. Ben White in,Austin,TX,
131638,12621 Hymeadow Dr Unit 205 in,Austin,TX,
59696,0000 Landsman Dr in,Austin,TX,
139768,2603 Hidden Oaks Drive in,Austin,TX,
132211,2018 W Rundberg Lane in,Austin,TX,
92535,4808 Rustown Drive in,Austin,TX,
101734,6015 Kidneywood Trl. in,Austin,TX,
62248,2901 Breeze Terrace in,Austin,TX,
42427,11530 Loweswater in,Austin,TX,
117387,200 East Martin Luther King Junior Boulevard in,Austin,TX,
114346,9903 Sausalito Dr in,Austin,TX,
124590,8702 Black Oak St. in,Austin,TX,
131353,404 Ramble Ln in,Austin,TX,
20552,11209 Forsythe Drive in,Austin,TX,
134658,1941 Gaston Pl #313 in,Austin,TX,
121228,15909 Awalt in,Travis,TX,
142136,7207 A Tumble Weed Dr in,Austin,TX,
113890,4201 Monterey Oaks Boulevard in,Austin,TX,
113607,1210 Barton Springs in,Austin,TX,
58370,2308 London in,Travis,TX,
127325,12100 Fm 973 in,Travis,TX,
34416,5705 Thunderbird in Lago,Vista,TX,
130792,6920 Broad Brook Dr in,Austin,TX,
62988,8324 Alum Rock Dr in,Austin,TX,
52870,701 W Longspur in,Austin,TX,
131953,11328 Ashbrook in,Austin,TX,
110590,1109 Southwood Road in,Austin,TX,
68409,6219 Oakclaire Dr in,Austin,TX,
61367,3611 Brifal Path in,Austin,TX,
43062,1411 Cometa in,Austin,TX,
28442,51St And Grover in,Austin,TX,
109310,8500 Cornwall Dr in,Austin,TX,
71687,2020 Kenwood Dr in,Austin,TX,
86579,6503 Starstreak Dr in,Austin,TX,
27850,11116 Middle Fiskville Rd in,Austin,TX,
57558,12401 N Lamar in,Austin,TX,
88607,6508 Sierra Vista in,Travis,TX,
103690,4909 Woodrow in,Austin,TX,
84244,14028 N 183 in,Austin,TX,
140386,1100 Arcadia Ave in,Austin,TX,
65111,5400 Friedrich Lane in,Austin,TX,
80739,6000 Tara Dr in,Austin,TX,
113268,2400 E Oltorf St in,Austin,TX,
29142,4000 Clawson in,Austin,TX,
130786,5801 Ainez Dr in,Austin,TX,
131078,11806 Shropshire in,Austin,TX,
98000,8203 S 1St in,Austin,TX,
71779,7001 E Meadow Bend in,Austin,TX,
57361,8520 New Hampshire Blvd in,Austin,TX,
34268,4606 S 1St in,Austin,TX,
62832,4020 Lost Oasis Hollow in,Austin,TX,
94744,5004 Allyson Ct in,Austin,TX,
96365,6123 Valient Cir #A in,Austin,TX,
54250,11605 Buckingham Rd in,Austin,TX,
52865,6001 W Parmer Ln in,Austin,TX,
54104,2212 David St in,Austin,TX,
140760,12403 Alderbrook Dr in,Austin,TX,
34524,183 And Jollyville in,Austin,TX,
21355,4700 Rue Le Fleur in,Austin,TX,
87294,15000 Fm 1826 in,Travis,TX,
93363,1916 Tillotson Ave in,Austin,TX,
41728,1802 Cherry Orchid in,Austin,TX,
46739,7229 Apperson St in Del,Valle,TX,
123222,11615 Pearwood Pl in,Austin,TX,
53500,1001 Alden in,Austin,TX,
67855,2319 E Stassney in,Austin,TX,
20412,1119 Kirk Ave in,Austin,TX,
9603,12311 Fay in,Manor,TX,
120735,5207 Brodie Ln in,Austin,TX,
129835,124 W Anderson Ln in,Austin,TX,
19156,307 E 38Th St in,Austin,TX,
56991,10107 East Rutland Village Drive in,Austin,TX,
1740,400 W Anderson in,Austin,TX,
130775,2800 S 5Th in,Austin,TX,
15286,8300 Garcreek in,Austin,TX,
88227,7106 Oak Forest Lane in,Austin,TX,
742,8208 Georgie Trace in,Austin,TX,
49583,1109 Echo Ln in,Austin,TX,
98879,35Th And Grooms St in,Austin,TX,
12693,10609 Portrush in,Travis,TX,
58675,11160 Jollyville Rd #1008 in,Austin,TX,
76282,1009 W Dittmar Rd in,Austin,TX,
20718,11846 Jollyville Rd in,Austin,TX,
105754,7904 Persimmon Trl in,Austin,TX,
84816,11301 Farrah Lane in,Austin,TX,
17447,7601 Daffan Ln in,Austin,TX,
32488,6516 W Colton Bluff Springs Rd in,Austin,TX,
1181,1901 Chicon in,Austin,TX,
88368,20624 Commons in,Travis,TX,
132253,1000 Parker Lane in,Austin,TX,
30526,1156 Cesar Chavez in,Austin,TX,
106401,11724 Dubfries Lane in,Austin,TX,
106249,1100 Congress Avenue in,Austin,TX,
73949,6900 Pleasant Valley in,Austin,TX,
92756,8000 Brown Cemetary Rd in,Travis,TX,
60151,1212 Garden St. in,Austin,TX,
78063,1800 E Stassney Ln in,Austin,TX,
63775,5400 Freidrich in,Austin,TX,
54331,4434 Frontier Trail in,Austin,TX,
38110,1137 Gunter St in,Austin,TX,
64620,8511 Burnet Rd in,Austin,TX,
66738,9401 S 1St St in,Austin,TX,
20710,12058 East Applegate Dr in,Austin,TX,
74945,3333 Crispin Hall Ln in,Travis,TX,
88488,12900 No. I-35 Svc Rd Sb in,Austin,TX,
49552,5700 Convict Hill in,Austin,TX,
83390,803 East Riverside Drive in,Austin,TX,
37466,1941 Gaston Place Dr #334 in,Austin,TX,
31688,2200 Quicksilver in,Austin,TX,
104748,13516 Gilwell in Del,Valle,TX,
38567,9008 Collinfield in,Austin,TX,
123741,5704 Thames Dr in,Austin,TX,
31617,2143 Barton Hills Dr in,Austin,TX,
30585,2616 W Braker Ln in,Austin,TX,
46255,5217 Old Spicewood Springs Rd in,Austin,TX,
974,12800 Harrisglenn Dr in,Austin,TX,
82728,2309 Berkeley in,Austin,TX,
64041,6909 Carver Ave in,Austin,TX,
75271,12221 Mopac Service Rd in,Austin,TX,
37733,1900 Chicon St in,Austin,TX,
60728,6709 W Kings Point in,Austin,TX,
70302,2206 Mountain View Dr in,Austin,TX,
18442,5503 B Fernview Rd in,Austin,TX,
30505,902 W Meadowmere Ln in,Austin,TX,
110628,2924 Thrushwood Dr in,Austin,TX,
63352,8115 Westgate in,Austin,TX,
129253,7132 Highway 71 West in,Austin,TX,
48360,8021 N Fm 620 Apt817 in,Austin,TX,
86172,2600 Gracy Farms Ln in,Austin,TX,
68319,2108 South Lamar in,Austin,TX,
88469,1125 Salina St in,Austin,TX,
88761,8001 South Interstate 35 in,Austin,TX,
117529,1100 Montopolis in,Austin,TX,
61597,7112 Ed Bluestein Boulevard in,Austin,TX,
42465,12311 Little Emily Way in,Austin,TX,
122457,3808 S. 1St St in,Austin,TX,
140996,8301 Warbler Ct in,Austin,TX,
59627,12622 Mistletoe in,Travis,TX,
10269,4203 Burch Dr in,Travis,TX,
142103,47Th /Ave F in,Austin,TX,
91962,2300 Aldford in,Austin,TX,
96500,7920 San Felipe Boulevard in,Austin,TX,
94292,5762 N Mopac Expressway Northbound in,Austin,TX,
31827,115 Heritage Drive in,Hays,TX,
136467,1505 Willow Street in,Austin,TX,
6415,8011 Beckett Rd in,Austin,TX,
67463,6200 Tara Dr in,Austin,TX,
43400,8401 Hathaway Drive in,Austin,TX,
1551,5302 Hwy 71 10B in,Travis,TX,
89630,3209 S Ih 35 in,Austin,TX,
55959,1115 E 3Rd in,Austin,TX,
25651,1115 E 3Rd St in,Austin,TX,
14468,709 St Elmo in,Austin,TX,
77061,4603 Nuckols Crossing in,Austin,TX,
111125,5208 Garden Oaks Drive in,Austin,TX,
113380,2630 Exposition Boulevard in,Austin,TX,
134702,1302 Parker Ln in,Austin,TX,
125786,6300 Ken Caryl Drive in,Austin,TX,
62693,11501 Century Oaks Terrace in,Austin,TX,
47941,408 W Dittmar in,Austin,TX,
5983,168 Tiffany Trail in,Austin,TX,
20876,2705 Rundberg in,Austin,TX,
93481,969 And Hunters Bend in,Austin,TX,
134406,2417 Blue Meadow Dr in,Austin,TX,
13104,10611 Golden Quail Dr in,Austin,TX,
10498,12041 Dessau Road in,Austin,TX,
99319,4703 S Congress in,Austin,TX,
86442,8800 S 1St St in,Austin,TX,
113089,4601 East St Elmo in,Austin,TX,
100400,5426 Manchaca #225 in,Austin,TX,
111498,7244 Wardman Drive in,Travis,TX,
105545,13430 Onion Creek Dr in,Travis,TX,
138225,7315 Cooper Ln in,Austin,TX,
45818,4717 Highland Terrace in,Austin,TX,
54444,12021 Selma Huges Park Rd in,Austin,TX,
137110,4900 Hilldale Drive in,Austin,TX,
125332,12200 Carl Rd in,Creedmoor,TX,
55949,5918 Kevin Kelly Place in,Austin,TX,
6261,2200 Berkeley Ave in,Austin,TX,
14928,4404 Marlin Cove in,Austin,TX,
3218,294 Dry Creek Rd in,Manor,TX,
40548,10420 Fm812 in,Travis,TX,
70260,5108 Mcdade Dr in,Austin,TX,
13361,8403 Mesa Drive in,Austin,TX,
8539,4609 Trail Crest Cir in,Austin,TX,
41297,5208 Canella in,Austin,TX,
138445,1156 West Cesar Chavez in,Austin,TX,
97432,100 W St Johns in,Austin,TX,
28115,11901 Pavilion in,Austin,TX,
129070,1605 Woodlawn in,Austin,TX,
94840,1803 Cedar Ridge Dr in,Austin,TX,
123190,12606 Johnson Rd in,Manor,TX,
15169,7727 Burnet Rd in,Austin,TX,
135920,300 West Carrie in,Manor,TX,
103321,3838 Steck Avenue in,Austin,TX,
7562,4320 S Congress in,Austin,TX,
84475,6017 Abilene in,Austin,TX,
100725,2300 North Loop in,Austin,TX,
132932,0000 E 14Th 1/2 St in,Austin,TX,
84603,502 W Croslin in,Austin,TX,
67276,3008 Yellow Pine in,Austin,TX,
128311,2222/Mt Bonnell in,Austin,TX,
133928,737 Wales in,Austin,TX,
80751,1203 Springdale Rd in,Austin,TX,
25053,5604 Southwest Parkway in,Austin,TX,
58617,9909 North Lamar in,Austin,TX,
20060,2100 Metcalfe Road in,Austin,TX,
122285,10520 North Lamar Boulevard in,Austin,TX,
39122,4021 S Capital Of Texas Hwy in,Austin,TX,
29690,10011 Derringer Trl in,Austin,TX,
59411,51St St in,Austin,TX,
47661,5300 Apple Orchard in,Austin,TX,
35570,5403 Aldford Dr in,Austin,TX,
140889,2409 Mantague Dr in,Austin,TX,
25247,5007 Mendoca Dr in,Austin,TX,
467,6902 Deep Cir #A in,Austin,TX,
104612,1304 Willow St in,Austin,TX,
110911,3001 N Fm 973 in,Austin,TX,
124572,2705 Princetron Drive in,Austin,TX,
102604,4711 Sara Drive in,Austin,TX,
39515,1511 Cripple Creek Dr in,Austin,TX,
52286,11846 Jollyville in,Austin,TX,
73703,1044 Camino La Costa in,Austin,TX,
5956,12221 N Mopac in,Austin,TX,
114772,7600 Carver Ave in,Austin,TX,
73955,2401 Manor Rd in,Austin,TX,
2670,910 Fiesta in,Austin,TX,
762,4800 Shaw Ln in,Austin,TX,
78056,4308 Scarbrough in,Austin,TX,
108462,1600 Wells Branch Pkwy in,Travis,TX,
31869,4471 Trail Crest Circle in,Austin,TX,
98865,4434 Frontier in,Austin,TX,
106785,5400 Tx-71 in,Travis,TX,
125174,2000 Cedar Bend Dr in,Austin,TX,
7937,9300 Block West Hwy 71 in,Austin,TX,
108104,1088 Park Plaza in,Austin,TX,
4199,9801 West Parmer Lane in,Austin,TX,
133417,7618 Lunar in,Austin,TX,
17201,9625 Covy Ridge Ln in,Austin,TX,
121738,1701 Westmoor Dr in,Austin,TX,
14905,7020 Grand Canyon Dr in,Austin,TX,
61140,7102 Meadow Bend in,Austin,TX,
29362,1180 Sol Wilson Ave in,Austin,TX,
41625,183 & Manor Road in,Austin,TX,
84651,1112 Haverford Dr in,Austin,TX,
46603,7601 Daffan Lane in,Austin,TX,
11365,3103 Jeanette Ct in,Austin,TX,
27949,5802 Avery Island in,Austin,TX,
6667,3200 Duval in,Austin,TX,
24432,7212 Southwind Dr in,Austin,TX,
31270,509 W 16Th St in,Austin,TX,
21768,910 East 55Th 1/2 Street in,Austin,TX,
33682,321 Angel Oak St in,Austin,TX,
16327,183 & Research Blvd in,Austin,TX,
41172,2807 Cameron Loop #4 in,Austin,TX,
127612,3401 Redbud Trl in,Austin,TX,
11242,5808 Mckinney Falls Pkwy in,Austin,TX,
120428,4010 1327 in,Austin,TX,
87543,10841 Redmond Road in,Austin,TX,
38919,4700 Little Hill Circle in,Austin,TX,
67739,2347 Douglas St in,Austin,TX,
85466,220 Quinn Drive in,Hays,TX,
130195,7501 Bluff Springs Road in,Austin,TX,
8945,2003 Kenwood Ave in,Austin,TX,
36695,8028 Gessner in,Austin,TX,
118702,5530 Killingsworth in,Travis,TX,
38218,1311 Collinwood West in,Austin,TX,
60180,4412 Marathon Bvd in,Austin,TX,
14132,3501 Ambleside in,Austin,TX,
139214,3902 Chase Dr in,Austin,TX,
62268,507 Bear Canyon Drive in,Austin,TX,
9581,13400 Marie Ln in,Manor,TX,
97170,300 Ferguson Rd in,Austin,TX,
53285,8220 W Sh 71 in,Austin,TX,
6533,5813 Breezewood Dr in,Austin,TX,
42703,201 E. Parsons in,Manor,TX,
95877,6300 Us-290 in,Austin,TX,
118017,10400 Parkfield Dr in,Austin,TX,
42565,1005 Bird Creek Drive in,Austin,TX,
13319,12609 Dessau Road in,Austin,TX,
30886,4236 Iriona Bend in,Austin,TX,
33343,15365 Jacobson Road in,Travis,TX,
125261,14967 Swiss Dr in,Travis,TX,
142575,2302 E. William Cannon in,Austin,TX,
19710,9000 Manchaca in,Austin,TX,
70451,2200 S Pleasant Valley Road in,Austin,TX,
87959,8600 Fathom Cir in,Austin,TX,
9147,912 Grey Castle in,Pflugerville,TX,
39474,10801 Old Manchaca Rd. in,Austin,TX,
65820,11701 Woodland Hill Trl in,Austin,TX,
16734,7224 Black Panda Trail in,Travis,TX,
17725,1600 Wickersham Ln in,Austin,TX,
121914,7015 Cooper Ln in,Austin,TX,
20379,900 Nalide St in,Austin,TX,
133049,6508 Libyan Drive in,Austin,TX,
48379,4208 Kings Court in,Travis,TX,
118203,15302 Storm in,Travis,TX,
106949,2701 E 7Th St in,Austin,TX,
77306,7000 Decker Ln in,Austin,TX,
41233,1401 St Edwards Dr in,Austin,TX,
70937,2703 Crownover St in,Austin,TX,
77986,12524 Briarcreek Loop in,Travis,TX,
90872,12216 Buzz Schneider Ln in,Austin,TX,
65214,11208 Amaranth Ln in,Austin,TX,
6852,9408 Dessau in,Austin,TX,
94608,1303 E. 2Nd St in,Austin,TX,
62474,15101 Nordyke Ln in,Austin,TX,
1726,9009 Georgian Drive in,Austin,TX,
27281,8820 W. Hwy 71 in,Austin,TX,
110686,7905 San Felipe Blvd in,Austin,TX,
58634,1705 Melissa Oaks Ln in,Austin,TX,
134405,12138 N Lamar in,Austin,TX,
22313,6607 Brodie Ln in,Austin,TX,
83873,4500 Block Sherwyn Dr in,Austin,TX,
122483,5814 Gloucester Lane in,Austin,TX,
23195,4703 Teri Road in,Austin,TX,
102990,3005 South Lamar in,Austin,TX,
82676,5200 Block Of Woodland Oaks Ct in,Austin,TX,
121334,7204 Curpin Cv in,Austin,TX,
36810,6616 Plains Crest in,Travis,TX,
42024,204 West Powell Lane in,Austin,TX,
27376,401 Little Texas Lane in,Austin,TX,
104558,9901 North Lamar Boulvard in,Austin,TX,
69595,2206 Blue Meadow Dr in,Austin,TX,
111948,5426 Menchaca Rd in,Austin,TX,
49821,8501 Dittmar Oaks in,Austin,TX,
105694,12419 Metric in,Austin,TX,
39468,2000 E William Cannon in,Austin,TX,
134311,10501 Walnut Bend Dr in,Austin,TX,
101999,1647 Rutland Dr in,Austin,TX,
69918,4708 Carsonhill Drive in,Austin,TX,
88715,7224 Northeast Dr in,Austin,TX,
100094,290 & Sawyer Ranch Rd in,Austin,TX,
142987,2121 W. William Cannon in,Austin,TX,
32249,909 Kavanagh in,Austin,TX,
127858,12304 Sky Harbor in,Austin,TX,
54646,11408 Liberty St in,Travis,TX,
121416,5808 Mckinney Falls Parkway in,Austin,TX,
53459,6202 Langham Street in,Austin,TX,
1077,1503 Morgan Ln in,Austin,TX,
39833,607 Woodward Street in,Austin,TX,
71056,2137 Callingwood in,Austin,TX,
122470,1100 East Oltorf in,Austin,TX,
16971,4703 Quicksilver Blvd in,Austin,TX,
143737,620/Bee Caves in,Austin,TX,
65550,5413 Tipton in,Austin,TX,
16758,5005 Bundyhill in,Austin,TX,
141928,1508 Southport Dr in,Austin,TX,
14470,12512 La Paz in Del,Valle,TX,
108472,7932 West Rim Dr in,Austin,TX,
58579,124 Anderson Ln in,Austin,TX,
95015,3507 Starline Drive in,Austin,TX,
107664,20700 Huckabee Bend in,Pflugerville,TX,
22264,3002 Birdwood Circle in,Austin,TX,
121857,11821 Carrizo Springs in,Travis,TX,
126105,2800 Lyons Rd in,Austin,TX,
83607,1657 Chippeway Lane in,Austin,TX,
42877,3048 Steiner Ranch Blvd in,Travis,TX,
38210,18200 Carlson Rd in,Travis,TX,
129531,1100 West 49Th Street in,Austin,TX,
95329,1647 Chippeway in,Austin,TX,
112814,9801 Menchaca Road Walgreens in,Austin,TX,
116259,11317 Cameron Rd in,Austin,TX,
79410,9021 Texas Sun Drive in,Austin,TX,
59601,5907 Camino Seco in,Austin,TX,
50176,2201 Pennsylvania Ave in,Austin,TX,
130457,1200 Vargas Rd in,Austin,TX,
16219,104 Florence Drive in,Austin,TX,
119163,3400 S Congress Ave in,Austin,TX,
75211,14950 Swiss Dr in,Travis,TX,
69215,6301 West Slaughter Lane in,Austin,TX,
22655,13229 Briarcreek Loop in,Manor,TX,
37961,4400 Quicksilver Blvd in,Austin,TX,
123763,10505 Scotland Well Dr. in,Austin,TX,
120404,11602 Swearingen in,Austin,TX,
87880,1611 Wethersfield Dr in,Austin,TX,
20715,7239 Coronado Circle in,Austin,TX,
11299,2114 New Slaughter in,Austin,TX,
103305,8103 View Ridge in,Austin,TX,
82997,1109 South Pleasant Valley in,Austin,TX,
81936,6813 Point North in,Austin,TX,
105697,3101 Shoreline Dr in,Austin,TX,
104446,812 Patchway Ln in,Austin,TX,
57378,10706 Plains Trl in,Austin,TX,
114015,402 W Parson in,Travis,TX,
117716,7803 Flatrock in,Travis,TX,
118614,2505 Patsy Parkway in,Austin,TX,
130933,1601 E Slaughter in,Austin,TX,
6576,10207 Fm 812 in,Travis,TX,
77866,1701 Vargas Rd in,Austin,TX,
55309,11900 Hobby Horse Ct in,Austin,TX,
60671,9831 Weir Loop Cir in,Austin,TX,
32635,10004 Oak Hollow Drive in,Austin,TX,
54492,2300 W North Loop # 206 in,Austin,TX,
5239,11200 Lakeline Mall Drive in Cedar,Park,TX,
23984,1408 Braes Ridge Drive in,Austin,TX,
125896,6205 North Lamar Boulevard in,Austin,TX,
128323,4003 Ayala in,Travis,TX,
12145,11702 Garden Grove in,Travis,TX,
109131,11300 Doyle Overton Road in,Travis,TX,
107681,600 W Grady in,Austin,TX,
127530,1000 Ellingson in,Austin,TX,
22902,5313 Spring Meadow Road in,Austin,TX,
112502,6101 Derby Cove in,Austin,TX,
143155,103 Oertli Ln in,Austin,TX,
105794,2001 Parker Ln in,Austin,TX,
74678,12601 Tech Ridge Blvd in,Austin,TX,
11348,6100 Jain Lane in,Austin,TX,
118883,2110 W Slaughter in,Austin,TX,
97507,1163 Nickols in,Austin,TX,
114130,2903 Rr 620 North in,Lakeway,TX,
25566,5445 West Us Highway 290 Service Road in,Austin,TX,
133318,2313 Monarch Dr in,Austin,TX,
63144,13204 Amarillo Ave in,Austin,TX,
136666,4605 Dove Springs in,Austin,TX,
121758,904 E Braker Ln in,Austin,TX,
75939,20747 Fm 969 in,Webberville,TX,
37150,4312 Acropolis Ct in,Austin,TX,
33259,11409 Lapoymar St in,Manor,TX,
23474,3227 E 5Th in,Austin,TX,
54320,2610 Manor Rd in,Austin,TX,
33646,8106 Brodie Ln in,Austin,TX,
115110,2406 Bluebonnet Ln in,Austin,TX,
2859,14817 Alpha Collier Dr in,Travis,TX,
19803,4716 Duval Rd in,Austin,TX,
82414,2400 E Oltorf in,Austin,TX,
82265,6203 N Capital Of Texas Hw in,Austin,TX,
114754,3706 Manorwood Rd in,Austin,TX,
43277,4501 Springdale Rd in,Austin,TX,
95278,1201 Grove Blvd in,Austin,TX,
106962,2104 East Anderson Lane in,Austin,TX,
63641,18608 White Rim Trl in,Travis,TX,
108720,12400 Paloma Blanca Way in,Austin,TX,
9711,207 Tillery Square in,Austin,TX,
137589,1212 Perez in,Austin,TX,
66561,17800 Fm 1431 in,Jonestown,TX,
140099,11411 Gun Fight Ln in,Austin,TX,
118674,8002 Rockwood Ln in,Austin,TX,
20616,1205 E 13Th St in,Austin,TX,
25667,7204 Fred Morse Dr in,Austin,TX,
55495,14303 Merrilltown Dr in,Austin,TX,
19182,4801 S Ih 35 in,Austin,TX,
63692,5200 S Scout Island Cir in,Austin,TX,
4692,7310 South Congress Avenue in,Austin,TX,
12565,2504 Manor Rd #116 in,Austin,TX,
94245,4600 Molera Dr in,Austin,TX,
43826,505 Swanee Dr Apt 102 in,Austin,TX,
99075,11604 Stonehollow Drive in,Austin,TX,
55156,1109A Northcape Dr. in,Austin,TX,
51932,333 E Slaughter Ln in,Austin,TX,
139378,4410 Barrow Ave in,Austin,TX,
4687,12345 Lamplight Village in,Austin,TX,
128050,3208 Raspberry Rd in,Travis,TX,
89562,100 E Anderson Ln in,Austin,TX,
135590,6700 S 1St St in,Austin,TX,
135967,901 W Ben White in,Austin,TX,
87570,5129 Cameron Rd in,Austin,TX,
114345,3800 S. 2Nd St in,Austin,TX,
117203,1500 Barton Hills Dr in,Austin,TX,
16859,2114 W Slaughter Lane in,Austin,TX,
37018,94 San Saba St in,Austin,TX,
131751,6403 Johnny Morris Unit 10 in,Austin,TX,
93293,4520 Rimrock in,Austin,TX,
19956,11336 Rimrock Trl in,Austin,TX,
104302,4550 Avenue A in,Austin,TX,
82232,6900 Escarpment Blvd in,Austin,TX,
7838,11102 Centennial Trail in,Austin,TX,
109836,1908 Albury Cv in,Austin,TX,
68210,620/183 in,Austin,TX,
118150,1000 Barton Springs Rd in,Austin,TX,
32798,1816 E 6Th St in,Austin,TX,
116868,401 Little Texas Ln in,Austin,TX,
77595,4900 E Oltorf in,Austin,TX,
110240,13509 Windstone Court in,Manor,TX,
107253,14707 Noya Dr in,Travis,TX,
31391,13429 Dulles Avenue in,Austin,TX,
114133,1706 Maple Ave in,Austin,TX,
127632,8701 Keynes Ln in,Austin,TX,
2944,12931 Heyerdahl in,Pflugerville,TX,
134642,814 Sheraton Ave in,Austin,TX,
89080,1156 W Cesar Chavez St in,Austin,TX,
68387,7910 Forbsdale Drive in,Austin,TX,
119473,12Th /Oltorf in,Austin,TX,
15625,2102 Chicon Street in,Austin,TX,
38598,2915 Aftonshire Way in,Austin,TX,
112832,1415 Vargas in,Austin,TX,
81233,1507 W William Cannon Dr in,Austin,TX,
110180,508 E Howard Ln in,Austin,TX,
83629,5508 Cordell Ln in,Austin,TX,
21677,4405 E Riverside in,Austin,TX,
12026,4003 Turquoise in,Austin,TX,
540,305 E Yager in,Austin,TX,
140730,8801 S Ih 35 in,Austin,TX,
30451,614 Commons Ford Road in,Austin,TX,
45893,9345 E 290 in,Travis,TX,
108346,1921 Willow Creek Dr in,Austin,TX,
88047,8410 Riverstone Dr in,Austin,TX,
3468,905 A W 30Th St in,Austin,TX,
89787,2501 Chaparral Trail in,Austin,TX,
101501,8100 N Mopac in,Austin,TX,
10123,1940 Webberville Road in,Austin,TX,
96693,1219 S Lamar in,Austin,TX,
10495,5901 Municipal Complex Way in Lago,Vista,TX,
125378,6620 Blue Bluff Road in,Austin,TX,
42640,4404 Sarasota Drive in,Austin,TX,
78675,2700 Gracie Farms Ln in,Austin,TX,
47226,1143 Airport in,Austin,TX,
124794,13601 Caldwell Dr in,Austin,TX,
72629,6818 Hergotz Ln in,Austin,TX,
108131,4106 N Lamar Blvd in,Austin,TX,
110613,1505 Broadmoor Dr in,Austin,TX,
15764,14901 Nuttall Dr in,Austin,TX,
90215,5505 Over Brook Dr in,Austin,TX,
140954,16523 Fagerquist in,Travis,TX,
52268,10601 Ruidosa Street in,Austin,TX,
48903,4301 W William Cannon Dr in,Austin,TX,
46714,1601 Koenig Lane in,Austin,TX,
115621,3930 Bee Cave Rd in,Austin,TX,
77207,2406 Dove Dr in,Austin,TX,
124446,4602 E Stassney Ln in,Austin,TX,
51987,19 Margranita Crescent in,Austin,TX,
28787,85 Trinity St # 101 in,Austin,TX,
55863,4800 Surrey Dr in,Austin,TX,
104183,2200 Tabor Court in,Austin,TX,
95492,10209 Brownie Dr in,Austin,TX,
28129,1010 Turtle Creek in,Austin,TX,
136351,2505 S 5Th St in,Austin,TX,
131636,5217 Spicewood Springs Rd in,Austin,TX,
71969,7811 Epping Ln in,Austin,TX,
76742,1144 Mason Avenue in,Austin,TX,
119597,2531 West Anderson Lane in,Austin,TX,
95746,13509 Coomes Drive in Del,Valle,TX,
103775,7025 Village Center Dr in,Austin,TX,
79174,12803 Doorbell Dr in,Manor,TX,
34774,9304 Chatterton Court in,Austin,TX,
80965,2218 Pershing Dr in,Austin,TX,
130896,1034 Clayton Ln in,Austin,TX,
88284,3717 Crownover in,Austin,TX,
99109,9500 Interstate Highway 35 in,Austin,TX,
26635,1913 Golden Pheasant in,Austin,TX,
32670,2900 Sunridge Dr in,Austin,TX,
106493,10416 Premier Park Street in,Austin,TX,
30255,6312 El Mirando St in,Austin,TX,
113551,8704 Devine Ln in,Austin,TX,
74885,290/Springdale in,Austin,TX,
68905,183 And Lake Creek Pkwy in,Austin,TX,
33415,2103 Granberry in,Austin,TX,
129283,9400 Teasdale in,Austin,TX,
99101,2239 S. Lamar Blvd in,Austin,TX,
32983,7510 Compass Dr in,Travis,TX,
142369,5201 Ross Rd in,Austin,TX,
48952,2310 Wickersham Ln in,Austin,TX,
24772,7628 Knockfin Drive in,Austin,TX,
126416,4107 Lullwood in,Austin,TX,
77052,1724 Bunche Rd in,Austin,TX,
2167,2009 Far Gallant Dr in,Travis,TX,
93900,5315 Ed Bluestein Boulevard in,Austin,TX,
3714,2718 E 22Nd St in,Austin,TX,
130190,900 Chicon St in,Austin,TX,
26662,9105 Sweet Gum Dr in,Austin,TX,
114030,8210 N Ih 35 in,Austin,TX,
107756,905 Christopher St in,Austin,TX,
84292,17225 Hamilton Point Cir in,Austin,TX,
32766,2907 Kuhlman Ave in,Austin,TX,
85115,1910 West Ridge Dr in,Austin,TX,
47857,5817 Wideleaf Dr. in,Travis,TX,
94813,7900 Keneshaw in,Austin,TX,
29951,11608 Briar Creek in,Manor,TX,
103671,900 San Antonio in,Austin,TX,
96397,3902 Danli Lane in,Austin,TX,
79912,7601 Dixie Dr in,Austin,TX,
4231,5902 Garden Oaks Drive in,Austin,TX,
124007,6501 Kingsland Ct in,Austin,TX,
47840,12607Lampost Ln in,Austin,TX,
65394,8624 N Lamar in,Austin,TX,
84374,7131 Wood Hollow Dr in,Austin,TX,
88785,845 Interchange Blvd in,Austin,TX,
54891,10520 N. Lamar in,Austin,TX,
9475,2206 Blue Meadow Trl in,Austin,TX,
21558,1800 Comal in,Austin,TX,
139461,8501 Young Ln in,Austin,TX,
21867,11304 North Ih 35 in,Austin,TX,
43921,6008 Parkwood in,Austin,TX,
136743,9908 Deer Chase Trail Lane in,Austin,TX,
16317,2900 E Cesar Chavez St in,Austin,TX,
19047,1615 Holly Street in,Austin,TX,
57384,1142 North Western in,Austin,TX,
34831,4708 Castleman Dr. in,Austin,TX,
98494,2907 Inridge Drive in,Austin,TX,
126841,7902 Dee Gabriel Collins in,Austin,TX,
12705,8601 El Rey in,Austin,TX,
89687,9Th & San Saba in,Austin,TX,
118744,3600 Greystone Dr in,Austin,TX,
49887,15000 Faro Dr in,Austin,TX,
74951,6700 Cooper Lane in,Austin,TX,
21670,6010 Balcones Drive in,Austin,TX,
29699,1300 E St Johns in,Austin,TX,
63567,600 Boulder Bluff in,Hays,TX,
87707,1135 Garland Ave in,Austin,TX,
20858,2817 Kentish Dr in,Austin,TX,
50778,12800 West Highway 290 in,Manor,TX,
5887,7417 Cedar Edge Dr in,Austin,TX,
18625,1114 Faircrest Dr. in,Austin,TX,
98194,14903 Bern Dr in,Travis,TX,
30873,1902 Santa Clara St in,Austin,TX,
95191,2300 Willow St in,Austin,TX,
74120,2938 Pecan Springs Rd in,Austin,TX,
132236,3500 N Capital Of Texas Hwy in,Austin,TX,
27608,1901 W William Cannon in,Austin,TX,
114623,1309 North Ridge Drive in,Austin,TX,
63869,6205 E Riverside Dr in,Austin,TX,
47953,904 Bret Ln in,Austin,TX,
48053,7201 Levander in,Austin,TX,
32713,6801 E Ben White Blvd in,Austin,TX,
62230,1399 Fm 1704 in,Travis,TX,
106217,17928 Violet Ln in,Austin,TX,
95824,6706 Starcrest in,Austin,TX,
61453,2009 Uphill Ln in,Austin,TX,
48136,5701 Johnny Morris Rd in,Austin,TX,
120517,11940 Manchaca Rad in,Austin,TX,
43391,2504 Huntwick Dr in,Austin,TX,
4829,1616 W 6Th St in,Austin,TX,
81237,9305 Carson Creek in,Austin,TX,
25529,2201 Montopolis in,Austin,TX,
24192,3603 Southridge in,Austin,TX,
54015,290 And Convict Hill in,Austin,TX,
79812,7402 Ladybug St in,Austin,TX,
82713,8611 Davis Oaks in,Austin,TX,
38717,1819 South Pleasant Valley in,Austin,TX,
47565,2303 Purple Sage in,Austin,TX,
847,3302 Glenview Ave in,Austin,TX,
31512,5309 Presidio Rd in,Austin,TX,
110308,13803 Lampting Dr. in,Pflugerville,TX,
81635,18020 Misty Harbor in,Travis,TX,
54371,11005 American Mustang Loop in,Austin,TX,
74774,3607 Greystone Dr in,Austin,TX,
14069,6001 Ponca St in,Austin,TX,
64750,2803 Loyola Lane in,Austin,TX,
69885,5701 Johnny Morris #152 in,Austin,TX,
108993,811 W Johanna St in,Austin,TX,
54521,8413 Dee Gabriel Collins in,Austin,TX,
85373,11216 Prairie Dove Cir in,Austin,TX,
64427,3705 Robinson Ave in,Austin,TX,
72232,3108 Alice Ave in,Austin,TX,
22499,2500 Montopolis Drive in,Austin,TX,
27548,3600 Tyrone in,Austin,TX,
116554,14304 Sandifer St in,Austin,TX,
13017,7111 Crystalbrook Dr in,Austin,TX,
103405,12812 Briarcreek Loop in,Travis,TX,
108617,2239 Cromwell Circle in,Austin,TX,
137209,13904 Tophll Cir in,Pflugerville,TX,
123858,5405 Agua Caliente Cv in,Austin,TX,
99670,301 W 38Th in,Austin,TX,
80300,8917 Sam Carter Dr in,Austin,TX,
15709,5017 Us 290 in,Austin,TX,
39310,11501 Manchaca in,Travis,TX,
37009,600 Barwood Park in,Austin,TX,
78241,228 Camperdown Elm Dr in,Austin,TX,
20331,650 Bastrop Hwy in,Austin,TX,
142891,12909 Bloomfiled Dr in,Travis,TX,
11003,3111 Parker Ln in,Austin,TX,
41091,1301 Quailfield Cir in,Austin,TX,
140674,8408 Riverstone in,Austin,TX,
125478,2801 Wells Branch Parkway in,Austin,TX,
110694,85 Trinity St in,Austin,TX,
26897,13652 Jacobson Rd in,Manor,TX,
74959,6905 Carver in,Austin,TX,
82032,6804 Apperson St in Del,Valle,TX,
133578,2200 S Pleasant Valley in,Austin,TX,
23090,3006 Burleson Rd in,Austin,TX,
93519,609 Blackson Avenue in,Austin,TX,
105202,9120 Northgate Blvd in,Austin,TX,
50093,4320 S Congress Ave in,Austin,TX,
50599,700 Victor in,Austin,TX,
66731,1821 Musket Valley Trl. in,Austin,TX,
102134,8601 Vertex Blvd in,Austin,TX,
89217,18319 Werchan Lane in,Travis,TX,
125343,6805 Wood Hollow Drive in,Austin,TX,
95374,6317 Ken Caryl in,Austin,TX,
8321,2906 E Martin Luther King Jr Blvd in,Austin,TX,
114549,7000 E Ben White in,Austin,TX,
4229,15017 Babbling Brook Dr in,Austin,TX,
80276,2401 Manor Road in,Austin,TX,
130165,917 Shady Lane in,Austin,TX,
117806,5717 S Ih 35 in,Austin,TX,
78132,1500 Royal Crest Dr in,Austin,TX,
96347,2314 Wickersham Ln in,Austin,TX,
83830,8010 N I H 35 in,Austin,TX,
69232,7710 Cloudberry Circle in,Austin,TX,
139575,5736 Arcadia Cir in Del,Valle,TX,
47900,1938 Holly Hill Street in,Austin,TX,
93993,2405 E 9Th St in,Austin,TX,
68906,11213 Chatan Berry Lane in,Austin,TX,
13262,2209 Kinney in,Austin,TX,
81080,9201 Brodie Ln in,Austin,TX,
13778,2600 Water Well Ln in,Austin,TX,
88389,4106 N. Lamar Blvd in,Austin,TX,
127257,1201 Lady Bird Ln in,Austin,TX,
28839,7621 Crystalbrook West in,Austin,TX,
83714,6905 Point North Dr in,Travis,TX,
16113,7619 East Ben White Boulevard in,Austin,TX,
37314,827 W Fm 1626 in,Travis,TX,
14963,14508 Harris Ridge Blvd in,Travis,TX,
113367,6813 Colony Loop Dr in,Austin,TX,
136121,6100 Devonshire in,Austin,TX,
4715,7201 S Congress Ave in,Austin,TX,
84781,14109 Fm969 in,Travis,TX,
140527,1127 Christie Dr. Austin in,Austin,TX,
132959,8121 Research in,Austin,TX,
32851,4500 E 71 in,Austin,TX,
102804,1601 Royal Crest Drive Near Apartment 2166 in,Austin,TX,
52536,6403 Johnny Morrios in,Austin,TX,
95037,14406 Tiffer Ln in,Austin,TX,
72294,4800 Copper Bend in,Austin,TX,
132826,12915 Von Quintus Road in,Travis,TX,
134455,8819 S Fm 973 in,Travis,TX,
82198,10705 Newmont Road in,Austin,TX,
86304,1911 Willow Creek Dr in,Austin,TX,
80915,2405 Kumquat Ct in,Austin,TX,
19827,8116 Forest Heights Ln in,Austin,TX,
1382,111 E St Johns Ave in,Austin,TX,
62102,12501 Tech Ridge (San Paloma Apts) in,Austin,TX,
43307,1700 Blk Magazine Dr in,Austin,TX,
135988,5112 S 1St St in,Austin,TX,
21014,4600 Elmont Drive in,Austin,TX,
68860,5808 Levenwood in,Austin,TX,
65691,2101 Burton Dr in,Austin,TX,
26883,1101 Austin Highlands Blvd in,Austin,TX,
43942,10809 Strand in,Austin,TX,
73563,1208 Perez in,Austin,TX,
113100,2201 W William Cannon in,Austin,TX,
134344,600 Heatherwilde Blvd in,Travis,TX,
58057,712 Ann Taylor in,Austin,TX,
115194,3401 Webberville Rd in,Austin,TX,
29311,204 W 43Rd in,Austin,TX,
85587,1422 Briarcliff Blvd in,Austin,TX,
8791,4220 S Ih 35 in,Austin,TX,
63923,4807 Russet Hill Drive in,Austin,TX,
54618,11502 Swearingen in,Austin,TX,
69128,4606 Little Hill Cir in,Austin,TX,
57441,460 Spicewood Springs in,Austin,TX,
79041,124 W Anderson Lane in,Austin,TX,
107304,6607 N Ih 35 in,Austin,TX,
64623,12166 Metric Blvd in,Austin,TX,
95712,96 Mildred St in,Austin,TX,
30955,12512 White Eagle in,Austin,TX,
102677,12034 Research in,Travis,TX,
22837,3105 South Interstate Highway 35 in,Austin,TX,
24204,2535 Ridgepoint Drive in,Austin,TX,
33599,5309 Beckett in,Austin,TX,
114411,1186 Ridge Way in,Austin,TX,
85424,6901 Windrift Way in,Austin,TX,
64501,7220 Lookout Bluff Ter. in,Austin,TX,
81242,11313 Walnut Ridge in,Austin,TX,
101904,2900 Manor Rd # 2446 in,Austin,TX,
18594,2101 Jesse E Segovia St in,Austin,TX,
74121,2230 E Stassney Ln in,Austin,TX,
81917,2108 Ferguson Ln in,Austin,TX,
134543,6121 N Ih35 in,Austin,TX,
115282,5608 Cordell in,Austin,TX,
18298,1700 East Slaughter Lane in,Travis,TX,
8772,183 And 812 in,Austin,TX,
90453,9904 Mountian Quail in,Austin,TX,
126185,8501 Slant Oak Dr in,Austin,TX,
129849,1704 East Cesar Chavez Street in,Austin,TX,
32855,9202 Mckenzie Rd in,Austin,TX,
77995,3807 Ranch Rd 620 in,Travis,TX,
68039,51St And Mlk in,Austin,TX,
68099,6103 Hogan Ave in,Austin,TX,
133723,1912 East William Cannon in,Austin,TX,
130443,5807 Sweeny Cir Unit D in,Austin,TX,
91037,7112 Ed Bluestein Blvd #125 in,Austin,TX,
139869,2501 Wickersham Lane in,Austin,TX,
69572,124 West Anderson Lane in,Austin,TX,
20702,8608 Grelle in,Austin,TX,
75701,6504 Virgo Ln in,Austin,TX,
6369,12425 Mellow Meadow Dr in,Austin,TX,
23738,1400 E 4Th St in,Austin,TX,
69631,1015 W William Cannon Dr in,Austin,TX,
14287,4806 Turnstone in,Austin,TX,
94068,1442 S Meadows Dr in,Austin,TX,
86080,2405 Teri Rd in,Austin,TX,
115389,2001 E Riverside in,Austin,TX,
135729,2808 Bond Dr in,Austin,TX,
39356,1200 Mearns Meadow in,Austin,TX,
124203,6500 Ross Rd in,Austin,TX,
92155,10119 Diamond Back Trail in,Austin,TX,
28292,6804 Bitteroot Trl in,Austin,TX,
116575,12803 Tomanet Trail in,Austin,TX,
85632,2405 Santa Rosa in,Austin,TX,
137785,215 Cloudview Dr in,Austin,TX,
52993,8800 N Ih 35 in,Austin,TX,
35510,7115 Howerington Cir in,Austin,TX,
31862,5800 Melody Lane in,Austin,TX,
2364,502 W Longspur Blvd in,Austin,TX,
45917,11900 Stonehollow #323 in,Austin,TX,
110954,1220 Camino La Casta Drive in,Austin,TX,
52531,2704 San Pedro St in,Austin,TX,
14503,3912 Sierra Dr in,Austin,TX,
107295,4603 Preakness in,Travis,TX,
26624,908 Hill Wood in,Austin,TX,
54394,1003 Romeria Drive in,Austin,TX,
129186,8503 Rosemary Lane in,Austin,TX,
142071,6405 Circle S Rd in,Austin,TX,
70142,500 East 7 Th Street in,Austin,TX,
37386,806 Maude St in,Austin,TX,
97883,9315 Rowlands Sayle Road in,Austin,TX,
128204,10204 W Rutland Village in,Austin,TX,
115495,11441 North Interstate Highway 35 in,Austin,TX,
54294,2934 Pannell St in,Austin,TX,
55331,11416 N Fm 620 Rd in,Austin,TX,
76966,4800 Colton Rd in,Austin,TX,
116092,3908 Vieled Falls Dr in,Pflugerville,TX,
65015,17801 Powder Creek in,Travis,TX,
86383,907 W Slaughter Ln in,Austin,TX,
99912,2313 Peppertree in,Austin,TX,
30426,5911 Johnny Morris #5 in,Austin,TX,
97017,5608 Cougar Drive in,Austin,TX,
53510,11800 Tinajero in,Manor,TX,
20585,2123 Nogales Trl in,Austin,TX,
109693,6407 Springdale Rd #2103 in,Austin,TX,
33020,2516 Palo Verde in,Austin,TX,
13827,1109 E 9Th St in,Austin,TX,
544,7404 Inspiration in,Austin,TX,
23709,1605 Kramer Ln in,Austin,TX,
16613,6806 Ali Cv in,Austin,TX,
88507,2300 Spirit Of Texas Dr in,Austin,TX,
135055,2124 Burton Dr. in,Austin,TX,
103805,5901 East Stassney in,Austin,TX,
21846,8212 Sassman in,Travis,TX,
16706,3101 Shoreline Drive in,Austin,TX,
122994,6005 Jacquiline Ln in,Travis,TX,
49005,501 E Stassney in,Austin,TX,
55883,4701 Nuckols Crossing in,Austin,TX,
89344,1201 Payton Gin in,Austin,TX,
141036,7322 Dixie Dr in,Austin,TX,
11544,4405 Lendall Lane in,Austin,TX,
36852,7500 S. Pleasant Valley in,Austin,TX,
61613,505 E Hutland Dr in,Austin,TX,
37661,8804 Tallwood Dr in,Austin,TX,
125347,2407 E 9Th in,Austin,TX,
142184,6611 Hergotz Ln in,Austin,TX,
16587,1011 Newport Avenue in,Austin,TX,
20317,12250 Research Blvd in,Austin,TX,
121654,1156 West Cesar Chavez Street in,Austin,TX,
4795,10129 Lake Creek Pkwy in,Austin,TX,
51528,614 E Oltorf in,Austin,TX,
42098,5701 Johnny Morris in,Austin,TX,
61285,7301 Burleson Road in,Austin,TX,
9574,10211 Fm 969 Rd in,Travis,TX,
104566,2401 Lakeshore in,Austin,TX,
113850,11408 Tickford Dr in,Austin,TX,
119397,7403 East River Side in,Austin,TX,
21820,1624 E Howard in,Austin,TX,
85852,5200 Ross Rd in,Austin,TX,
116891,1200 Mearns Meadown Blvd in,Austin,TX,
47383,6605 Johnny Morris Cv in,Austin,TX,
80992,7403 S. Pleasant Valley in,Austin,TX,
4816,3106 Lynridge Dr in,Austin,TX,
125691,183 And Ih 35 in,Austin,TX,
140747,102 Red Oak Street in,Austin,TX,
13173,1414 Salem Meadow in,Austin,TX,
87487,3209 Darnell Dr in,Austin,TX,
59944,2109 Callingwood Dr in,Austin,TX,
2013,7201 Duval St.#115 in,Austin,TX,
68772,6430 S Ih 35 Frontage Rd in,Austin,TX,
55880,14307 Vandever in,Travis,TX,
17921,1015 East Yager Lane in,Austin,TX,
86523,4100 South Ih 35 Frontage Road in,Austin,TX,
97780,8311 Research Blvd in,Austin,TX,
132971,8801 La Cresada Dr in,Austin,TX,
18467,14504 Reynero Ln in,Travis,TX,
19479,5701 Teri Road in,Austin,TX,
96864,7005 South Highway 183 in,Austin,TX,
57797,3201 Jack Cook in,Austin,TX,
47253,1015 E Yager Ln in,Austin,TX,
93828,2901 South Capital Of Texas Highway in,Austin,TX,
55307,3105 S Ih-35 in,Austin,TX,
31716,7500 Cayenne Ln in,Austin,TX,
120284,5209 Purple Sage Dr in,Austin,TX,
67824,7403 Riverside Dr in,Austin,TX,
18605,4709 Blue Meadow Dr in,Austin,TX,
65821,4801 Aberdeen Dr in,Austin,TX,
80957,1614 Kemah Dr in,Austin,TX,
64132,47Th St & Duval in,Austin,TX,
76398,7311 Westgate Blvd in,Austin,TX,
131150,10616 Research Blvd in,Austin,TX,
70339,2100 South Lakeshore in,Austin,TX,
107629,221 E 9Th St in,Austin,TX,
132466,5225 Banton Woods Bend in,Austin,TX,
1570,7100 Crystal Brook in,Austin,TX,
24115,9601 Brown in,Austin,TX,
58778,5500 Ross Rd in Del,Valle,TX,
35616,7800 N I 35 in,Austin,TX,
108070,4934 Manchester in,Austin,TX,
137088,1204 Castile Rd in,Travis,TX,
38024,600 East Rundberg in,Austin,TX,
17859,2020 S Congress in,Austin,TX,
125246,7607 Loganberry Dr in,Austin,TX,
36647,5805 Valley Brook Dr in,Austin,TX,
78636,10505 Circle Dr. in,Travis,TX,
2961,7400 Firefly Dr in,Austin,TX,
31873,1401 Vista Ridge Cv in,Austin,TX,
52278,2300 W North Loop Blvd in,Austin,TX,
80647,3105 River Rd in,Travis,TX,
91906,3603 Southridge Drive in,Austin,TX,
56413,7400 Arctic Ct in,Austin,TX,
53122,11913 Leda Ln in,Austin,TX,
135609,6605 Starstreak in,Austin,TX,
27450,9903 Cheryl Lynn in,Travis,TX,
35976,8500 Cameron Loop in,Austin,TX,
43504,15208 Valerian Tea Dr in,Travis,TX,
21967,12000 Blk Noche Clara Rd in,Austin,TX,
4087,5710 E Mlk Jr in,Austin,TX,
123709,810 Bastrop Hwy in,Austin,TX,
48692,17112 Rocky Ridge Road in,Austin,TX,
85865,2700 S. Pleasant Valley in,Austin,TX,
76249,13106 N. Mopac in,Austin,TX,
113455,12800 Harrisglen Dr in,Austin,TX,
61769,6610 Luckenbach Lane in,Austin,TX,
38597,2406 W Parmer Ln in,Austin,TX,
7,415 East Mary Street in,Austin,TX,
114073,24802 Anderson Trail in,Leander,TX,
62665,7200 Reaburn St in,Austin,TX,
47511,4701 Staggerbrush in,Austin,TX,
109494,15507 Rock Creek Road in,Austin,TX,
78960,1100 Leander Rd in,Williamson,TX,
81198,8814 Tallwood Dr in,Austin,TX,
52458,4700 E Riverside #627 in,Austin,TX,
71508,6002 Idlewood Cv in,Austin,TX,
92054,9000 Bird Brook Ln in,Austin,TX,
139415,10505 Moore Rd in,Travis,TX,
9061,1406 Cool Shadow in,Austin,TX,
439,1009 Coronation Way in,Travis,TX,
41202,1212 W Ben White Apt 217 in,Austin,TX,
62388,5501 Darlington in,Austin,TX,
16207,6026 Bluebell in,Austin,TX,
51865,5840 Secrest Dr in,Austin,TX,
120486,8800 E Us 290 Hwy in,Austin,TX,
103562,4404 E Oltorf in,Austin,TX,
50782,10350 Little Thicket Rd in,Austin,TX,
13188,1907 Fairlawn Lane in,Austin,TX,
17826,1735 Rutland Dr in,Austin,TX,
5820,706 Terrace Mountain Drive in,Austin,TX,
131743,12034 Research in,Austin,TX,
94103,6412 West Us 290 in,Austin,TX,
108213,9219 Anderson Mill Road in,Austin,TX,
99917,5111 Single Shot in,Austin,TX,
6067,8800 W Hwy 290 in,Austin,TX,
31621,6819 Great Northern Blvd in,Austin,TX,
43909,611 W 22Nd St in,Austin,TX,
112004,717 Dulwich in,Austin,TX,
84779,13802 Dois D Arc in,Manor,TX,
123949,11502 Humber in,Travis,TX,
3352,5800 Techni Center Dr in,Austin,TX,
63936,8714 Limecreek Rd in,Travis,TX,
40284,1054 Springdale Austin in,Austin,TX,
129613,2503 East 2Nd Street in,Austin,TX,
127024,21St & Pearl St in,Austin,TX,
17884,3816 S Lamar Apt 520 in,Austin,TX,
8110,4507 Whirlwind Cv in,Travis,TX,
107719,1611 Airport Commerce in,Austin,TX,
17313,7913 Ingrid Dr in,Travis,TX,
134146,2200 Wheless Ln in,Austin,TX,
86170,9420 Singing Quail Dr in,Austin,TX,
39803,1144 Gunter St in,Austin,TX,
82829,7617 Creekbluff in,Austin,TX,
129642,14209 Rosseau St in,Austin,TX,
10331,8310 Research Boulevard in,Austin,TX,
65402,1700 E Slaughter Ln in,Austin,TX,
13749,7711 Brodie in,Austin,TX,
42344,8410 Beech St in,Austin,TX,
121733,500 W Dittmar Rd in,Austin,TX,
31017,1500 West William Cannon in,Austin,TX,
119714,501 U.S. 183 in,Austin,TX,
95680,1165 Lott Ave in,Austin,TX,
24728,9703 Marlborough Dr in,Austin,TX,
10076,4209 River Rd in,Travis,TX,
84906,9219 Independence Loop in,Austin,TX,
47566,2615 Crystal Bend Dr in,Pflugerville,TX,
2095,2100 East 3Rd Street in,Austin,TX,
25117,3309 Peavy Dr in,Travis,TX,
90776,1210 Golden Eagle in,Pflugerville,TX,
6719,1037 East 44Th Street in,Austin,TX,
98942,1142 Shady Ln in,Austin,TX,
23261,1900 Gracy Farms in,Austin,TX,
121971,9602 Capitol View Dr in,Travis,TX,
92746,2100 Rio Grande in,Austin,TX,
104598,11401 Century Oaks Terr in,Austin,TX,
66708,1823 Fortview Rd in,Austin,TX,
6103,1005 W Stassney Lane in,Austin,TX,
37706,8220 Sh 71 in,Travis,TX,
41681,1100 Ballybunion Place in,Travis,TX,
2278,602 Montopolis in,Austin,TX,
43691,2001 Kenneth Ave #A in,Austin,TX,
140648,124 W Anderson in,Austin,TX,
122097,12118 Walnut Park # 911 in,Austin,TX,
100128,4600 Nuclols Crossing in,Austin,TX,
131175,5803 Nuckols Crossing in,Austin,TX,
9585,1182 North Pleasant Valley Road in,Austin,TX,
95083,4017 Victory Dr in,Austin,TX,
124319,8220 Tx-71 in,Austin,TX,
124979,13016 Tantivy Dr in,Austin,TX,
77947,1620 Riverside Dr in,Austin,TX,
73844,1903 S L Davis in,Austin,TX,
83076,6601 Santos in,Austin,TX,
20483,9325 N Lamar Blvd in,Austin,TX,
32281,1700 Teri Rd in,Austin,TX,
124827,10801 Hokanson Ct in,Travis,TX,
59055,2101 Teri Rd in,Austin,TX,
110791,3400 North Hill in,Austin,TX,
111608,4320 South Congress Avenue in,Austin,TX,
50630,9601 Middle Fiskville in,Austin,TX,
8428,4610 Spicewood Springs Road in,Austin,TX,
18244,3209 S. Ih-35 in,Austin,TX,
21627,2159 S Lamar Blvd in,Austin,TX,
121381,2202 Galway St in,Austin,TX,
119931,1015 Norwood Park Blvd in,Austin,TX,
31306,6101 Devonshire Cove in,Austin,TX,
72524,1619 E 4Th St in,Austin,TX,
70106,2736 Shire Ridge Dr in,Austin,TX,
91390,4901 Oldfort Hill in,Austin,TX,
34767,9300 S Ih 35 in,Austin,TX,
37235,7301 A Dan Jean Drive in,Austin,TX,
56558,5608 Southwest Pkwy in,Austin,TX,
62583,8412 Garcreek C in,Austin,TX,
6365,2727 Exposition Blvd in,Austin,TX,
85164,14912 Fagerquist Dr in Del,Valle,TX,
84241,907 Valdez St in,Austin,TX,
49228,2203 Lindell in,Austin,TX,
124047,11001 S 1St St in,Austin,TX,
13171,5420 Killingsworth in,Travis,TX,
71309,7600 Metropolis Dr in,Austin,TX,
19623,8813 Francia Trl in,Austin,TX,
39172,5803 Wellington Drive in,Austin,TX,
920,11039 Maha Loop in,Travis,TX,
11235,11500 Maha Loop in,Austin,TX,
55111,1206 Cullen Ave in,Austin,TX,
108176,45Th And Duval in,Austin,TX,
36552,7908 Forbsdale Dr in,Austin,TX,
64429,1901 E. 51St in,Austin,TX,
111221,4506 Southwest Dr. in,Austin,TX,
59732,1100 E Oltorf in,Austin,TX,
37965,8221 N Ih 35 in,Austin,TX,
136438,12201 Renfert Way in,Austin,TX,
65211,1009 Ruth Ave in,Austin,TX,
5803,1420 E. Anderson in,Austin,TX,
82911,1815 Gracie Farms Ln in,Austin,TX,
87575,332 E Slaughter Ln # 624 in,Austin,TX,
114617,1908 Albury Cove in,Austin,TX,
101554,3500 Greystone Dr in,Austin,TX,
86376,124 W Anderson Ln Wb in,Austin,TX,
114128,3600 Harmon Ave in,Austin,TX,
57852,5603 Wagon Train Cove in,Austin,TX,
121132,911 Speer Ln in,Austin,TX,
52026,12012 Crownstone Ln in,Manor,TX,
97160,1016 Fieldwood Drive in,Austin,TX,
33808,3001 Sauls in,Austin,TX,
92238,1316 Braker Lane in,Austin,TX,
90014,13021 Dessau Rd in,Austin,TX,
139933,11066 Pecan Park Blvd in,Travis,TX,
44733,5510 South Pleasent Valley in,Austin,TX,
39248,2239 South Lamar in,Austin,TX,
106887,2509 Emmett Parkway in,Travis,TX,
125901,7500 Bluff Springs Road in,Austin,TX,
39583,13309 Constellation Dr in,Manor,TX,
32721,1513 Suffolk in,Austin,TX,
55808,7702 Cloudberry Circle in,Austin,TX,
78656,1900 S 1St St in,Austin,TX,
73309,5608 Zachary Scott St in,Austin,TX,
105220,13945 Us 183 Nb in,Austin,TX,
84381,12827 Meehan Drive in,Austin,TX,
52313,4100 Tannehill in,Austin,TX,
71124,1800 Patton Ln #101 in,Austin,TX,
21123,7400 Berkman Dr in,Austin,TX,
98058,12221 Sky Harbor Dr in,Austin,TX,
12163,11606 Mary Hargrove Ln in,Austin,TX,
51146,1106 Reinli St. #8 in,Austin,TX,
126835,4200 Brookview Rd in,Austin,TX,
64899,2439 Town Lake Cir in,Austin,TX,
119695,14400 Lemongrass Lane in,Travis,TX,
131104,13785 Research Blvd in,Austin,TX,
14733,6524 Alum Rock Cv. in,Austin,TX,
133270,2330 E 2Nd in,Austin,TX,
14242,8900 Springlake Dr in,Austin,TX,
106682,4710 Harmon Ave in,Austin,TX,
119064,9201 Scenic Bluff Dr in West Lake,Hills,TX,
38485,8710 Dittmar Oaks Dr in,Austin,TX,
31174,20300 Trappers Trl in,Travis,TX,
62511,13730 Spring Heath in,Travis,TX,
78713,11903 Shropshire Blvd in,Austin,TX,
133351,8801 N 620 #1333 in,Austin,TX,
125646,4509 Aristocrat Dr in,Travis,TX,
9324,1120B Brookswood Ave. in,Austin,TX,
130059,3317 Taylor Falls Dr in,Pflugerville,TX,
89269,8700 United Kingdom Drive in,Austin,TX,
111611,12815 Sexson Ridge Ln in,Austin,TX,
32183,2017 Philomena in,Austin,TX,
133189,1812 E 20Th St in,Austin,TX,
24793,6911 Wentworth Dr in,Austin,TX,
57210,724 Eberhart in,Austin,TX,
238,2312 Bitter Creek Drive in,Austin,TX,
96129,6405 S Ih 35 in,Austin,TX,
42264,12501 Tech Ridge Boulevard in,Austin,TX,
120613,606 Kenniston Dr in,Austin,TX,
5922,6430 S Ih 35 in,Austin,TX,
141804,4200 S Ih 35 in,Austin,TX,
18903,8909 Grelle Ln in,Austin,TX,
67965,5303 Indio Cir in,Austin,TX,
44541,34 Robert T Martinez Jr St in,Austin,TX,
116529,5203 S. Pleasant Valley in,Austin,TX,
95497,1002 Fiesta St in,Austin,TX,
13285,2201 Patsy Pkwy in,Austin,TX,
68846,10505 Ih 35 in,Austin,TX,
129096,1108 Emmitt in,Austin,TX,
20664,4718 Us 183 in,Austin,TX,
111488,1601 Ih35 N in,Austin,TX,
30968,701 Woodward Street in,Austin,TX,
113640,10248 Old Lockhart Rd in,Austin,TX,
6751,1100 Shady Ln in,Austin,TX,
942,4800 S Ih 35 in,Austin,TX,
66536,4900 Lexington Meadow Ln in Del,Valle,TX,
51822,4313 S 1St St in,Austin,TX,
27065,14401 Harris Ridge Blvd in,Travis,TX,
11524,21 Waller #1103 in,Austin,TX,
32056,5103 Bundyhill Cir in,Austin,TX,
133837,7103 Circle S Rd in,Austin,TX,
135823,1801 East 51St Street in,Austin,TX,
108876,3200 Mc Call Ln in,Austin,TX,
50116,15230 Fm 973 in,Travis,TX,
24854,3421 W William Cannon in,Austin,TX,
99581,12140 Loma Vista in Del,Valle,TX,
122365,11416 Cherisse Dr in,Austin,TX,
40369,1200 Village West Dr in,Travis,TX,
67727,8701 Bluffstone Cv. in,Austin,TX,
85133,2463 E State Highway 71 Service Rd in Del,Valle,TX,
103413,20 North Interstate 35 in,Austin,TX,
3481,5800 Teri Rd. in,Austin,TX,
138337,2121 W Parmer in,Austin,TX,
14716,1800 Wild Rose in,Austin,TX,
94554,13828 Field Spar Drive in,Manor,TX,
51185,911 Linger Lane in,Austin,TX,
71918,905 E Cesar Chavez St in,Austin,TX,
849,615 Thrasher in,Austin,TX,
52611,400 Cooper Drive in,Austin,TX,
77816,2702 Fentonridge in,Austin,TX,
81545,14008 Briar Creek Loop in,Manor,TX,
127582,5Th And San Saba in,Austin,TX,
103787,1211 Vargas in,Austin,TX,
74148,6200 Felix in,Austin,TX,
21475,222 South Pleasant Valley Road in,Austin,TX,
127971,3737 Keats Dr #125 in,Austin,TX,
131699,2401 Ridgepoint Dr in,Austin,TX,
13146,12062 Lincolnshire Dr in,Austin,TX,
62178,2421 Village Walk in,Austin,TX,
117723,1109 Northcape in,Austin,TX,
12258,5701 Tracy Lynn Ln in,Austin,TX,
21073,2218 Pershing Dr in,Austin,TX,
55781,2512 East Riverside in,Austin,TX,
23497,3600 South Ih-35 in,Austin,TX,
129657,3600 S Interstate 35 Frontage Rd in,Austin,TX,
99332,7700 Timber Hills in,Travis,TX,
19376,8140 N Lamar in,Austin,TX,
54827,700 Blk Montopolis in,Austin,TX,
12237,3811 E 12Th St in,Austin,TX,
29381,"2025 W Ben, Eb in",Austin,TX,
110031,1301 Palo Duro Rd in,Austin,TX,
51657,7745 Parkdale Place in,Austin,TX,
73035,2307 Santa Rita in,Austin,TX,
71048,7591 Chevy Chase #15-104 in,Austin,TX,
121393,2200 Block Of E 13Th in,Austin,TX,
78384,1801 Wells Branch Pkwy in,Austin,TX,
50263,4715 Blueberry in,Austin,TX,
119654,1020 Grove Blvd in,Austin,TX,
52833,5510 B Prock Ln in,Austin,TX,
74584,2210 Palmera Cv in,Austin,TX,
42057,2210 Palmera in,Austin,TX,
82973,3401 W Parmer in,Austin,TX,
23774,811 King Albert Street in,Austin,TX,
126821,6209 Reicher Dr #B in,Austin,TX,
38875,702 E 45Th Half in,Austin,TX,
57364,15208 Fm 969 in,Austin,TX,
55138,6503 Bluff Springs #1003 in,Austin,TX,
50590,1148 Mason in,Austin,TX,
11885,3815 Leafield Dr in,Austin,TX,
107775,3403 Merrie Lynn in,Austin,TX,
47695,4412 Dovehill+ in,Austin,TX,
42842,2323 Wells Branch Parkway in,Austin,TX,
122864,1912 E. William Cannon Dr. #701 in,Austin,TX,
86597,2020 Covered Wagon Pass in,Austin,TX,
97938,4405 Bucks Run in,Austin,TX,
115790,1881 Grove in,Austin,TX,
91884,11805 Oak Haven in,Austin,TX,
34256,46Th And Hyde Park in,Austin,TX,
122691,13512 Mizzen in,Manor,TX,
16551,10509B Macmora Rd in,Austin,TX,
135886,12511 Fm 1625 in,Travis,TX,
88303,500 Ih 35 in,Austin,TX,
80319,5704 Arcadia Cir in Del,Valle,TX,
8935,1515 Wickersham in,Austin,TX,
7251,406 Middle Ln in,Austin,TX,
55465,1211 Montopolis Dr in,Austin,TX,
88441,305 Shep St in,Austin,TX,
13549,290 And Montery Oaks in,Austin,TX,
79512,18417 Dry Brook in,Pflugerville,TX,
38891,14605 Plain Rock Pass in,Travis,TX,
123985,4330 Bull Creek Rd in,Austin,TX,
51196,2201 Willow Creek Drive in,Austin,TX,
19237,9300 Northgate Blvd #225 in,Austin,TX,
34719,603 Blackwell Ave in,Travis,TX,
47666,1102 S Congress Ave in,Austin,TX,
13458,6401 North Hampton Dr in,Austin,TX,
111505,7014 Ellroy Rd in,Travis,TX,
125414,1202 Hollow Creek Dr in,Austin,TX,
37790,2701 Sherman Ct. in,Travis,TX,
25127,1512 Allisons Way in,Travis,TX,
63198,6012 Wagon Bend in,Austin,TX,
131042,5506 Palo Blanco Ct in,Austin,TX,
141850,13712 Hwy 20 in,Travis,TX,
115405,1500 Crossing Pl in,Austin,TX,
119973,4704 Dove Springs in,Austin,TX,
80468,959 Reinli St in,Austin,TX,
76377,400 W St Elmo Rd in,Austin,TX,
119466,2705 Mulford Cove in,Austin,TX,
108058,200 W Anderson Lane in,Austin,TX,
5745,301 West Stassney Lane in,Austin,TX,
139103,7215 Thannas Way in,Austin,TX,
40331,11901 Hobby Horse in,Austin,TX,
70587,7104 Mcneil Dr in,Austin,TX,
71261,2201 in,Austin,TX,
26245,10708 Onyx in,Austin,TX,
123784,1811 Springdale Rd in,Austin,TX,
112907,821 Sebastian Bend in,Pflugerville,TX,
43037,8940 Circle Dr in,Travis,TX,
116116,7330 Bluff Springs in,Austin,TX,
117865,6512 Stonleigh in,Austin,TX,
4159,1107 Plymouth in,Austin,TX,
126280,8801 Schick Rd in,Austin,TX,
91479,7215 Maverick Court in,Travis,TX,
113794,7212 Crestone in,Austin,TX,
26655,4531 Creek Bend Dr in,Austin,TX,
39504,2004 Nightview in,Austin,TX,
66692,814 Sawbuck Drive in,Austin,TX,
110512,5905 Bolm Rd in,Austin,TX,
35889,2430 Cromwell Cir in,Austin,TX,
58597,10704 Parsons Road in,Travis,TX,
140964,3204 Point O Woods in,Austin,TX,
10427,9309 Carson Creek in,Austin,TX,
45033,2602 E. Stassney in,Austin,TX,
32846,11304 Walnut Ridge Dr in,Austin,TX,
24988,12505 Rampart St in,Austin,TX,
112666,2304 Quanah Parker in,Travis,TX,
26240,3504 Taylor Falls Dr in,Travis,TX,
56508,2600 Scofield Ridge Pkwy in,Travis,TX,
45686,4005 W Parmer Ln in,Austin,TX,
21672,4407 Norwood Ln in,Austin,TX,
15351,5208 La Bahia Road in,Austin,TX,
76137,1840 Burton Dr in,Austin,TX,
80879,13401 Metric Blvd in,Austin,TX,
52469,612 Irma Dr in,Austin,TX,
70702,11904 Braircreek in,Manor,TX,
132498,6008 Sandshof in,Austin,TX,
124149,5800 Belmoor Dr in,Austin,TX,
43926,3012 Hawks Swoop Trl in,Travis,TX,
111067,11402 Joy St. in,Travis,TX,
35461,10102 Ivanhoe Trl in,Austin,TX,
125415,6811 Porter in,Austin,TX,
88249,13100 Bennington Ln in,Austin,TX,
17226,1505 Darold Dr in,Austin,TX,
118683,14000 Renaissance Ct in,Austin,TX,
116311,1504 Ridgehaven Dr in,Austin,TX,
132910,2000 E 51St in,Austin,TX,
140535,13810 Dewberry in,Travis,TX,
73445,5706 Melody in,Travis,TX,
138525,1801 Fortview Rd in,Austin,TX,
3424,8221 N Interstate Hwy 35 in,Austin,TX,
47757,13125 Briarcreek Loop in,Manor,TX,
13376,6800 North Lamar in,Austin,TX,
67623,204 Red Bird in,Austin,TX,
127877,13201 Ranch Rd 620 N in,Austin,TX,
81638,3014 West William Cannon Dr in,Austin,TX,
84768,15Th St And Ih 35 in,Austin,TX,
104831,10600 Ruidosa St in,Austin,TX,
16504,11740 Manchaca in,Austin,TX,
36277,10706 Lanshire A in,Austin,TX,
53524,1213 Southport in,Austin,TX,
100255,183 And Anderson Lane in,Austin,TX,
9193,1401 E 12Th St in,Austin,TX,
23442,2201 Barton Springs Rd in,Austin,TX,
9897,8100 N Lamar in,Austin,TX,
61937,1715 W Cesar Chavez in,Austin,TX,
83169,4600 Nuckols Crossing in,Austin,TX,
15745,600 Springdale in,Austin,TX,
102570,12507 Esplanade in,Austin,TX,
71677,1183 Hargrave St in,Austin,TX,
39760,8413 Riverstone Drive in,Austin,TX,
83402,100 Top O The Lake Dr in,Lakeway,TX,
25223,5629 Victory Gallop in Del,Valle,TX,
17397,2915 S Ih 35 Frontage Road Room 131 in,Austin,TX,
60802,2401 Quicksilver in,Austin,TX,
30946,13212 High Sierra St in,Manor,TX,
62829,1806 Paradise Ridge in Round,Rock,TX,
126903,1200 N Ih 35 in,Austin,TX,
44314,6111 S Congress in,Austin,TX,
71684,10301 Little Pebble Dr Unit A in,Austin,TX,
79576,900 Broken Feather Trail in,Pflugerville,TX,
32577,5010 Old Manor Road in,Austin,TX,
51381,14107 Sleepy Hollow in,Pflugerville,TX,
60880,4407 Norwood Lane in,Austin,TX,
79352,11408 Tickford Dr in,Travis,TX,
22605,8300 N Ih 35 in,Austin,TX,
14396,5300 Jimmy Clay Drive in,Austin,TX,
18971,5507 Ross Rd in Del,Valle,TX,
11344,1401 Bowie Knife in,Burnet,TX,
99792,1005 N Cueranavaca Dr in,Travis,TX,
139353,2769 And Bullick Hollow Road in,Austin,TX,
4520,8407 Coulver Rd in,Travis,TX,
4975,5811 Whitebrook Dr. in,Austin,TX,
86454,18709 Great Falls Drive in,Travis,TX,
139820,7809 E Ben White Blvd in,Austin,TX,
85283,10504 Lake Creek Pkwy in,Austin,TX,
57176,6700 Ferrystone Glen in,Austin,TX,
68574,15701 Pearce Ln #B in,Travis,TX,
91122,7501 Shelton Rd in,Austin,TX,
101523,720 Harris Ave in,Austin,TX,
54346,1300 Crossing Place in,Austin,TX,
56153,15009 Nuttall Dr in,Austin,TX,
101785,7400 Geneva in,Austin,TX,
55416,5401 Maryanna in,Austin,TX,
68676,10218 Thaxton Rd in,Travis,TX,
93150,13101 Winding Creek Rd in,Travis,TX,
124825,909 Vargas in,Austin,TX,
138371,6111 Shumard Oak Trl in,Austin,TX,
95750,620 Hwy & 71 in,Austin,TX,
103379,4623 Quicksilver Blvd in,Austin,TX,
54917,2900 Kenner Drive in,Pflugerville,TX,
110382,9613 Marston in,Austin,TX,
53819,7801 N Capital Of Texas Hwy in,Austin,TX,
73441,1800 E Stassney in,Austin,TX,
71995,10928 Desert Willow Dr in,Austin,TX,
73253,3807 Blue Dawn in,Austin,TX,
67181,1901 Onion Creek Pkwy in,Austin,TX,
19621,5510 Woodview Ave in,Austin,TX,
78645,1807 Magazine in,Austin,TX,
53028,3809 Caldwell Ln in Del,Valle,TX,
24153,1901 Montopolis Dr in,Austin,TX,
124479,2201 Willow Creek Dr in,Austin,TX,
103626,5903 Jacueline in,Travis,TX,
97162,18619 E Us 290 Hwy in,Travis,TX,
110527,5117 E Cesar Chevaz in,Austin,TX,
68406,12916 Wood Lilly Trl in,Travis,TX,
39244,1601 Royal Crest in,Austin,TX,
82182,71 & Spirt Of Texas Hwy in,Austin,TX,
74980,1130 Leona in,Austin,TX,
78996,14516 Amy Francis in,Travis,TX,
130518,12707 Pond Woods Dr in,Austin,TX,
120350,305 Tillery Square in,Austin,TX,
8359,12109 Shetland Chase in,Austin,TX,
39869,3501 South First Street in,Austin,TX,
141114,11501 Pollyanna in,Austin,TX,
36945,6607 S Ih 35 in,Austin,TX,
86405,2121 Cervin Blvd in,Austin,TX,
143764,6813 Crystalbrook Dr in,Austin,TX,
12448,10911 Maha Loop in,Austin,TX,
114886,9900 N Ih 35 in,Austin,TX,
42476,7116 Windrift Way in,Austin,TX,
113783,12314 Willow Wild in,Austin,TX,
15202,6705 Campina Xing in Del,Valle,TX,
143132,6914 Blessings Ave in,Austin,TX,
54559,2765 E 7Th St in,Austin,TX,
127659,7405 Springtime in,Austin,TX,
5214,5400 Jimmy Clay in,Austin,TX,
8604,5001 Creek Bend in,Austin,TX,
111444,3009 Meldrum St in Del,Valle,TX,
172,4915 Yager Ln in,Austin,TX,
46724,12501 Tech Ridge Blvd in,Austin,TX,
129765,7500 S Ih 35 in,Austin,TX,
50877,12005 Garden Grove Dr in,Austin,TX,
87291,4905 Alf in,Austin,TX,
120191,14824 Falling Stone Ln in,Travis,TX,
88911,1001 Bouldin Ave in,Austin,TX,
54763,16310 Bratton Ln in,Austin,TX,
94205,11612 Gemmer St in Del,Valle,TX,
21351,7903 Taza Trl in,Austin,TX,
60911,12315 Rayden St. in,Travis,TX,
12297,12407 Emery Oaks Dr. in,Austin,TX,
55395,2001 S Ih 35 in,Austin,TX,
80083,2012 Payne Ave in,Austin,TX,
21157,4503 Dove Springs Rd. in,Austin,TX,
112026,16801 Trevin Cv in,Manor,TX,
23817,511 West Live Oak in,Austin,TX,
85286,2101 Elmont in,Austin,TX,
132200,4502 S 3Rd St in,Austin,TX,
5532,7218 Lakecharles Dr in,Austin,TX,
123579,1212 E Braker in,Austin,TX,
71636,9225 S 183 in,Travis,TX,
71535,11517 Dove Flight in,Travis,TX,
85801,20700 Fm 1431 in Lago,Vista,TX,
12268,20700 Fm 1431 in Lago,Vista,TX,
126621,6202 Melody Ln in,Travis,TX,
32070,71/ Albert Brown Dr in Del,Valle,TX,
21383,12405 Twin Creek in,Travis,TX,
57146,1307 Zachary'S Way in,Austin,TX,
87212,5Th St And Johanna St in,Austin,TX,
125678,407 Blue Berry in,Austin,TX,
133833,8405 Old Bee Cave Rd in,Austin,TX,
8929,5002 Blue Spruce in,Austin,TX,
62375,132 Karen Hill Dr. in,Austin,TX,
136889,4424 S Mopac Expwy in,Austin,TX,
106248,5409 Ponciana in,Austin,TX,
123300,"2212, 78744 in",Austin,TX,
67667,1820 Wooten Park Dr in,Austin,TX,
32108,900 Bodgers Dr in,Austin,TX,
66556,507 Mairo St in,Austin,TX,
83682,500 Bastrop Hwy in,Austin,TX,
104973,5620 Pinon Vista in,Austin,TX,
36801,21473 Coyote Trl in Lago,Vista,TX,
45489,14Th St And Alexander in,Austin,TX,
9610,6201 E 290 in,Austin,TX,
54736,2403 Bryan St in,Austin,TX,
23311,360 And 183 in,Austin,TX,
51945,2731 Webberville Rd in,Austin,TX,
64159,7414 Johnny Morris in,Austin,TX,
45049,14800 Eilers Rd in,Austin,TX,
92908,23107 Fulkes Ln. in,Austin,TX,
105273,302 Broadway St. in,Austin,TX,
122784,12119 Tanglebriar Trl in,Austin,TX,
79250,51St And Cameron in,Austin,TX,
54507,9506 Springdale Rd in,Austin,TX,
136118,1114 Terry Dr in,Austin,TX,
73283,9209 Quail Cv in,Austin,TX,
110665,6001 Cougar Dr in,Austin,TX,
137421,2506 Manor Rd in,Austin,TX,
76436,4106 N Lamar in,Austin,TX,
124330,1601 E Slaughter Ln in,Travis,TX,
89195,10303 Georgian Dr in,Austin,TX,
89095,4400 Franklin Park in,Travis,TX,
142972,71 And Bee Caves in,Austin,TX,
93848,14100 Thermal Dr in,Austin,TX,
48342,9611 Decker Lake Rd in,Travis,TX,
102629,9100 Meadow Green in,Austin,TX,
140545,13704 Cambourne Dr in,Pflugerville,TX,
99272,9617 Great Hills Trl in,Austin,TX,
59649,9220 Ovalla Dr in,Austin,TX,
45462,14314 Commins Way in,Manor,TX,
5029,2600 Mallard Green Cove in,Austin,TX,
16901,1902 Alguno Rd in,Austin,TX,
45782,12401 Pauls Valley Rd in,Austin,TX,
121673,14850 Harris Ridge Blvd in,Austin,TX,
73972,15005 Nuttall Dr in,Austin,TX,
4661,2815 E 71 in,Austin,TX,
78326,12924 Ceder St in,Manor,TX,
125841,124 West Anderson in,Austin,TX,
35651,11410 Jim Thorte in,Austin,TX,
12926,10Th /Rio Grande in,Austin,TX,
111118,1804 Madagorda in,Austin,TX,
7295,183/Fm 812 in,Austin,TX,
109774,1515 Fairfield in,Austin,TX,
45377,1801 Citation Dr in Del,Valle,TX,
114903,10707 Lake Creek Parkway in,Austin,TX,
54494,15005 Nuttall in,Austin,TX,
98141,71 And 183 in,Austin,TX,
75088,16100 N Ih 35 & Greenlawn Blvd in,Travis,TX,
117479,3500 Pecan Springs Rd in,Austin,TX,
31633,4813 Copperbend Blvd in,Austin,TX,
117102,24Th And San Gabriel in,Austin,TX,
51674,9701 Brown Ln in,Austin,TX,
111245,10714 San Jose Ave Lot R in,Austin,TX,
111990,11916 Thompkins Dr in,Austin,TX,
141250,14401 Kodiak Ln in,Pflugerville,TX,
92770,6257 Manor Rd in,Austin,TX,
42123,6417 Tara Dr in,Austin,TX,
113453,3602 Stoneridge Rd in,Austin,TX,
12004,900 Cumberland #B in,Austin,TX,
36066,1443 Coronado Hills in,Austin,TX,
51641,16001 Parkway Dr in,Pflugerville,TX,
109743,1817 E Oltorf Dr in,Austin,TX,
130426,7109 Fred Morse Dr in,Austin,TX,
22222,9814 Rodriguez Rd in,Austin,TX,
28179,4300 Mt Vernon Dr in,Austin,TX,
45394,10000 N Lamar in,Austin,TX,
13038,10420 812 in Del,Valle,TX,
75825,45Th And Red River in,Austin,TX,
30624,14000 Harris Ridge Blvd in,Pflugerville,TX,
96329,2012 Jones Rd A in,Austin,TX,
100679,9016 Yucca Mountain Rd in,Austin,TX,
113371,1400 Theodora Cv in,Austin,TX,
124543,4106 N. Lamar in,Austin,TX,
107486,1600 Bluewood Ln in,Austin,TX,
131361,8103 Nottaway Cv in,Austin,TX,
54100,6712 Canal St in,Austin,TX,
125328,6112 Caddie in,Austin,TX,
44170,6504 S 1St St Unit 103 in,Austin,TX,
1217,6808 Felipe Dr in,Austin,TX,
105888,4509 E St. Elmo Rd in,Austin,TX,
84836,6903 Hewers Dr in,Austin,TX,
55417,1317 Successor Rd in,Travis,TX,
25649,1310 Byers in,Austin,TX,
49646,115 Sandra Muraida Way in,Austin,TX,
112119,14703 Debra Dr in,Austin,TX,
72756,421 Thompson #2 in,Austin,TX,
115084,7402 Crystalbrook in,Austin,TX,
110946,7402 Crystalbrook Drive in,Austin,TX,
104343,10703 San Jose in Del,Valle,TX,
70695,7200 Duval St. in,Austin,TX,
66879,901 W 9Th St in,Austin,TX,
69624,1306 March Dr in,Austin,TX,
83548,8702 Canoga Ave in,Austin,TX,
87297,14703 Menifee St in,Austin,TX,
113183,7100 Johnny Morris in,Austin,TX,
54774,923 Bodark in,Austin,TX,
140412,1101 East Slaughter in,Austin,TX,
20524,1719 Willow Creek Dr in,Austin,TX,
45911,6202 Thurgood Ave in,Austin,TX,
74044,3010 Guerrero in,Travis,TX,
134314,11613 Morning View in,Travis,TX,
52624,183 & Jamestown in,Austin,TX,
64576,12117 Manchaca Rd. in,Austin,TX,
78859,107 Mist Flower Dr in,Pflugerville,TX,
28554,13207 Wright Road in,Austin,TX,
33987,9707 Teasdale Terrace in,Austin,TX,
47755,1608 Red Fox Rd. in,Austin,TX,
53636,11349 Church Canyon Dr. in,Austin,TX,
37371,17328 Golden Valley in,Travis,TX,
92389,7204 Carver in,Travis,TX,
77746,1712 East 11Th St in,Austin,TX,
9648,111 Old Bastrop Hwy in,Austin,TX,
45207,3901 Doctor Scott Lane in Del,Valle,TX,
136895,7227 E Hwy 290 in,Austin,TX,
86749,3663 Bee Caves Rd in,Austin,TX,
67084,7622 State Highway 71 W in,Austin,TX,
124562,1138 Northwestern in,Austin,TX,
76167,3611 South Pace Bend Road in,Travis,TX,
86091,2206-4 Riverside Farms Rd in,Austin,TX,
41120,12440 Alameda Trace Cir in,Austin,TX,
28136,21500 Ann Showers Dr in,Travis,TX,
35103,5720 Manchaca in,Austin,TX,
56588,7612 Marl in,Austin,TX,
76880,509 E Todd Lane in,Austin,TX,
32348,1904 B Garden St in,Austin,TX,
121135,14100 Thermal Driver in,Austin,TX,
134270,6700 Block South Ih30 in,Travis,TX,
77420,914 Taulbee Lane in,Austin,TX,
136478,8524 Burnet Rd in,Austin,TX,
26594,4204 Sojourner in,Austin,TX,
29155,711 Park Blvd in,Austin,TX,
43880,9218 Balcones Club Dr in,Austin,TX,
64534,4509 E St Elmo Rd in,Austin,TX,
92003,685 Pecan in,Pflugerville,TX,
109263,8507 Bluff Springs in,Austin,TX,
88036,1801 Fort View in,Austin,TX,
53997,183 And Burnet in,Austin,TX,
58470,13203 Von Quintus Rd in,Austin,TX,
78138,12612 N Lamar Blvd in,Austin,TX,
116419,3Rd And Pleasant Valley in,Austin,TX,
36981,11805 Garden Grove Dr in,Austin,TX,
109012,5703 Oakclaire Dr in,Austin,TX,
106065,7000 Convict Hill Rd in,Austin,TX,
111330,2212 Turtle Mountian Bend in,Austin,TX,
117874,51St And Springdale in,Austin,TX,
139071,3012 Cohoba in,Austin,TX,
15368,6106 Calmar Cove in,Austin,TX,
43426,5604 Beachmont Ct in,Austin,TX,
106289,3807 Mc Neil Drive in,Austin,TX,
107560,13405 Little Gull Dr in,Austin,TX,
21236,7500 Shadowridge Run in,Austin,TX,
100466,9612 Carson Creek in,Austin,TX,
126295,525 Shant St in,Austin,TX,
127296,9110 Us Hwy 183 South in,Austin,TX,
59797,1300 Matthews Ln in,Austin,TX,
141551,405 W Parsons in,Manor,TX,
106166,1230 38Th 1/2 in,Austin,TX,
54520,8400 Jamestown Dr in,Austin,TX,
126162,183 And Purple Sage in,Austin,TX,
76251,1704 Nelms Dr in,Austin,TX,
64922,8704 Ingrid Dr in,Travis,TX,
58903,1113 Banister Ln in,Austin,TX,
123976,1123 Don Ann St in,Austin,TX,
6602,4Th St And Navasota in,Austin,TX,
24170,11904 Plains Valley in,Austin,TX,
49018,500 N Imperial Dr in,Austin,TX,
47860,4600 Candletree in,Austin,TX,
101983,7304 Blessing Ave in,Austin,TX,
110849,2206 Riverside Farms Rd in,Austin,TX,
56225,4216 S Congress Ave in,Austin,TX,
125544,2401 S Lakeshore Blvd in,Austin,TX,
2915,2000 Centimeter Dr in,Austin,TX,
57439,614 E. St. Johns in,Austin,TX,
4811,8800 Milton Lease Dr in,Austin,TX,
70079,4404 Imperial in,Travis,TX,
59024,3006 Castro St in,Austin,TX,
103609,7101 W. 71 Oak Hill Vet Clinic in,Austin,TX,
74067,5106 Village Square in,Austin,TX,
10214,6201 Sneed Cove in,Austin,TX,
108949,1705 Frontier Valley 8208 in,Austin,TX,
70428,2321 E Cesar Chavez St in,Austin,TX,
17877,7200 Barnsdale Way in,Austin,TX,
42824,3711 Caldwell Ln in,Travis,TX,
72084,8220 West Highway 71 Lot 279A in,Austin,TX,
140216,911 Capitol Court in,Austin,TX,
103898,4807 Airport Blvd in,Austin,TX,
114197,6001 Perlita Dr in,Austin,TX,
26638,8600 Brodie Ln in,Austin,TX,
2426,614 S 1St St in,Austin,TX,
78213,8204 Colony Loop in,Austin,TX,
55713,2621 Ridgepoint Dr in,Austin,TX,
106974,3351 Killingsworth Ln in,Pflugerville,TX,
138733,7007 Brook Valley Circle in,Austin,TX,
87782,2308 E Stassney Ln in,Austin,TX,
131981,1100 Mearns Meadow in,Austin,TX,
33281,9003 Wellesley in,Austin,TX,
46113,14516 Spearmint Tea Trl in,Pflugerville,TX,
87445,6201 Sneed Cv in,Austin,TX,
112833,7000 Areis Ln in,Austin,TX,
126855,6407 Springdale in,Austin,TX,
77586,7112 Ed Bluestein Blvd in,Austin,TX,
73939,911 Capitol Ct in,Austin,TX,
19019,5200 Woodland Oaks Ct in,Austin,TX,
96415,2308 Dove Springs in,Austin,TX,
135894,4604 Magin Myrtle in,Austin,TX,
133234,8106 Brodie in,Austin,TX,
12177,8457 Sassman in,Travis,TX,
27952,8224 Research Blvd #244 in,Austin,TX,
31292,615 W. Slaughter in,Austin,TX,
42251,134 Edgerock Dr in,Austin,TX,
83492,290/ Cameron Rd in,Austin,TX,
58573,6212 Boxcar Run in,Austin,TX,
73089,12331 N Mopac in,Austin,TX,
67932,5305 Bolm Road #1 in,Austin,TX,
38028,7806 W Rodgers Ln in,Austin,TX,
22707,14000 Renaissance Ct. #2044 in,Travis,TX,
71053,6141 Turnersville Rd in,Creedmoor,TX,
83558,1881 Grove Blvd. in,Austin,TX,
109909,3225 Bitter Creek in,Austin,TX,
28727,6405 Hergotz in,Austin,TX,
730,12001 Metric Blvd in,Austin,TX,
102220,5502 Rose Hill Cir in,Austin,TX,
7952,6707 Colony Park Cove in,Austin,TX,
125033,5508 Ferret Path in,Austin,TX,
17184,168 Green Mountain Drive in,Travis,TX,
55361,720 Airport #15 in,Austin,TX,
120724,13207 N183 in,Austin,TX,
64219,4800 Scarsdale in,Austin,TX,
140607,1806 W Rundberg Ln in,Austin,TX,
3417,2712 Zaragosa St in,Austin,TX,
22011,8868 Research Blvd in,Austin,TX,
130902,10118 Diamond Back in,Travis,TX,
104056,900 Broken Feather Trl in,Pflugerville,TX,
81577,7500 Blessing Avenue in,Austin,TX,
71502,14205 Willow Tank in,Austin,TX,
30809,5312 Northdale in,Austin,TX,
61262,9805 Parkfield Dr in,Austin,TX,
94707,2416 Vintage Stave Road in,Austin,TX,
9015,12916 James Madison St in,Manor,TX,
1132,4708 Marblehead in,Austin,TX,
102078,1815 Burton Dr in,Austin,TX,
140051,14508 Harris Ridge Blvd in,Austin,TX,
103111,2850 Hwy 71 West in,Travis,TX,
63815,11912 Snow Goose Rd in,Austin,TX,
133599,300 Sheraton Ave in,Austin,TX,
125504,8925 Frock Ct in,Austin,TX,
87928,8800 Barrow Glen Loop in,Austin,TX,
80278,2103 Deerrun in,Austin,TX,
88213,4521 Westgate Blvd in,Austin,TX,
69043,6508 Alum Rock Cv in,Austin,TX,
106691,8802 Unice Dr in,Travis,TX,
74675,509 W St John Ave in,Austin,TX,
71223,1005 N Meadowa in,Austin,TX,
73984,1205 Cullen Ave in,Austin,TX,
138247,8225 N. 620 in,Travis,TX,
71092,12105 Lavinia in,Austin,TX,
13338,6109 Randleman in Del,Valle,TX,
105806,183 And Ih35 in,Austin,TX,
117544,2320 Woodward Ave in,Austin,TX,
29125,2816 Run Of The Oaks Dr in,Austin,TX,
123169,10005 Derringer Trl in,Austin,TX,
106553,1517 Geoffs Dr in,Austin,TX,
134703,232 11 Windy Valley Rd in,Travis,TX,
137352,23211 Windy Valley Rd in,Travis,TX,
101432,11501 Burnet Rd in,Austin,TX,
96177,400 Cooper Dr in,Austin,TX,
43244,12707 Lamp Light Village Ave in,Austin,TX,
127467,11530 Manchaca Rd in,Austin,TX,
100407,", Apt 206 in",Austin,TX,
81865,23500 Windy Valley in,Leander,TX,
68823,211 E. 7Th St. in,Austin,TX,
135390,17009 Hamilton Point Cir in,Travis,TX,
25662,308 E. Garret Run in,Austin,TX,
119537,8903 Split Oak Cir in,Austin,TX,
100501,610 Ladin Ln in,Lakeway,TX,
60751,2501 Wickersham Dr in,Austin,TX,
25854,14000 Robert I Walker Blvd in,Travis,TX,
12485,46Th And Red River in,Austin,TX,
1888,2400 Wickersham in,Austin,TX,
117850,3500 Werner in,Austin,TX,
65285,201 Cloudview in,Austin,TX,
115421,2000 Cullen Ave in,Austin,TX,
62547,8218 Palace Pkwy in,Austin,TX,
80159,1805 Mearns Meadows #A in,Austin,TX,
23752,2905 Ticonderoga Cv in Lago,Vista,TX,
8275,7Th And Pleasant Valley in,Austin,TX,
126083,6902 Deborah Dr in,Austin,TX,
86127,11629 Manchaca Road in,Austin,TX,
102400,1203 York Castle Drive in,Pflugerville,TX,
33251,2404 Willow in,Austin,TX,
29197,8312 Linden in Del,Valle,TX,
113255,400 Bulian in,Austin,TX,
60129,2300 Rosewood Ave in,Austin,TX,
85758,6000 Cele Rd in,Austin,TX,
70919,8603 Thaxton Road in,Austin,TX,
98132,"6808, Austin Tx in",Austin,TX,
38449,1138 Poquito St in,Austin,TX,
124125,6806 Wentworth #B in,Austin,TX,
66228,2121 Dickson Dr in,Austin,TX,
22793,40Th And Duval in,Austin,TX,
12886,3Rd St & Comal St in,Austin,TX,
134659,1203 Springdale Ave in,Austin,TX,
44549,4407 Norwood in,Austin,TX,
48773,5610 N Lamar Blvd in,Austin,TX,
82177,3106 Pleasant Valley Rd in,Austin,TX,
16927,18228 Flat Head Dr in,Manor,TX,
34102,4800 Aberdeen in,Austin,TX,
31158,5240 Mathra in Del,Valle,TX,
28495,508 Springdale Rd in,Austin,TX,
3956,5300 Pecan Brook in,Austin,TX,
74676,11309 Doyle Overton in Del,Valle,TX,
107748,7201 Levander Street in,Austin,TX,
106855,205 W Applegate Dr in,Austin,TX,
4274,12825 James Madison St in,Travis,TX,
90232,2433 Rutland Dr in,Austin,TX,
120392,705 W Crestland in,Austin,TX,
76653,1111 Willow St in,Austin,TX,
50597,14514 Rumfeldt St in,Austin,TX,
1223,9920 Quail Blvd in,Austin,TX,
128261,5511 Blue Bluff Rd in,Austin,TX,
86216,7Th St And Morelos in,Austin,TX,
20629,2601 Scofield Farms in,Austin,TX,
124814,1007 E Rundberg in,Austin,TX,
119760,1881 Grove Blvd in,Austin,TX,
78812,1001 Mansell Ave in,Austin,TX,
40061,700 Gibson St in,Austin,TX,
138239,6207 Richardson in,Austin,TX,
1854,7706 Elroy Rd in,Travis,TX,
87368,5100 Delta Post in,Travis,TX,
8532,9314 W 71 in,Austin,TX,
135431,7105 Harrington in,Austin,TX,
111649,5414 Bolm Rd in,Austin,TX,
53553,3707 Manchaca in,Austin,TX,
120352,18411 Georgetown Dr. in,Austin,TX,
44480,611 W. 37Th St. #2 in,Austin,TX,
79108,3700 Bannockburn Dr in,Austin,TX,
21412,11351 Bradshaw Rd in,Austin,TX,
23997,20400 Quiet Oaks Ln in,Travis,TX,
26563,5310 Medford Dr in,Austin,TX,
73623,11309 Doyle Overton Rd in Del,Valle,TX,
30013,3305 Susquehanna Ln in,Austin,TX,
88035,1930 W Rundberg in,Austin,TX,
51192,101 E Fawnridge Dr in,Austin,TX,
28282,183 And Duval in,Austin,TX,
108838,4808 Creek Bend Dr in,Austin,TX,
101908,3300 Killingsworth in,Pflugerville,TX,
71151,16105 Fitchbur Cir in,Pflugerville,TX,
111255,7500 S Pleasant Valley in,Austin,TX,
124635,7706+ Elroy Rd in,Travis,TX,
121300,4041 South Congress in,Austin,TX,
80652,1840 Crestwind Cove in,Travis,TX,
104109,1221 South Congress in,Austin,TX,
72710,4405 Dovewood Drive in,Austin,TX,
132595,1505 Man O War in,Travis,TX,
101935,4200 Glomar Ave in,Austin,TX,
21682,189 Jacobson Rd in Del,Valle,TX,
20130,911 Pyegrave in,Austin,TX,
78382,4494 Frontier Trl in,Austin,TX,
21114,7418 Cameron Rd in,Austin,TX,
29192,1211 E Oltorf in,Austin,TX,
71474,1182 N Pleasant Valley Rd in,Austin,TX,
59863,421 Thompson Ln in,Austin,TX,
137436,5109 Regency Dr in,Austin,TX,
126043,12225 U.S. 290 in,Travis,TX,
132544,7Th And Gunter in,Austin,TX,
40131,6802 Viewing Pl in,Austin,TX,
128955,6716 Starcrest Ln. in,Travis,TX,
18010,810 E. Slaughter Lane in,Austin,TX,
59318,12800 Center Lake Dr in,Austin,TX,
29765,1311 Rocky Creek in,Pflugerville,TX,
38768,7331 Ritchie in,Austin,TX,
87946,4500 Oltorf in,Austin,TX,
100584,6800 Mcneil in,Austin,TX,
10437,10613 Carovilli in,Austin,TX,
41336,7Th St And Pleasant Valley in,Austin,TX,
80943,900 Neans Dr in,Austin,TX,
104564,4900 Mueller Blvd in,Austin,TX,
11219,5009 Good Wood Dr #B in,Austin,TX,
58619,6207 Wier Hills Rd in,Austin,TX,
60744,1143 Airport Blvd in,Austin,TX,
127834,51St And Westminster in,Austin,TX,
85674,7309 Onion Crossing Dr in,Austin,TX,
53358,7901 Espanola Trl in,Austin,TX,
98546,2201 Plainfield Ct in,Pflugerville,TX,
94325,7704 Wild Onion Drive in,Austin,TX,
75097,1803 Fast Filly Ave in,Pflugerville,TX,
95101,2204 Palo Pinto Drive in,Austin,TX,
93161,7103 Barnsdale Way in,Austin,TX,
66350,3006 Royster in,Austin,TX,
1224,7100 N 35 in,Austin,TX,
17795,5616 Emerald Forest in,Austin,TX,
105718,6805 Wentworth in,Austin,TX,
28854,401 Congress in,Austin,TX,
140668,2501 E. Riverside in,Austin,TX,
142191,16001 Cameron Road in,Travis,TX,
4171,5902 Tracy Lynn Ln in,Austin,TX,
58105,2317 S Pleasant Valley Rd in,Austin,TX,
92339,6016 Ponca St in,Austin,TX,
20643,6911 North Ih 35 in,Austin,TX,
138408,923 Walter St in,Austin,TX,
79167,13501 Abrahamson St in,Manor,TX,
37007,4608 Acers Ln in,Austin,TX,
71203,4609 Whirlaway in,Travis,TX,
56687,11700 Metric Blvd in,Austin,TX,
95905,9510 Brown Lane in,Austin,TX,
112538,21962 Ann Showers in,Travis,TX,
82090,600 Beaver St in,Austin,TX,
91743,12151 N Ih 35 in,Austin,TX,
18051,900 Garden Villa Ct in,Austin,TX,
13189,7301 Lake Charles in,Austin,TX,
80351,804 Riddlewood Dr in,Austin,TX,
33175,8805 N Plaza in,Austin,TX,
62416,5001 E Ben White Blvd in,Austin,TX,
113840,6710 Canal St in,Austin,TX,
6947,2911 E 16Th St in,Austin,TX,
34545,1723 Bunche Rd in,Austin,TX,
82940,5812 Zachary Scott in,Austin,TX,
48541,2501 Wickersham Ln in,Austin,TX,
49151,8405 Old Be Caves in,Austin,TX,
107588,837 Latteridge Dr in,Austin,TX,
56815,1106 Somerset Ave in,Austin,TX,
121432,2920 Signal Point Dr in,Austin,TX,
61204,10307 Brownie in,Austin,TX,
129404,8220 Research Blvd in,Austin,TX,
46104,2307 Ventura in,Austin,TX,
39510,2901 Wickham Ln in,Travis,TX,
25176,18213 Gallant St in,Travis,TX,
86882,21906 Silvia Dr in,Travis,TX,
11121,7610 Cameron Rd. in,Austin,TX,
70608,6807 Duquesne Dr in,Austin,TX,
43834,1137 Brookswood in,Austin,TX,
63925,183 & Fm 812 in,Austin,TX,
91697,6412 Middleham Pl in,Austin,TX,
8272,1600 Ih 35 in,Austin,TX,
74059,3201 Duval Rd in,Austin,TX,
130101,711 Caribou Ridge Trl in,Pflugerville,TX,
75726,11500 Musket Rim St in,Austin,TX,
26353,10709 Lafayette Park Dr. in,Jonestown,TX,
114098,2913 Todd Lane in,Austin,TX,
120462,7000 Decker Ln in,Travis,TX,
17248,7319 Geneva Dr in,Austin,TX,
124570,506 Provine in,Austin,TX,
37963,3816 S Lamar Blvd in,Austin,TX,
100811,20604 Delorio St in,Travis,TX,
118340,1624 E 4Th St in,Austin,TX,
138974,4529 Hwy 71 in,Austin,TX,
6550,1215 W Mary St in,Austin,TX,
1147,9200 N. Plaza in,Austin,TX,
32939,21 Waller in,Austin,TX,
105600,4 Iron Dr And Lemens Spice Trl in,Austin,TX,
87370,6710 Canal St in,Austin,TX,
79555,9700 E Riverside Dr in,Austin,TX,
119772,4934 Mancherster in,Austin,TX,
6282,3614 Bill Price Rd in Del,Valle,TX,
60035,3300 Parker Lane in,Austin,TX,
94812,4200 Clawson Rd in,Austin,TX,
65109,13216 Bois D-Arc Ln in,Manor,TX,
127075,5010 Good Wood Dr. in,Austin,TX,
30285,183 And 290 in,Austin,TX,
68598,2400 Wagon Crossing Path in,Austin,TX,
68999,11503 March Dr in,Austin,TX,
36432,"209 E Ben, 106 in",Austin,TX,
50690,4700 Button Bend in,Austin,TX,
108832,3402 Scott Dr in,Austin,TX,
93737,12707 N Mopac Express Way in,Austin,TX,
108674,4737 Castleman in,Austin,TX,
66767,7607 Glen Hill Cove in,Austin,TX,
141802,300 E. Huntland in,Austin,TX,
103662,3603 Southridge Dr in,Austin,TX,
37284,12555 Harris Branch Pkwy in,Manor,TX,
105008,5102 Creek Bend Dr in,Austin,TX,
108987,800 Springdale in,Austin,TX,
93750,7600 Blessing Ave in,Austin,TX,
88590,1901 Prairie Knoll in,Austin,TX,
128650,3306 Hyclimb Circle in,Austin,TX,
40317,7Th & 35 in,Austin,TX,
141222,10010 Anderson Mill Rd in,Austin,TX,
12586,8220 Research Blvd #275 in,Austin,TX,
81867,904 Fieldwood Dr#B in,Austin,TX,
80559,904 Fieldwood Dr#A in,Austin,TX,
15959,4913 Freidrich in,Austin,TX,
139140,900 Blackson in,Austin,TX,
57993,500 Ralph Albado in,Austin,TX,
87581,11389 Maha Loop in,Austin,TX,
81666,1101 Miss Kimberley'S Ln in,Pflugerville,TX,
65765,12110 Lavinia in,Austin,TX,
63166,12Th in,Austin,TX,
32981,14400 Immnauel Rd in,Pflugerville,TX,
103373,1705 Frontier Valley in,Austin,TX,
104643,15623 Fagerguist in,Travis,TX,
77122,4020 Lost Oasis Hollow in,Travis,TX,
136498,3611 Pace Bend Rd S in,Austin,TX,
76228,12Th And Springdale in,Austin,TX,
134567,8000 Daffan Lane in,Austin,TX,
66022,1708 O'Callahan Dr in,Austin,TX,
92020,6512 Bradley Dr in,Austin,TX,
117368,9400 Blocker Lane in Del,Valle,TX,
62623,11441 North Ih 35 in,Austin,TX,
31505,1220 W Anderson in,Austin,TX,
24065,6413 Manor Rd in,Austin,TX,
92322,1213 Lily Terrace in,Austin,TX,
100668,10801 Old Manchaca Rd in,Austin,TX,
139926,5311 Avenue F in,Austin,TX,
25946,7204 Carver Ave in,Austin,TX,
9286,1900 South First in,Austin,TX,
100735,6003 Bull Creek Rd in,Austin,TX,
126286,1704 Camino Viejo in,Austin,TX,
127517,5601 Trace Creek Pass in,Austin,TX,
31545,5700 Cameron Rd in,Austin,TX,
5580,12703 Burson Dr in,Austin,TX,
39399,8500 Mauai in,Austin,TX,
39071,5804 Teri in,Austin,TX,
120663,8001 Lee Hill Dr in,Austin,TX,
15815,738 Perdernales St in,Austin,TX,
118267,2941 Moss St in,Austin,TX,
77930,4911 Manchaca Rd in,Austin,TX,
91472,2605 Lindsey Cv in,Austin,TX,
118095,8988 El Roy Rd in Del,Valle,TX,
69969,9210 Northgate Blvd in,Austin,TX,
130620,2101 Ranch Road 620 N in,Lakeway,TX,
57148,2601 S 5Th St in,Austin,TX,
89587,5401 Fairmont Cir in,Austin,TX,
42457,1013 Milford Way in,Austin,TX,
47499,2402 Rio Grande in,Austin,TX,
102052,8806 Redfield Dr. in,Austin,TX,
62271,8001 Gessner in,Austin,TX,
85933,7759 Johnny Morris Rd in,Austin,TX,
85209,1000 Lott Ave in,Austin,TX,
92764,5405 Prock Ln in,Austin,TX,
35393,8920 Quick Stream Dr in,Austin,TX,
59665,45Th And Guadalupe in,Austin,TX,
59498,4550 Mueller Blvd. in,Austin,TX,
132352,5207 Copperbend Blvd in,Austin,TX,
102983,2601 Hoeke Lane in,Austin,TX,
75401,9201 Circuit Of The Americas Blvd in,Austin,TX,
797,7610 Cameron Rd in,Austin,TX,
91043,10802 San Jose Ave in Del,Valle,TX,
111496,6000 S Congress Ave in,Austin,TX,
134626,53Rd Street in,Austin,TX,
127404,9708 Rodriguez Rd in,Austin,TX,
123165,2710 Wilson Street in,Austin,TX,
112075,4106 N. Lamar Blvd. in,Austin,TX,
57813,3201 Holton in,Austin,TX,
20462,8300 Colony Loop in,Austin,TX,
75766,5409 China Berry Rd. in,Austin,TX,
99911,8800 N. Ih 35 in,Austin,TX,
137703,3601 Sand Dunes in,Austin,TX,
70859,4701 N Ih35 in,Austin,TX,
2889,2108 East 17Th St in,Austin,TX,
60934,8401 Colony Loop Dr in,Austin,TX,
77214,4509 E. St. Elmo in,Austin,TX,
131916,1206 Hackberry in,Austin,TX,
29408,1201 Barbara Jordan in,Austin,TX,
142964,9200 N Plaza in,Austin,TX,
67505,5717 Welsh Way in Del,Valle,TX,
7601,14611 Gold Fish Pond Ave in,Austin,TX,
38929,3721 Hwy 620 in,Austin,TX,
25411,17006 Hayride Cir in Del,Valle,TX,
93920,2301 South Mopac in,Austin,TX,
10092,9329 Northgate Bld in,Austin,TX,
92179,13838 The Lakes Boulevard in,Pflugerville,TX,
6746,760 Airport Blvd in,Austin,TX,
137849,3202 Stardust Dr in,Austin,TX,
115525,1127 Saucedo St in,Austin,TX,
75994,183 in,Austin,TX,
66336,1305 W. 1626 in,Austin,TX,
112876,9807 620 in,Austin,TX,
87768,7000 Brook Valley Circle in,Austin,TX,
109205,11713 Jemmer in,Travis,TX,
98740,11417 Trails End in,Travis,TX,
18287,2409 Wood Chase Trl in,Travis,TX,
113947,3427 Parker Ln in,Austin,TX,
89599,1300 Canterbury in,Austin,TX,
107584,900 Talbee Ln in,Austin,TX,
23363,12319 Yarmont Way in,Austin,TX,
90420,5424 W Us Highway 290 Service Rd #200 in,Austin,TX,
118322,6Th St And Ih 35 in,Austin,TX,
7932,7906 Hayride in,Travis,TX,
82445,15315 Oklahoma in,Austin,TX,
28744,1100 Morrow in,Austin,TX,
92250,19967 Blake Manor Rd in,Austin,TX,
104400,12407 North Mopac Expressway in,Austin,TX,
84945,2502 Citation in,Austin,TX,
41209,8100 Lerwick Ln in Round,Rock,TX,
65929,7Th And Comal in,Austin,TX,
9296,9800 Teasdale in,Austin,TX,
10638,6400 Kennelworth Dr in,Austin,TX,
91592,1401 E Rundberg in,Austin,TX,
4454,2200 Lakehurst Dr. in,Travis,TX,
40344,21205 W. 71 in,Travis,TX,
142017,7412 Pusch Ridge Loop in,Austin,TX,
16125,360 in,Austin,TX,
1232,7Th/Pleasant Valley in,Austin,TX,
9797,2600 Block Of Jones in,Austin,TX,
25696,12138 North Lamar Blvd in,Austin,TX,
40370,10558 Bilbrook Pl in,Austin,TX,
22031,411 Bastrop Hwy in,Austin,TX,
141264,12101 Grey Fawn Path in,Austin,TX,
61201,4915 Yagar Ln in,Austin,TX,
113191,100 North Lamar Blvd in,Austin,TX,
19804,809 North Weston Lane in,Austin,TX,
106999,5905 Pecanwood in,Austin,TX,
1852,59 North Dunlap Road in,Austin,TX,
37773,7301 Buttonbush Dr in,Austin,TX,
10297,7816 Paces Mill Ln in,Austin,TX,
28700,1301 Chestnut Ave in,Austin,TX,
103315,5908 Belfast Dr in,Austin,TX,
36872,18748 Imperial Eagle Ln in,Travis,TX,
76607,7117 Wood Hollow Dr in,Austin,TX,
49961,8220 W in,Travis,TX,
16166,2507 Willow St in,Austin,TX,
22625,3801 Speedway in,Austin,TX,
128689,8140 Exchange Dr in,Austin,TX,
122435,9411 Rowlands Sayle Rd in,Austin,TX,
14664,8212 Sassman in,Austin,TX,
27246,6636 W William Cannon Dr in,Austin,TX,
14186,710 East Ben White Blvd in,Austin,TX,
117738,1071 Clayton Ln in,Austin,TX,
39834,10700 Newmont in,Austin,TX,
85721,2000 Old Bee Caves Rd in,Austin,TX,
32163,2203 Singletree Ave in,Austin,TX,
120990,9300 S I 35 in,Austin,TX,
131808,5309 Cannon Mt Dr in,Austin,TX,
44514,715 E 8Th St in,Austin,TX,
135797,8000 Westgate in,Austin,TX,
23671,1300 Crossing Pl in,Austin,TX,
77118,4002 Stonecroft in,Austin,TX,
27176,5003 N Imperial Dr in,Austin,TX,
61131,900 E 51St St in,Austin,TX,
115233,9100 Us 290 in,Austin,TX,
109709,1700 Ledgewood Dr in,Austin,TX,
84506,3300 Hycreek Dr in,Austin,TX,
44496,6109 River Place in,Austin,TX,
30096,5008 Cape Verde Cv in,Austin,TX,
100692,6118 Fairway in,Austin,TX,
40841,1115 West 10Th Street in,Austin,TX,
39872,4900 Ledesma Rd in,Austin,TX,
99132,8437 Twiggy Ln in,Austin,TX,
53444,4115 South Congress Ave in,Austin,TX,
117725,8082 Thaxton Rd in,Austin,TX,
111004,5408 S Hearsey in,Austin,TX,
113186,900 Tudor House in,Travis,TX,
71097,2507 Parker Ln in,Austin,TX,
51248,2011 Blue Meadow in,Austin,TX,
97791,2400 Willow St in,Austin,TX,
64674,6902 Frontera Trl in,Austin,TX,
69926,5801 Ainez in,Austin,TX,
97871,2404 Willow St in,Austin,TX,
899,7007 Mount Carrell Dr in,Austin,TX,
11515,7309 Brookhollow Dr in,Austin,TX,
113000,1054 Springdale Rd in,Austin,TX,
24317,2932 Ellon Rd in Del,Valle,TX,
63289,5900 Cameron Rd in,Austin,TX,
48973,1500 Faro Dr in,Austin,TX,
57998,6803 Wentworth in,Austin,TX,
82824,6806 Thistle Hill Way in,Travis,TX,
39694,9909 Cheryl Lynn in,Travis,TX,
14061,10802 San Jose in Del,Valle,TX,
117283,2000 E Stassney in,Austin,TX,
54594,6201 Larch Ter in,Austin,TX,
3414,5501S Ih 35 in,Austin,TX,
73490,6802 Lucy Cv. in,Austin,TX,
76163,1130 Gunter in,Austin,TX,
119470,102 West Croslin in,Austin,TX,
6756,15200 Jacobson in,Travis,TX,
20698,13909 Gillum Creek Dr in,Travis,TX,
113605,2941 Moss Street in,Austin,TX,
1844,7515 Compass Dr in,Austin,TX,
6693,10714 San Jose Ave in,Travis,TX,
46650,7Th St. And Pedernales in,Austin,TX,
6309,9001 S I-35 in,Austin,TX,
124786,9300 Northgate Blvd in,Austin,TX,
29810,23080 Nameless Dr. in,Travis,TX,
116406,900 Vasquez St in,Austin,TX,
110049,601 Deer Ave in,Austin,TX,
66307,1137 Gunter in,Austin,TX,
106281,6200 Loyola Ln in,Austin,TX,
58324,2900 E. Cesar Chavez in,Austin,TX,
55263,3017 Lyons Rd in,Austin,TX,
45796,12151 N Interstate Highway 35 in,Austin,TX,
94480,3412 E 5Th St in,Austin,TX,
70501,5403 Darlington Ln in,Austin,TX,
49147,2002 Dexmoor Dr in,Austin,TX,
92087,1402 Cool Shadow Dr in Del,Valle,TX,
39093,15915 Jacobson Rd in,Austin,TX,
42554,12218 County Line Rd in,Travis,TX,
77778,1700 Bissel Ln in,Austin,TX,
52465,4907 Dry Oak Trl in,Austin,TX,
14839,3611 Pace Bend Rd South in,Travis,TX,
40185,12324 Laguardia Ln in,Austin,TX,
62341,6001 Shepherd Mt Cove in,Austin,TX,
27996,11700 Us Hwy 183 S in,Austin,TX,
40324,2015 Cheshire Dr in,Austin,TX,
4833,3201 Santee Dr in,Austin,TX,
109351,9624 Vista View in,Austin,TX,
105765,12118 Walnut Park in,Austin,TX,
45345,11804 North Oaks Dr in,Austin,TX,
105461,5505 Cordell Ln in,Austin,TX,
14612,4404 E Oltrof St in,Austin,TX,
50445,5910 Jfk Dr in,Austin,TX,
121570,17005 Hayride Cir in Del,Valle,TX,
131403,23211 Windy Valley in,Leander,TX,
47818,22900 Big Sandy Dr in,Leander,TX,
96014,1407 Suzi Lane in,Pflugerville,TX,
67606,12118 Walnut Park Crossing in,Austin,TX,
119719,6602 Cruz St in,Austin,TX,
27184,2317 Rockridge in,Austin,TX,
78218,609 Kawanee Dr in,Austin,TX,
129035,7810 Taza Trl in,Austin,TX,
130881,1147 Poquito in,Austin,TX,
73332,12007 Morrow Ln in,Travis,TX,
138717,5801 Signal Point in,Austin,TX,
55504,15008 Stave Oak in,Travis,TX,
31797,10015 Lake Creek Pkwy in,Austin,TX,
80791,5911 Johnny Morris in,Austin,TX,
62256,4200 Ih 35 in,Austin,TX,
57945,3800 Meandering Creek Cv in,Austin,TX,
74930,7403 E Riverside #18 in,Austin,TX,
85180,5703 Tura Ln in,Austin,TX,
85923,409 W O'Dell in,Austin,TX,
128007,7211 Northeast Dr in,Austin,TX,
74092,10512 Hymeadow in,Austin,TX,
41141,1805 Constantino Cir in,Austin,TX,
137770,2005 Oak Motte Ln in,Austin,TX,
139258,2005 Oak Motte Lane in,Austin,TX,
33619,8519 Cahill Dr in,Austin,TX,
69115,2302 William Cannon in,Austin,TX,
9041,9205 North Drive in,Austin,TX,
15394,11800 Prairie Hen in,Austin,TX,
6388,8309 North Ih35 in,Austin,TX,
74276,20100 Rancho Cielo Ct. in,Leander,TX,
114223,10902 Mcangus Rd in Del,Valle,TX,
125768,15005 Natural Springs in,Austin,TX,
56150,120 East Northloop in,Austin,TX,
73828,1127 Lott Avenue in,Austin,TX,
89527,4700 Staggerbrush in,Austin,TX,
102472,1603 Astro Pl in,Austin,TX,
114922,5000 Westwing Trail in,Austin,TX,
114514,4802 Ribbecke in,Austin,TX,
27593,207 E Longspur in,Austin,TX,
63460,6103 Manor #133 in,Austin,TX,
131941,9Th And Navasota in,Austin,TX,
112816,1801 Fortview in,Austin,TX,
90130,2616 Howell Wood Way in,Austin,TX,
9527,3913 Carbondale Ave in,Austin,TX,
43889,6008 Wagon Bend in,Austin,TX,
56398,12302 Deer Falls Dr in,Austin,TX,
68564,14982 Swiss Dr in,Travis,TX,
106480,2001 Faro in,Austin,TX,
72136,1910 Greenbrook in,Austin,TX,
64988,11740 Gemmer St in Del,Valle,TX,
20938,5102 Lambs Ln in,Austin,TX,
12756,4868 E Yager Lane in,Travis,TX,
110653,1006 E 7Th St in,Austin,TX,
65514,1143 D Berger in,Austin,TX,
31791,4501 Acers Lane in,Austin,TX,
49858,5605 Victory Gallup Dr. in,Travis,TX,
41660,201 Andrew Zilker Rd in,Austin,TX,
14457,12009 W Hwy 290 in,Austin,TX,
89990,515 Vargas Rd in,Austin,TX,
118991,2100 Wickersham Ln in,Austin,TX,
75403,20247 Blake Manor Rd in,Manor,TX,
114692,15301 Brenda St in,Austin,TX,
141887,38Th St And I 35 in,Austin,TX,
46274,1510 W St Johns in,Austin,TX,
87591,10804 Lambert Cir in,Austin,TX,
116487,183 & Duval in,Austin,TX,
11320,304 Park Ln in,Austin,TX,
124495,9700 Teasdal Ter in,Austin,TX,
93168,7234 Ellington in,Austin,TX,
94197,2402 Ventura in,Austin,TX,
34314,12301 Indian Mound in,Austin,TX,
17169,13005 Slaton Dr in,Austin,TX,
53014,1400 Estrellas Dr in Del,Valle,TX,
8655,3806 Towerview Ct in,Austin,TX,
38989,3603 Southridge Dr in,Austin,TX,
100871,14100 Joyce in,Leander,TX,
35368,601 Middle Dr. in,Austin,TX,
69978,2005 Willow Creek Dr in,Austin,TX,
56645,304 East 24Th St in,Austin,TX,
124497,8805 Leisure Dr in,Austin,TX,
96884,1101 Peggotty Pl in,Austin,TX,
89877,907 N Meadows Dr in,Austin,TX,
50261,3503 Susquehanna Ln in,Austin,TX,
138665,7307 E Riverside in,Austin,TX,
138888,7100 U.S. 290 in,Austin,TX,
64643,1701 Briarcliff in,Austin,TX,
123207,18709 Great Falls Dr in,Travis,TX,
58631,1515 Wickersham Ln in,Austin,TX,
58391,6245 Sandhof in,Austin,TX,
102524,6805 Bitteroot in,Austin,TX,
48149,6805 Bitterfoot in,Austin,TX,
89273,2309 Windswept Dr in,Austin,TX,
70553,6806 Thistle Hill Way in,Austin,TX,
105988,711 Eberhart Ln. in,Austin,TX,
45471,9725 North Lake Creek Parkway in,Austin,TX,
96398,7416 Williamson Creek Dr. in,Travis,TX,
85883,2103 Matthews Ln. in,Austin,TX,
60442,9849 Burklund Farms Rd in,Austin,TX,
120241,14912 Fagerquest in,Travis,TX,
137047,3519 River Rd. in,Austin,TX,
61007,4424 Brandt Rd. in,Travis,TX,
121112,3703 Mims Cove in,Austin,TX,
45773,7331 Gaines Mill Rd in,Austin,TX,
75501,1185 Pandora Street in,Austin,TX,
90582,1111 Lawson in,Austin,TX,
122208,4204 Sojourner St in,Austin,TX,
47973,4204 Sojourner Ln in,Austin,TX,
77594,3608 Oak Springs in,Austin,TX,
85592,8912 N.Lamar Blvd in,Austin,TX,
16688,9817 Circle Drive in,Austin,TX,
32763,10502 Ponder Lane in,Austin,TX,
32257,7700 Wild Onion Dr in,Austin,TX,
140864,4204 Sojourner St in,Austin,TX,
50432,183 And Cameron in,Austin,TX,
78519,3309 W. William Cannon in,Austin,TX,
9381,1000 E. 41St St. in,Austin,TX,
97455,5200 Fredrich in,Austin,TX,
74528,1505 Miss Allisons Way in,Pflugerville,TX,
46028,7009 Twin Crest Drive in,Austin,TX,
6659,8710 Burnet Rd in,Austin,TX,
49021,2150 Woodward in,Austin,TX,
18097,6200 Loyola in,Austin,TX,
141274,6202 Oleander Trl. in,Austin,TX,
141408,1600 Gaylord in,Pflugerville,TX,
100362,8100 S. 1St St. in,Austin,TX,
70072,1005 Brownie in,Austin,TX,
86234,183 And Montopolis in,Austin,TX,
3916,8105 Research Blvd #74 in,Austin,TX,
65986,5302 E 71 in,Austin,TX,
126926,0 E Martin Luther King Jr in,Austin,TX,
111431,700 W Riverside Dr in,Austin,TX,
45473,11304 N Ih 35 in,Austin,TX,
111469,5407 Nih35 in,Austin,TX,
4158,109 E St Johns in,Austin,TX,
87952,6600 Elm Creek in,Austin,TX,
109302,12201 Twin Creek Park Dr. in,Travis,TX,
74875,7600 Cognac Cv in,Austin,TX,
58861,5905 Eureka Dr in,Austin,TX,
8477,4802 Turnstone Dr in,Austin,TX,
100502,3500 Ross Rd in,Austin,TX,
133485,507 Kemp St in,Austin,TX,
17977,17809 Golden Valley Dr in,Manor,TX,
89167,11441 N Ih 35 in,Austin,TX,
117684,6001 Shephard Mountian Cv in,Austin,TX,
20673,2301 S Mopac Expy in,Austin,TX,
40002,800 Eberhart Ln in,Austin,TX,
18127,6603 Nih35 #223 in,Austin,TX,
54576,5621 N Ih 35 in,Austin,TX,
86392,2206 Prather Ln in,Austin,TX,
109076,1702 Ferguson Dr in,Austin,TX,
40097,8222 Research Blvd in,Austin,TX,
122445,13730 N 620 Rd in,Austin,TX,
83559,51St St And Cameron in,Austin,TX,
24584,906 E Leslie Cir in,Austin,TX,
33984,10800 Joseph Clayton Dr in,Austin,TX,
38269,6602 Cannon League Dr in,Austin,TX,
131770,1130 Titian Dr in,Austin,TX,
2414,2520 Bitter Creek Dr in,Austin,TX,
29635,38 1/2 And I 35 in,Austin,TX,
71368,9225 S. 183 in,Travis,TX,
143246,5106 Village Square Dr. in,Austin,TX,
133053,11401 Catalonia Dr in,Austin,TX,
135772,2002 Krizan Ave in,Austin,TX,
127458,11712 Argonne Forest Trl in,Austin,TX,
14629,6804 Spruce Glum Ln. in,Austin,TX,
119548,12Th And Airport Blvd in,Austin,TX,
35658,1915 Karen Ave in,Austin,TX,
83582,120500 E. 290 in,Travis,TX,
123175,10810 Topperwein in,Austin,TX,
91797,7117 Whifflewind Way in,Austin,TX,
42207,1300 Mckie in,Austin,TX,
13713,290 And Didmar in,Austin,TX,
43154,290 And Dudmar in,Austin,TX,
32012,3210 Kramer Lane in,Austin,TX,
120411,8402 Garcreek in,Austin,TX,
107665,9900 Childress in,Austin,TX,
39331,2908 Lantana Ridge Dr in,Travis,TX,
61941,3206 E 14Th 1/2 St in,Austin,TX,
92927,2800 Oak Crest Ave in,Austin,TX,
80821,4305 Airport Blvd in,Austin,TX,
59667,6711 Johnny Morris in,Austin,TX,
90040,621 Sweet Leaf Ln in,Pflugerville,TX,
24908,7100 Bluff Springs Rd #602 in,Austin,TX,
56036,537 Woodward St in,Austin,TX,
30428,7000 Brook Valley Cir in,Austin,TX,
139984,4915 Ledesma in,Austin,TX,
140862,17Th St And Congress Ave in,Austin,TX,
65302,2222 And Northland in,Austin,TX,
52049,5501 Peppertree in,Austin,TX,
131624,6202 Okner Ln in,Austin,TX,
9431,10608 Portrush Cr in,Austin,TX,
21274,4812 N Ih 35 in,Austin,TX,
124672,812 And 183 in,Travis,TX,
114269,9600 Carson Creek in Del,Valle,TX,
66441,2907 Caleb Dr in,Austin,TX,
122502,9220 Ih 35 in,Austin,TX,
62198,12900 Dessau in,Pflugerville,TX,
6386,4805 Blueberry in,Austin,TX,
38217,605 Allen St in,Austin,TX,
131942,170304 Casa Piedra in,Travis,TX,
108484,11190 Circle Drive in,Austin,TX,
106171,15803 Windermere Dr in,Pflugerville,TX,
109687,3501 W. Wells Branch in,Travis,TX,
131515,12901 N. Ih 35 in,Austin,TX,
9301,16401 Weiss Ln in,Travis,TX,
143128,9036 N Lamar in,Austin,TX,
111861,13450 Research Blvd in,Austin,TX,
62111,9345 Hwy 290 in,Austin,TX,
90078,2900 Sunridge Dr - Mission Hills Apartments in,Austin,TX,
82141,5315 Apple Orchard Ln in,Austin,TX,
44049,13420 Breezy Meadow Lane in,Manor,TX,
111200,1700 Burton Dr in,Austin,TX,
26053,302 E Burton in,Manor,TX,
95951,3724 Doyal Dr in,Austin,TX,
72015,6620 Quinton in,Austin,TX,
4551,12800 Thome Valley Dr in Del,Valle,TX,
59512,2304 Santa Rita in,Austin,TX,
37838,1801 Wells Branch Pkw in,Travis,TX,
95212,4901 Meritt Drive in,Austin,TX,
129061,183/Burleson in,Austin,TX,
111965,10604 Portrush in,Austin,TX,
35040,10106 Schmidt Ln in,Manor,TX,
31509,8312 Fathom Circle in,Austin,TX,
106522,7206 Salt Springs Rd in,Austin,TX,
88654,9817 Circle Dr Lot 255 in,Austin,TX,
108099,6205 Berkett in,Austin,TX,
115261,709 W Lynn St in,Austin,TX,
88653,15072 Fm 1825 in,Austin,TX,
42616,2433 E Hwy 71 #132 in,Austin,TX,
52206,5220 Jim Hogg Ave in,Austin,TX,
96828,1202 Crestwood Rd in,Austin,TX,
42718,6601 Manor Rd in,Austin,TX,
54179,14982 Swiss Dr in Del,Valle,TX,
49394,1921 W 39Th St in,Austin,TX,
49562,1103 Cumberland in,Austin,TX,
93684,5700 Shoal Creek Blvd in,Austin,TX,
42232,111 Hergolz Ln in,Austin,TX,
2442,9800 Dessau in,Austin,TX,
11799,2619 E 3Rd in,Austin,TX,
25172,106 1/2 Chicon St in,Austin,TX,
80057,6207 Parlament Dr in,Austin,TX,
21177,14515 James Vincent R in,Austin,TX,
123249,14709 Fitzgibbon Dr in,Austin,TX,
97224,824 Parkfield Dr in,Austin,TX,
18572,4312 Speedway Ave in,Austin,TX,
93704,907 Thompson St in,Austin,TX,
18245,11411 Research Blvd in,Austin,TX,
64373,7500 S Pleasant Valley Dr in,Austin,TX,
137586,6500 Whitemarsh Valley Walk in,Travis,TX,
54362,5217 Pine in,Austin,TX,
75925,8515 Brodie Ln in,Austin,TX,
58517,2600 Dryden in,Austin,TX,
123105,5505 Spring Meadow in,Austin,TX,
27590,4407 Dove Dr in,Austin,TX,
101556,969 And 973 in,Austin,TX,
83982,6100 E.Riversde in,Austin,TX,
97005,1414 Gracy in,Austin,TX,
25725,10420 Fm 812 in,Austin,TX,
119762,1308 Thornberry Rd #86 in,Austin,TX,
115404,3806 Tower View Ct in,Austin,TX,
127522,8028 Tee Dr. in,Austin,TX,
84448,2883 Texas 71 in,Travis,TX,
33134,5209 St Georges Green in,Austin,TX,
64695,183 And 35 in,Austin,TX,
11868,6400 Colton Bluff Springs in,Austin,TX,
40025,13009 Tapadero in,Austin,TX,
48013,1300 Cool Shadow Dr in,Austin,TX,
76908,12025 Rotherham Dr in,Austin,TX,
140611,5007 Marshie Cv in,Austin,TX,
17969,12034 Rsearch Blvd in,Austin,TX,
138514,5000 Bantom Woods Bend in,Austin,TX,
119831,6114 Palm Cir in,Austin,TX,
32125,20706 Post Oak Pkwy in,Manor,TX,
382,6808 Montana St in,Austin,TX,
107723,5412 Cadillac Dr in,Austin,TX,
60354,2500 E. 4Th in,Austin,TX,
39874,904 Connecticut Dr in,Austin,TX,
131837,2705 Hoeke Austin in,Austin,TX,
21493,3100 Rogge in,Austin,TX,
52901,12800 Turtle Rock Rd in,Austin,TX,
20393,16600 Easybend Dr in,Travis,TX,
12667,12402 Rusted Nail Dr in,Austin,TX,
69376,2300 San Antonio in,Austin,TX,
139002,8885 Research Blvd in,Austin,TX,
7398,1720 Grand Avenue Pkwy in,Austin,TX,
29091,109 W Anderson Ln in,Austin,TX,
142823,3101 Wells Branch Pkwy in,Austin,TX,
43661,1720 Woodward St in,Austin,TX,
51927,9607 Brodie Ln in,Austin,TX,
54658,6309 Capriola Dr in,Austin,TX,
69206,13314 Fieldgate Dr in,Austin,TX,
90289,190 Tiffany in,Travis,TX,
43771,5300 Crainway Dr. in,Austin,TX,
122178,1000 N Lamar in,Austin,TX,
61348,5413 Manor Dr. in,Austin,TX,
76243,6113 Wideleaf Dr in,Austin,TX,
31127,4800 Nuckols Crossing in,Austin,TX,
27730,302 E Grady Dr in,Austin,TX,
48647,2307 Bending Trl in,Austin,TX,
100833,360/Loop 1 in,Austin,TX,
23308,11680 Research Blvd in,Austin,TX,
14318,4401 Lareina Dr in,Austin,TX,
97173,1630 Wells Branch in,Austin,TX,
100598,5201 Viewpoint Dr in,Austin,TX,
3475,2451 S Captial Texas Hwy in,Austin,TX,
118930,11215 Research Blvd in,Austin,TX,
117584,13000 Pond Springs in,Austin,TX,
54911,7800 San Felipe in,Austin,TX,
62022,1206 St Johns in,Austin,TX,
125385,2322 Santa Rita in,Austin,TX,
123752,16601 Decker Creek in,Manor,TX,
7992,4901 Carsonhill Dr in,Austin,TX,
111212,1310 Bentwood Rd in,Austin,TX,
46751,18960 Blake Manor Rd in,Manor,TX,
64383,51St And Manor Rd in,Austin,TX,
73157,2324 Wilson St in,Austin,TX,
13591,822 Walnut Creek in,Austin,TX,
83528,9401 Roanna Dr in,Austin,TX,
87023,7320 N. Mopac in,Austin,TX,
54720,13018 Fitzhough in,Travis,TX,
100852,11716 Reata Dr. in,Travis,TX,
10614,6941 Felipe Dr in,Austin,TX,
50207,812 Springdale Rd in,Austin,TX,
108126,4411 Meinardus Drive in,Austin,TX,
78484,4905 Majestic Dr in,Austin,TX,
87241,12609 Dessau Rd in,Austin,TX,
96840,3100 Fontana St in,Austin,TX,
1822,303 John Nance Garner in,Austin,TX,
49533,14300 Tandem Blvd in,Austin,TX,
57327,1601 E Slaughter Ln Lot 282 in,Austin,TX,
39433,12403 Mellow Meadow Dr in,Austin,TX,
9082,12022 Lima Dr in,Manor,TX,
140629,2921 Pecan Springs Rd in,Austin,TX,
15315,11203 Ranch Road 2222 in,Travis,TX,
116889,5324 King Henry Dr in,Austin,TX,
2434,6000 Block Of Ponca Street in,Austin,TX,
59193,2716 Citation Drive in,Travis,TX,
42799,2716 Citation Dr. in Del,Valle,TX,
69218,2716 Citation in Del,Valle,TX,
83881,1714 Meander in,Austin,TX,
9339,183 And Loyola in,Austin,TX,
100810,1184 Coleto St in,Austin,TX,
20727,7001 S. Congress Ave in,Austin,TX,
21852,10317 Garbacz in,Austin,TX,
113531,5000 Blocker in,Travis,TX,
139132,2615 Crownspoint Dr in,Austin,TX,
18053,900 Vasquez Rd in,Austin,TX,
88986,211 W Live Oak in,Austin,TX,
73305,4106 N.Lamar in,Austin,TX,
77162,9009 Sun Shower in,Austin,TX,
28929,8100 Ingrid in,Travis,TX,
120050,12529 Old Kimbro in,Travis,TX,
4196,4705 Bayside in,Austin,TX,
140355,1819 E 4Th St in,Austin,TX,
2542,5412 Gilbert Rd in,Austin,TX,
1785,7200 Kellam in Del,Valle,TX,
118415,8425 Chick Pea Ln. in,Austin,TX,
77647,9609 Night Star in,Austin,TX,
79014,6702 Wentworth Dr in,Austin,TX,
121524,8702 Brookfield Dr in,Austin,TX,
93730,15600 Fm 812 in,Travis,TX,
83981,7203 Burleson in,Austin,TX,
137286,2300 Rockridge in,Austin,TX,
52226,3201 Esperanza Crossing in,Austin,TX,
86771,2430 Cromwell in,Austin,TX,
54386,3206 Whitepine Dr in,Austin,TX,
44042,6609 Branch Wood Dr in,Austin,TX,
24254,17524 Bishopgate Dr in,Pflugerville,TX,
108304,7708 Marble Ridge Dr in,Austin,TX,
10623,5601 Adair in,Austin,TX,
19985,4601 St Elmo Rd in,Austin,TX,
61940,9909 Buffalo Lake Ln in,Austin,TX,
133111,9513 North Creek Drive in,Austin,TX,
85447,404 1/2 Oertli Lane in,Austin,TX,
136635,5000 E Riverside Dr in,Austin,TX,
17896,8604 Dulcet Dr in,Austin,TX,
129966,2309 Teri Rd in,Austin,TX,
46850,8054 Exchange Dr in,Austin,TX,
73924,41St And Lamar in,Austin,TX,
86989,1303 Clifford Ave in,Austin,TX,
124352,13015 Irby Pass in,Austin,TX,
47389,2414 Ventura Dr in,Austin,TX,
88913,183 And Burleson in,Austin,TX,
81736,11216 Canterbury Tales in,Austin,TX,
59830,7513 Delafield in,Austin,TX,
139654,15300 Lucian St in,Austin,TX,
79066,4600 Elmont Dr in,Austin,TX,
106778,710 E Ben White in,Austin,TX,
82147,2500 Allred Dr in,Austin,TX,
89963,12815 New Katy in,Manor,TX,
12392,51St And Berkman in,Austin,TX,
15958,7100 Colony Park Dr in,Austin,TX,
130186,400 W 51St in,Austin,TX,
76783,124 Anderson Lane in,Austin,TX,
60742,1700 S. Lakeshore Dr. in,Austin,TX,
124212,7300 Decker in,Austin,TX,
34648,4404 Garnett St in,Austin,TX,
34409,10300 Manchaca in,Austin,TX,
81312,6411 Del Monte in,Austin,TX,
130764,2200 S Ih 35 in,Austin,TX,
22348,1206 Eleanor St. in,Austin,TX,
66221,2309 Berkeley Ave in,Austin,TX,
46577,800 Gunter St in,Austin,TX,
4294,420 Manchester Ln in,Austin,TX,
62071,8105 Research # 46 in,Austin,TX,
134369,1520 Darjeeling Dr in,Austin,TX,
124909,810 E Slaughter Ln in,Austin,TX,
77291,15102 Nightingale Ln in,Lakeway,TX,
48394,12536 N Ih 35 in,Austin,TX,
88405,11212 Renel Dr in,Austin,TX,
67094,9038 Wellesley in,Travis,TX,
117813,31St And Robinson in,Austin,TX,
28963,11402 Robert Wooding in,Austin,TX,
522,1101 E Parmer Ln #207 in,Travis,TX,
38067,10804 Mc Angus in,Travis,TX,
71930,4101 Lamar in,Austin,TX,
102901,5501 S Ih 35 in,Austin,TX,
91726,9024 Northgate in,Austin,TX,
70971,1304 Rio Grande in,Austin,TX,
72943,7501 Bluff Springs in,Austin,TX,
7362,7806 Blue Goose in,Manor,TX,
129348,16511 Bratton Ln in,Austin,TX,
95489,15515 Voelker in,Travis,TX,
19496,8400 Beech Dr in,Austin,TX,
77658,6201 Pennwood Ln in,Austin,TX,
114529,6Th And Lamar in,Austin,TX,
101436,7302 Meador Ave in,Austin,TX,
121777,6301 E Hwy 290 in,Austin,TX,
135014,11521 N Fm 620 in,Travis,TX,
54166,14004 Ceylon Tea Cir in,Travis,TX,
71040,6700 Meadow Lake in,Austin,TX,
62869,12508 Briarcreek Loop in,Travis,TX,
77109,4477 S Lamar Blvd in,Austin,TX,
97066,9100 Wellesleydr in,Austin,TX,
79818,209 W Elliott in,Austin,TX,
53866,5303 Presidio in,Austin,TX,
92982,2404 Rockridge in,Austin,TX,
43519,10600 Georgian Dr in,Austin,TX,
47206,12223 Donington in,Austin,TX,
6952,2400 Dove Dr in,Austin,TX,
123083,2501 Wickersham in,Austin,TX,
86474,7000 Convict Hill in,Austin,TX,
18227,4880 E Yager in,Manor,TX,
55470,2106 Singletree in,Austin,TX,
134162,1200 Montopolis Dr in,Austin,TX,
132796,3108 Dominic Dr in,Austin,TX,
37096,2819 Foster Ln in,Austin,TX,
22121,4800 Copperbend Blvd in,Austin,TX,
105281,1704 E 21St St in,Austin,TX,
43361,9009 Great Hills Trl Building #17 in,Austin,TX,
73980,4419 Rosedale Ave in,Austin,TX,
55564,7715 Hidden View Cir in,Austin,TX,
94781,7000 Ardath St in,Austin,TX,
41668,2400 Bitter Creek Rd in,Austin,TX,
109255,12304 Willow Wild Dr in,Austin,TX,
98706,11304 Naples Cv in,Austin,TX,
35229,17626 Panorama Dr in,Travis,TX,
61733,102 E Rundberg Ln in,Austin,TX,
113790,2204 S 3Rd St in,Austin,TX,
52234,11722 D-K Ranch Rd in,Austin,TX,
16974,10201 Cripple Creek Cove in,Austin,TX,
128842,1612 Ridgemont Dr in,Austin,TX,
80473,100 W 32 in,Austin,TX,
40291,6003 Caroline Ln in,Travis,TX,
30148,7409 West Gate in,Austin,TX,
109486,5106 Village Sq in,Austin,TX,
3030,11406 Hereford in,Manor,TX,
90579,6510 Stoneleigh in,Austin,TX,
127410,4400 S Ih 35 in,Austin,TX,
116995,4216 N. Lamar in,Austin,TX,
80837,400 Blackson Ave in,Austin,TX,
33400,320 Pecan Dr in,Austin,TX,
38247,4800 S Congress in,Austin,TX,
57396,7312 Salt Springs in,Austin,TX,
50313,10308 Burmaster in,Austin,TX,
121696,5707 Katydid in,Austin,TX,
122168,12135 Thompkins Dr in,Pflugerville,TX,
135293,5404 Agua Caliente in,Austin,TX,
2292,1109 S Pleasant Valley Dr Unit 130 in,Austin,TX,
87742,7700 N Cap Of Tx in,Austin,TX,
17318,1308 Thornberry in Del,Valle,TX,
27805,5425 Texas Bluebell Dr. in,Travis,TX,
5304,7825 Tee Dr in,Travis,TX,
131023,5302 Overbook Dr in,Austin,TX,
122554,8600 N. Fm 620 in,Austin,TX,
92681,5405 Bull Run Cir in,Austin,TX,
55909,24802 Leatha Ln in,Travis,TX,
109319,7614 Northview in,Austin,TX,
78199,12342 Fm 620 in,Travis,TX,
112231,1220 Delano in,Austin,TX,
39773,8Th St And Red River in,Austin,TX,
132427,6212 Crow Ln in,Austin,TX,
128075,3600 Mueller in,Austin,TX,
29847,3303 Breedlove in,Austin,TX,
73865,8810 Tallwood in,Austin,TX,
1660,10801 Old Manchaca in,Austin,TX,
133253,12707 Scissortail in,Austin,TX,
15329,5209 Cameron Rd in,Austin,TX,
92117,973 And Blake Manor in,Manor,TX,
103086,4701 Milburn in,Austin,TX,
63777,7300 Kitty Ave in,Austin,TX,
78588,6600 Ed Bluestien Blvd in,Travis,TX,
34442,7306 Blessing in,Austin,TX,
120204,600 W. Carrie in,Manor,TX,
131450,6407 Greensboro in,Austin,TX,
131233,508 Howard in,Travis,TX,
87863,9211 Waterford Center Blvd in,Austin,TX,
20364,8700 Brookfield Dr in,Austin,TX,
111509,6920 Manchaca in,Austin,TX,
59511,8529 N Capital Of Texas Hwy Nb in,Austin,TX,
67573,5603 Hollow Blance Court in,Austin,TX,
5150,1307 E 3Rd St in,Austin,TX,
96481,7506 Wynne Ln in,Austin,TX,
59159,12700 Bismark Dr in,Austin,TX,
80762,5805 Blue Bluff Rd in,Austin,TX,
12340,5805 Blue Bluff Rd in,Austin,TX,
47064,1200 Salina in,Austin,TX,
118310,13701 N 183 Hwy in,Travis,TX,
25149,7605 Fm 1625 Rd in,Travis,TX,
44130,2008 W Parmer Ln in,Austin,TX,
74634,1909 W 39Th St in,Austin,TX,
131803,2403 Bryan St in,Austin,TX,
60416,8304 Cedar Elm Trl in,Austin,TX,
94051,2309 Lafayette Ave in,Austin,TX,
79883,1201 Barbara Jordan Blvd in,Austin,TX,
131652,3717 N Fm 620 in,Travis,TX,
12105,12151 Lomavista in Del,Valle,TX,
1185,10607 Georgian Dr in,Austin,TX,
91793,8404 Bridgetown Dr in,Austin,TX,
126528,4801 Amesley Cv in,Austin,TX,
69032,1633 Royal Crest in,Austin,TX,
30592,2104 E Anderson Ln in,Austin,TX,
81291,7929 Gault St in,Austin,TX,
7468,12105 Lavina in,Austin,TX,
9420,7211 Meador in,Austin,TX,
136652,2105 E 8Th in,Austin,TX,
108092,1803 Romford Dr in,Austin,TX,
134097,5410 Ponciana Dr in,Austin,TX,
137899,906 Cougar Cv in,Austin,TX,
123937,4115 Capital Tx Hwy in,Austin,TX,
865,4902 Teri Rd in,Austin,TX,
140472,2000 W 7Th St in,Austin,TX,
44237,51St And Bennett in,Austin,TX,
90290,8116 Raintree Pl in,Austin,TX,
1684,9900 Roxanna in,Austin,TX,
78111,183 And Mcneal in,Austin,TX,
45697,1919 Burton Dr in,Austin,TX,
119073,301 Park Ln in,Austin,TX,
80799,1009 Cumberland Rd. A in,Austin,TX,
22806,11900 Oak Haven Rd in,Austin,TX,
111138,5300 Jimmy Clay Dr in,Austin,TX,
109665,2703 S Congress Ave in,Austin,TX,
129075,5522 Zachary Scott in,Austin,TX,
131296,101 W Starling Dr in,Austin,TX,
48944,4216 South Congress in,Austin,TX,
56883,700 Green Meadow in,Austin,TX,
135399,11602 Gunsmoke Circle in,Austin,TX,
126695,11602 Gunsmoke Cir in,Austin,TX,
104143,12800 Center Lake Dr #104 in,Austin,TX,
105594,11125 Amesite Trl in,Austin,TX,
66921,3806 Tower View in,Austin,TX,
30407,1400 Cometa St in,Austin,TX,
107204,12800 Cedar St in,Travis,TX,
47455,2120 W Braker Ln in,Austin,TX,
129300,6607 N Interstate Highway 35 in,Austin,TX,
25297,2542 Sol Wilson Ave in,Austin,TX,
39094,17141 Rock Ridge Rd in,Travis,TX,
91447,3905 Hidden Harbor Dr in,Travis,TX,
80311,4312 Turkey Creek Dr in,Austin,TX,
4066,1904 Rampart Circle in,Austin,TX,
91882,10114 S Hwy 183 in,Austin,TX,
134050,183 And Loyla in,Austin,TX,
68742,13500 Alysheba in,Austin,TX,
37491,307 Kimberly Drive in,Austin,TX,
37510,600 W Carrie Manor in,Manor,TX,
41407,5407 Purple Sage in,Austin,TX,
89882,12700 Gregg Manor Rd in,Manor,TX,
13675,8300 Denali Pkwy in,Austin,TX,
27064,4705 Chisos Pass in,Austin,TX,
27437,201 E 21St St in,Austin,TX,
6738,8529 Grandview in,Jonestown,TX,
99591,2106 Big Hollow Dr in,Austin,TX,
7688,3012 Matador Dr in,Austin,TX,
99483,5117 English Glade in,Austin,TX,
7326,2201 Willow Creek in,Austin,TX,
122440,3709 Grayson in,Austin,TX,
45960,3303 Rr 620 N in,Travis,TX,
128207,3300 Killingsworth in,Travis,TX,
17121,102 E Rundberg in,Austin,TX,
77664,1007 South Congress in,Austin,TX,
11353,704 Franklin in,Austin,TX,
42226,8837 N Plaza in,Austin,TX,
11577,1116 Omega Ave in,Austin,TX,
74063,6Th & Lavaca in,Austin,TX,
114299,8735 N Lamar Blvd in,Austin,TX,
2467,12806 Lamplight Village in,Austin,TX,
135187,1200 Woodfield in,Austin,TX,
28556,3106 Breeze Trl in,Austin,TX,
101131,3501 Pennsylvania in,Austin,TX,
142037,1701 E 34Th St in,Austin,TX,
80561,4212 Boatwright Cove in,Austin,TX,
22858,2510 Euclid Ave in,Austin,TX,
73776,701 West Longspur Blvd in,Austin,TX,
69829,8003 Decker Ln in,Austin,TX,
134496,4600 Brassiewood in,Austin,TX,
56295,4Th And Lamar in,Austin,TX,
124225,5706 Sandhurst Cir in,Austin,TX,
61116,1809 Burris Cir in,Austin,TX,
6405,5215 Pine in,Austin,TX,
118419,4009 Victory in,Austin,TX,
89843,14637 Montoro in,Austin,TX,
10219,4002 Wrightwood Rd in,Austin,TX,
73543,5215 Pine Place in,Austin,TX,
114123,12523 Glass Rd in Mustang,Ridge,TX,
128011,1825 And Wellsbranch Pkwy in,Pflugerville,TX,
78069,9400 Parmer Ln in,Austin,TX,
47593,2805 Bee Cave Rd in,Rollingwood,TX,
134817,9318 Research Blvd in,Austin,TX,
17058,5511 Blue Bluff in,Austin,TX,
99537,14506 Varrelmann St. in,Austin,TX,
28696,2805 Palomino in,Austin,TX,
51538,1308 Perez St in,Austin,TX,
21055,2605 W. Stassney in,Austin,TX,
136110,2705 Hoake Ln in,Austin,TX,
113299,3406 Willowrun Cv in,Austin,TX,
84019,3409 Wavecrest Blvd in,Austin,TX,
120383,10005 Hampshire Dr in,Austin,TX,
19759,726 Northwestern Ave in,Austin,TX,
2969,500 Bastrop Highway in,Austin,TX,
119116,6103 Manor Rd in,Austin,TX,
55284,9617 Great Hills Buiding #7 in,Austin,TX,
76902,409 E William Cannon in,Austin,TX,
128574,8900 Vigen Cir in,Austin,TX,
22105,3911 River Rd. in,Travis,TX,
125322,5317 Wellington Dr in,Austin,TX,
119438,10713 Ranch Road 620 N in,Austin,TX,
129751,10414 Slaughter Creek Dr in,Austin,TX,
102624,4303 Shallowbrook Trl in,Austin,TX,
20763,10601 Turner Dr in,Austin,TX,
28365,1119 Linden in,Austin,TX,
96348,11815 Pearce Rd. in,Travis,TX,
81566,1121 Linden in,Austin,TX,
108567,1100 Reinli St in,Austin,TX,
54783,3404 Willowrun in,Austin,TX,
120063,1212 August Dr in,Austin,TX,
63969,6263 Mcneil Dr in,Austin,TX,
43010,8805 N Plaza Dr in,Austin,TX,
133286,4743 Castleman Dr in,Travis,TX,
70973,7606 Providence in,Austin,TX,
119577,4211 Avenue F in,Austin,TX,
93842,6403 Woodhue in,Austin,TX,
73130,1906 Woodland Ave in,Austin,TX,
10567,6809 North Point in,Travis,TX,
101824,7600 Metropolis in,Austin,TX,
91886,17920 Cutback Dr. in,Manor,TX,
55983,1519 E 4Th in,Austin,TX,
50447,7817 Imogene Dr in,Travis,TX,
37469,5812 Trade Center Drive in,Austin,TX,
103467,7901 Metropolis in,Austin,TX,
36754,1614 West 10Th St in,Austin,TX,
117589,615 W Slaughter Ln in,Austin,TX,
30420,7301 Metro Center Dr in,Austin,TX,
139185,2200 Willow Creek Dr in,Austin,TX,
114774,4002 River Rd in,Austin,TX,
114631,12133 Metric Blvd in,Austin,TX,
30473,5410 Manor Rd in,Austin,TX,
71903,10710 W Lakeview Dr in,Jonestown,TX,
40845,1752 Channel Rd. in,Austin,TX,
84832,1400 Amber Day Dr in,Pflugerville,TX,
140401,1512 Pheasant Ln in,Travis,TX,
32339,106 Reinli in,Austin,TX,
44851,8513 Brookfield Dr in,Austin,TX,
55051,1200 E Rundberg Ln in,Austin,TX,
138881,44Th And Rosedale in,Austin,TX,
7140,15008 Fm 812 in Del,Valle,TX,
90841,2210 E 9Th St Unit C in,Austin,TX,
111530,2014 Northridge Dr in,Austin,TX,
58278,10202 Brownie in,Austin,TX,
35016,305 E Applegate Dr in,Austin,TX,
98608,2815 E.71 in Del,Valle,TX,
72901,9312 Sprinkle Rd in,Travis,TX,
13125,3214 Hemlock Ave. B in,Austin,TX,
109571,3614 Bill Price in,Travis,TX,
142236,6729 Old Quarry Ln in,Austin,TX,
130644,1420 Webberville Rd in,Austin,TX,
33074,2000 Holly St in,Austin,TX,
49517,12308 Sky Harbor in Del,Valle,TX,
136298,12101 Dessau Rd in,Austin,TX,
65926,6800 in,Austin,TX,
8841,2303 Vanderbilt Cir in,Austin,TX,
887,1105 E Cesar Chavez St in,Austin,TX,
115550,"1801 Wells, Bld 24 in",Austin,TX,
116629,15000 Fm 969 in,Austin,TX,
46626,13718 Greinert Dr in,Austin,TX,
38192,601 E St Johns in,Austin,TX,
89188,12614 Maha Loop Rd in,Travis,TX,
30712,2501 Muirlands Dr. in,Austin,TX,
95878,1612 Larkwood Dr in,Austin,TX,
86933,1907 Northridge Dr in,Austin,TX,
110148,11503 Parsons Rd in,Travis,TX,
13367,1601 E Slaughter Ln in,Austin,TX,
27222,4703 Delores in,Austin,TX,
55634,5900 Wideleaf Dr in,Austin,TX,
70097,1124 Rutland in,Austin,TX,
46159,10711 Newmont in,Austin,TX,
65456,9100 Nuckols Crossing Rd in,Austin,TX,
91063,9811 Hansford Dr in,Austin,TX,
97176,1117 Stoneoak Ln. in,Austin,TX,
107390,2800 Hancock Dr in,Austin,TX,
26899,8417 Wakwing Ct in,Austin,TX,
39753,12033 Timber High in,Austin,TX,
47402,8300 Hergotz in,Austin,TX,
54012,11805 Eubank Dr. in,Austin,TX,
121160,8733 Birmingham Dr in,Austin,TX,
120013,6903 Miranda Dr in,Austin,TX,
115022,810 E. Slaughter Ln. in,Austin,TX,
108830,12012 Baker Hills Dr. in,Travis,TX,
9175,6918 Bennett Ave in,Austin,TX,
7608,851 Smoke Signal Pass in,Austin,TX,
54626,851 Smoke Signal Pass in,Pflugerville,TX,
85351,12523 Glass Rd in,Travis,TX,
91851,14408 Cameron Rd#A in,Travis,TX,
138794,15202 Bowling Lane in,Travis,TX,
7223,2103 Muroc St in,Austin,TX,
111030,6201 Club Terrace Dr in,Austin,TX,
111618,500 E Anderson in,Austin,TX,
68350,9815 Copper Creek Dr in,Austin,TX,
7482,6002 Jain Ln in,Austin,TX,
783,7312 Laldybug St in,Austin,TX,
89633,5111 Brookdale in,Austin,TX,
10529,1722 Woodward St in,Austin,TX,
124083,15099 Mallard Green Ln in,Austin,TX,
29714,500 E Anderson Ln in,Austin,TX,
32474,14809 Lucerne in,Travis,TX,
72504,12712 Bella Pkwy in,Manor,TX,
71744,5800 Jfk Dr in,Travis,TX,
13582,5910 Melody Ln in,Austin,TX,
5553,7100 Bluff Springs in,Austin,TX,
120385,12118 Walnut Park Xing in,Austin,TX,
31647,8849 Anderson Mill Rd in,Austin,TX,
96378,705 Nelray Blvd in,Austin,TX,
120136,629 Dalton Ln in,Travis,TX,
44717,6500 Blk Moonglow in,Austin,TX,
79777,15705 Jacobson Road in,Travis,TX,
98918,4507 Imperial Dr in,Travis,TX,
48286,3111 Caleb in,Travis,TX,
10752,3018 in,Austin,TX,
47876,2200 S. Pleasant Valley in,Austin,TX,
115898,5207 Brodie Lane in Sunset,Valley,TX,
81811,840 County Road 420 in,Burnet,TX,
39314,703 B Rambie Lane in,Austin,TX,
37874,3505 Harpers Ferry Ln in,Austin,TX,
71391,3504 Alpine Cir in,Austin,TX,
66806,12703 Burson in,Travis,TX,
75578,7400 Poinsetta in,Austin,TX,
111215,14517 Amy Francis in,Austin,TX,
28503,9209 Northgate Blvd in,Austin,TX,
2470,11501 Georgia Coleman Bnd in,Austin,TX,
22854,183 And Vargas in,Austin,TX,
76817,18409 Shallow Pool Dr in,Pflugerville,TX,
102522,901 Park Village Cv in,Austin,TX,
41671,2007 Mimoas in,Austin,TX,
44211,11720 Fm 1826 in,Austin,TX,
118662,1612 Astor Place in,Austin,TX,
135331,200 Montopolis Dr in,Austin,TX,
1845,1513 Mearns Meadow in,Austin,TX,
46394,24369 Bingham Creek Rd in,Leander,TX,
140197,7685 Northcross Dr in,Austin,TX,
94932,1720 Wells Branch Pkwy in,Austin,TX,
126298,10707 Lake Creek Pkwy in,Austin,TX,
93666,8417 Red Willow Dr in,Austin,TX,
62549,4336 Canoas Dr in,Austin,TX,
11233,1706 Crazyhorse Pass in,Austin,TX,
134948,11919 Manchaca in,Austin,TX,
3246,9801 Manchaca Rd in,Austin,TX,
69956,3008 Firewood Dr in,Austin,TX,
102554,12012 Pecangate Way in,Pflugerville,TX,
120171,6300 E.290 in,Austin,TX,
67972,5204 Bahan Dr in,Austin,TX,
138134,9801 Polver Dr in,Austin,TX,
50842,201 E Mary in,Austin,TX,
39496,2707 S Ih 35 in,Austin,TX,
138420,8300 Blk Riverstone Dr in,Austin,TX,
93058,28 Lovegrass Ln in,Austin,TX,
133716,910 Sahara Dr in,Austin,TX,
92152,4501 W. Braker in,Austin,TX,
86433,12800 Mystic Dr in,Travis,TX,
112845,8800 N Ih35 #2186 in,Austin,TX,
27261,3207 Caleb Dr. in,Travis,TX,
4689,10204 N Lamar in,Austin,TX,
64622,4001 Tannehill Rd in,Austin,TX,
51080,10000 Parliament House Rd in,Austin,TX,
23758,10812 Galsworthy Ln in,Austin,TX,
80711,1St/ Ben White in,Austin,TX,
40576,7904 Brockman in,Austin,TX,
68200,400 Sheraton in,Austin,TX,
136454,821 Gunter in,Austin,TX,
111362,2300 Willow St. in,Austin,TX,
119313,10003 Queens Ct in,Travis,TX,
28924,7110 Tahnnon'S Way in,Austin,TX,
12493,311 Lee Land in,Austin,TX,
45994,9323 Manchaca Rd in,Austin,TX,
69664,208 Beaver St in,Austin,TX,
17150,8512 New Hamshire Dr in,Austin,TX,
45798,1012 Arthur Stiles Rd in,Austin,TX,
123217,360/ Lost Creek in West Lake,Hills,TX,
25570,9001 N Ih35/ Rundeberg in,Austin,TX,
9402,11712 Brookwood Rd in,Austin,TX,
49071,2403 Devonshire Dr in,Austin,TX,
1580,1625 And Cliff Brook in,Austin,TX,
108594,6711 Point North Dr in,Austin,TX,
73859,12321 Innes View in,Austin,TX,
141569,5606 Westminster Dr in,Austin,TX,
83937,901 B Milford Way in,Austin,TX,
39201,9219 Anderson Mill Rd in,Austin,TX,
115500,9901 Shively Ln in,Austin,TX,
61169,6918 Carver in,Austin,TX,
93573,3901 Speedway in,Austin,TX,
39856,824 Walnut Creek Dr in,Austin,TX,
100533,5505 Pincushion Dr in,Austin,TX,
28113,4900 Pack Saddle Pass in,Austin,TX,
61633,2001 Bastrop Highway in Del,Valle,TX,
53765,5600 Melody Ln in,Travis,TX,
117801,1816 Lima Dr in,Manor,TX,
78521,2106 Kirksey Dr in,Austin,TX,
97898,7503 Lazy Creek Dr in,Austin,TX,
95588,5602 Northdale Dr. in,Austin,TX,
57051,15803 Pearce Ln in Del,Valle,TX,
132733,5003 Dove Springs in,Austin,TX,
127643,12443 Tech Ridge Blvd in,Austin,TX,
141122,5406 Garcreek Cir in,Austin,TX,
98637,2108 Muroc St in,Austin,TX,
122398,5309 Meadow Crest in,Austin,TX,
103915,11805 Carshalton in,Austin,TX,
34973,5Th And Navasota in,Austin,TX,
41722,4511 Lucksinger in,Austin,TX,
45366,2031 Cypress Creek Rd in,Austin,TX,
30740,1410 Salem Meadow Circle in,Austin,TX,
34467,909 E Koenig Ln in,Austin,TX,
71820,4601 Tucker Hill Ln in,Travis,TX,
9812,1700 Webberwood Dr in,Travis,TX,
36263,9300 Collinfield in,Austin,TX,
112601,7208 Salt Springs - B in,Austin,TX,
114737,1124 Rutland Dr. #40 in,Austin,TX,
115408,1206 Warrington in,Austin,TX,
112033,3300 Northeast Drive in,Austin,TX,
136931,2400 Wickersham #290 in,Austin,TX,
135392,8401 Hathaway in,Austin,TX,
120226,1901 Crazyhorse Pass in,Austin,TX,
4660,4700 Kelly Ln in,Travis,TX,
1615,1201 E Rundberg in,Austin,TX,
58471,1011 Lott Ave in,Austin,TX,
43109,1140 Lott in,Austin,TX,
60421,3006 E 51St St in,Austin,TX,
108627,1130 Saucedo in,Austin,TX,
86289,10500 Plains Trl in,Austin,TX,
2460,5811 Pino Ln. in,Austin,TX,
51350,7929 Gaullt St. in,Austin,TX,
84133,7310 Meador Ave in,Austin,TX,
73327,3004 Fleet Dr in,Austin,TX,
50773,6701 Bryn Mawr in,Austin,TX,
62364,6636 W. William Cannon Dr in,Austin,TX,
119292,6006 Parliament in,Austin,TX,
121028,9723 Blocker Ln in,Travis,TX,
56043,12343 Hunters Chase Dr in,Austin,TX,
143061,103 W Odell St in,Austin,TX,
26388,1107 Hermitage Dr. in,Austin,TX,
89686,5220 Bahan Dr in,Austin,TX,
85356,12808 Blaine Rd. in,Austin,TX,
60215,6102 Jacqueline in,Travis,TX,
2375,1801 E 4Th St in,Austin,TX,
113070,401 Masterson #154 in,Austin,TX,
44490,5710 Jacqueline in,Travis,TX,
65704,1107 Eleanor Street in,Austin,TX,
63587,1506 W. Lakeland Dr. in,Travis,TX,
102599,12104 Parsons in,Travis,TX,
100902,"4216 S, in",Austin,TX,
38783,11717 Mcangus in Del,Valle,TX,
32068,863 Airport in,Austin,TX,
116019,5437 Tierra Alta Cir in Del,Valle,TX,
123221,6505 Lancret Hill in,Austin,TX,
30402,1215 E M Franklin Ave in,Austin,TX,
3066,11011 Whiskey River in,Austin,TX,
98632,2646 Gwendolyn in,Austin,TX,
12696,8300 N I35 in,Austin,TX,
94464,401 Delamr Ave in,Austin,TX,
83337,11601 Tedford St in,Austin,TX,
31413,1011 Vargas in,Austin,TX,
93350,2425 Cromwell Cir in,Austin,TX,
97705,507 E Cesar Chavez in,Austin,TX,
42221,3438 Jfk in,Travis,TX,
47821,3904 Hidden Lake Xing in,Travis,TX,
23963,12600 Campana Dr in,Austin,TX,
27151,1156 W Cesar Chaves St in,Austin,TX,
94965,2627 Gwendolyn Ln in,Austin,TX,
25889,8705 Leisure in,Austin,TX,
102717,9701 Fm 1826 in,Austin,TX,
66901,11211 Selma Dr in,Austin,TX,
24708,1129 Byers Ln in,Austin,TX,
101776,505 W Anderson Ln in,Austin,TX,
53628,10219 Lindshire Ln in,Austin,TX,
23109,8701 Leo St in,Austin,TX,
37736,8904 Chisholm Ln in,Austin,TX,
14423,2 Brett Cove in,Rollingwood,TX,
72735,3000 Sea Jay Dr in,Austin,TX,
43206,6505 Auburndale in,Austin,TX,
62407,1500 Faro in,Austin,TX,
128029,1800 Linnet in,Austin,TX,
72663,12900 Carillon Way in,Manor,TX,
34688,5214 Duval Rd in,Austin,TX,
36007,1805 Airport Commerce Dr in,Austin,TX,
69259,5503 Overbrook in,Austin,TX,
51502,1111 W 34Th St in,Austin,TX,
127098,2318 Post Oak Rd. in,Travis,TX,
111697,6720 Quinton in,Austin,TX,
29982,25202 Lakeview in,Travis,TX,
100785,3624 Josh Ln in,Austin,TX,
29088,2010 E. 8Th St in,Austin,TX,
50411,409 Covenant Canyon Trl in,Austin,TX,
90034,9200 North Plaza #2008 in,Austin,TX,
43555,212 & Doorbell Dr in,Travis,TX,
52227,1147 Gunter St in,Austin,TX,
11114,7000 Decker Lane#502 in,Austin,TX,
52312,9160 Research Blvd in,Austin,TX,
83556,5404 Village Trl in,Austin,TX,
131827,1814 Wooten Park in,Austin,TX,
120572,5914 Wagon Bend in,Austin,TX,
22716,1300 Fm 812 in,Travis,TX,
102780,1160 Hargrave St in,Austin,TX,
44123,1115 Ebert Ave. in,Austin,TX,
113286,10007 Woodhaven Ave. in,Austin,TX,
80618,1108 Spearson Lane in,Austin,TX,
111875,3204 Manchaca in,Austin,TX,
97080,2300 Anken Dr in,Austin,TX,
118615,12117 Manchaca Rd in,Travis,TX,
7135,1200 Shoal Creek in,Austin,TX,
31192,6900 Savanna Canyon Dr. in Del,Valle,TX,
51845,7000 Carwill in,Austin,TX,
71213,6101 George St in,Austin,TX,
124500,11622 Doyle Overton Rd. in,Travis,TX,
127379,5345 N. Ih 35 in,Austin,TX,
6291,1015 Lott Ave in,Austin,TX,
67138,1400 Canterbury in,Austin,TX,
136246,1711 Rutland Dr in,Austin,TX,
82313,9301 Johhny Morris in,Austin,TX,
63259,5204 Ledesma in,Austin,TX,
33621,5212 Ledesma Rd in,Austin,TX,
92967,21205 Hwy 71 in,Travis,TX,
126066,12435 Dessau in,Austin,TX,
52074,2900 N Ih 35 in,Austin,TX,
114297,13127 Elmgrove in,Austin,TX,
9519,4100 W Slaughter Ln in,Austin,TX,
63312,5701 Ainez Dr in,Austin,TX,
39046,9006 Shepard in,Austin,TX,
15175,300 E Rundberg in,Austin,TX,
53966,6405 Ponca St in,Austin,TX,
82751,12138 N Lamar Blvd in,Austin,TX,
37200,3405 Goodwin Ave in,Austin,TX,
91844,5807 Sweeney Cir in,Austin,TX,
63699,5400 E Stassney Ln in,Austin,TX,
88031,9904 Fm 812 in,Austin,TX,
81764,7901 E Ben White Blvd #11C in,Austin,TX,
137645,904 E Monroe St in,Austin,TX,
106273,85 Trinity St. #308 in,Austin,TX,
17813,625 E Stassney in,Austin,TX,
109780,7631 Us 290 Hwy in,Austin,TX,
34650,18 & San Antonio in,Austin,TX,
15629,1201 Payton Gin Rd in,Austin,TX,
54640,1711 Wheless Ln in,Austin,TX,
114791,6401 Hickman in,Austin,TX,
24534,4600 Rocking Chair in,Austin,TX,
142137,1803 Anderson Lane in,Austin,TX,
105337,9308 N Lamar in,Austin,TX,
9769,8805 North Plaza Dr in,Austin,TX,
35227,2204 Park Ln in,Travis,TX,
81793,5104 Purple Sage Dr #B in,Austin,TX,
91131,7129 Dixie Dr in,Austin,TX,
4214,2301 Rachel Cv in,Austin,TX,
117353,1210 Coaches Xing in,Travis,TX,
140556,14800 Immanuel Rd in,Travis,TX,
29075,7203 Shannon Dr in,Austin,TX,
11131,12134 Research Blvd in,Austin,TX,
106362,1841 Friars Tale Ln in,Austin,TX,
138299,902 Cherico in,Austin,TX,
77787,1201 Strickling Dr in,Pflugerville,TX,
128090,2604 Rollingwood Dr in,Austin,TX,
129961,6702 Columbia Dr in,Austin,TX,
45660,8111 N Fm 620 in,Austin,TX,
129021,2201 Montopolis Dr in,Austin,TX,
7254,804 Sheraton Ave in,Austin,TX,
95996,726 N Western in,Austin,TX,
112357,1909 Blue Meadow in,Austin,TX,
5503,6803 Pioneer Place in,Austin,TX,
7441,300 Colorado St. in,Austin,TX,
3627,405 E Monroe in,Austin,TX,
139859,2105 Parker in,Austin,TX,
67327,9603 Bear Paw Trl in,Austin,TX,
93097,5504 Manor in,Austin,TX,
18961,1150 Wells Rd in,Travis,TX,
140142,4001 S Lamar in,Austin,TX,
82631,8837 North Plaza Ct in,Austin,TX,
42624,300 Ferguson Dr in,Austin,TX,
36406,620 And Parmer Ln in,Austin,TX,
8738,8705 Leisure Dr in,Austin,TX,
21652,3230 Travis County Circle in,Austin,TX,
112065,12202 Ranch Road 620 N in,Austin,TX,
86625,5004 Cape Verde Cv in,Austin,TX,
59312,6200 Arnold Dr in,Austin,TX,
43678,726 Northwetern Ave in,Austin,TX,
83413,4701 Monterey Oaks Blvd in,Austin,TX,
135676,15800 Fm 969 in,Austin,TX,
47143,9329 Northgate in,Austin,TX,
129499,1800 East Stassney in,Austin,TX,
32731,12Th And West in,Austin,TX,
51437,13407 Vandever in,Travis,TX,
58980,6207 Hickman Ave in,Austin,TX,
43178,3212 Oakmont in,Austin,TX,
86368,5000 S Hearsey Dr in,Austin,TX,
3924,1051 Dalton Ln in Del,Valle,TX,
52523,607 Fletcher #B in,Austin,TX,
109231,1305 Deupree in,Austin,TX,
81559,5106 Village Square Dr in,Austin,TX,
108886,8407 Coulver Cove #A in,Travis,TX,
33091,5000 Blue Bluff in,Travis,TX,
26710,5308 Northdale in,Austin,TX,
125316,1501 W Lakeland in,Austin,TX,
127917,1125 Mark St in,Austin,TX,
62762,1711 Millhouse Dr in,Travis,TX,
141771,411 Blackson Ave/ Duval in,Austin,TX,
6861,1200 Lily Terrace in,Austin,TX,
98455,6600 Hergotz in,Austin,TX,
102105,201 Provines Dr in,Austin,TX,
20239,4511 Doss Rd in,Austin,TX,
25574,10921 Caffey Ln in,Travis,TX,
138558,2815 E Hwy 71 #69 in,Austin,TX,
72689,9500 Bear Paw in,Austin,TX,
131883,710 E Ben White Blvd in,Austin,TX,
103696,290 And Ih35 in,Austin,TX,
8928,9801 W Parmer Ln in,Austin,TX,
42307,6212 Palm Circle in,Austin,TX,
99640,6803 Stonleigh Pl in,Austin,TX,
82652,6300 Fm 1327 Rd in,Travis,TX,
114803,14312 Hunters Bend Rd in,Austin,TX,
113011,6507 Eudora Cove in,Austin,TX,
141906,610 E 3Rd in,Austin,TX,
60275,2300 Bitter Creek Dr in,Austin,TX,
25109,8614 Georgian Dr in,Austin,TX,
118665,201 Provines Drive in,Austin,TX,
137887,1618 Jj Seabrook in,Austin,TX,
88858,308 W Johanna St in,Austin,TX,
95378,290 & 71 in,Austin,TX,
66135,2100 E 3Rd St in,Austin,TX,
37899,10513 Ponder Ln in,Travis,TX,
99813,5700 Avenue D in,Austin,TX,
27715,10002 Woodhaven in,Austin,TX,
89135,3509 Harper Ferry Ln in,Austin,TX,
97981,8800 Ih 35 Sv Rd Apt# 1061 in,Austin,TX,
116134,11405 Lafitt Ln in,Austin,TX,
143232,1223 Paleface Ranch Road in,Austin,TX,
24172,2500 W Willam Cannon in,Austin,TX,
73236,18706 Blake Manor Rd in,Travis,TX,
73192,14000 The Lakes Blvd in,Pflugerville,TX,
108915,9600 N. Lamar in,Austin,TX,
47027,2710 Wilson St in,Austin,TX,
106080,8301 Empress Blvd in,Austin,TX,
129477,13500 Farm To Market 2769 in,Austin,TX,
112349,3600 Autumn Bay in,Austin,TX,
112856,12901 N Interstate Highway 35 in,Austin,TX,
53877,9700 Stonelake Blvd in,Austin,TX,
66181,11711 Carl Rd in,Creedmoor,TX,
70049,1601 Slaughter Ln in,Austin,TX,
61290,4501 Raleigh Cir. in,Austin,TX,
99125,6504 Santos St in,Austin,TX,
77913,11717 Old Lockhart in,Travis,TX,
93961,5801 W Hwy 290 in,Austin,TX,
106662,1501 West Lakeland in,Austin,TX,
116439,4707 Prock Ln in,Austin,TX,
62457,7576 Chevy Chase Dr in,Austin,TX,
42441,9301 Johnny Morris in,Austin,TX,
129547,5314 Pecan Brook Dr in,Austin,TX,
143264,6100 Devonshire Ct in,Austin,TX,
18457,7113 Dagon Dr in,Austin,TX,
17330,5725 War Admiral Dr in Del,Valle,TX,
25525,5229 Tower Trail in,Austin,TX,
96797,12606 Johnson Rd in,Travis,TX,
42629,5707 Manor in,Austin,TX,
123484,7105 Bennett in,Austin,TX,
53339,501 East 8Th St in,Austin,TX,
1757,100500 Redmond Rd in,Austin,TX,
25416,290 And Parmer in,Austin,TX,
130460,6202 Club Ter in,Austin,TX,
63420,15804 Jacobson Rd in,Austin,TX,
55994,6907 Stonleigh in,Austin,TX,
79616,901 E Palm Valley Blvd in,Williamson,TX,
101863,1700 Blk Patton Ln in,Austin,TX,
8747,7900 Marble Ridge Dr in,Austin,TX,
38340,9609 Carson Creek Blvd in,Austin,TX,
34936,13145 N 183 in,Austin,TX,
33359,1322 Lamar Square in,Austin,TX,
93919,14904 Valerian in,Travis,TX,
109723,203 S Webberwood in,Travis,TX,
90779,1702 Taylor Gaines in,Austin,TX,
101099,5101 E 51St St in,Austin,TX,
141611,2602 Stenson Drive in Cedar,Park,TX,
61759,7005 Marejada Dr in,Austin,TX,
7835,1710 Wooten Park Dr in,Austin,TX,
102539,6910 William Cannon Dr. in,Austin,TX,
69537,2411 Mission Hill Dr in,Austin,TX,
140776,1109 S Pleasant Valley in,Austin,TX,
128889,919 West 28Th And 1/2 in,Austin,TX,
142290,5606 Exeter Drive in,Austin,TX,
79278,420 Thompson in,Austin,TX,
267,8010 N Ih 35 in,Austin,TX,
116496,183/ Burleson in,Austin,TX,
30787,2302 E William Cannon in,Austin,TX,
68553,5302 St Georges Greeb in,Austin,TX,
111042,5315 Wellington in,Austin,TX,
64208,10300 Golden Meadow Dr in,Austin,TX,
79095,906 Milton Dr in,Austin,TX,
66019,4911 Russet Hill in,Austin,TX,
20190,183/ Fm 1327 in,Travis,TX,
33436,5106 Purple Sage Trail in,Austin,TX,
13490,5603 Apple Orchard Ln in,Austin,TX,
54224,4911 Russet Hill in,Austin,TX,
142698,2310 S Lamar in,Austin,TX,
17538,5909 Reicher Dr in,Austin,TX,
93972,4200 River Rd in,Austin,TX,
121985,7925 Hayride in,Travis,TX,
143156,4706 Switch Willo in,Austin,TX,
39809,5602 Chadwyck in,Austin,TX,
108807,6306 Manchaca in,Austin,TX,
123520,10402 Macmora Rd in,Austin,TX,
125376,6712 Galindo in,Austin,TX,
77432,2719 E 22Nd St in,Austin,TX,
54656,8405 Shallot Way in,Austin,TX,
105478,2914 Aftonshire Way in,Austin,TX,
54647,11160 Jollyville Rd in,Austin,TX,
32559,902 Gunter St in,Austin,TX,
92807,1223 Canyon Maple Rd in,Pflugerville,TX,
27520,1312 Lamar Square Dr in,Austin,TX,
27958,415 Hurst Creek Dr in,Austin,TX,
50531,3203 W. Highland Terrace in,Austin,TX,
107247,6410 Hudson Bend Rd in,Austin,TX,
82800,5932 Lux St in,Austin,TX,
127381,2516 Elara Dr in,Austin,TX,
123173,9600 North Creek Dr in,Austin,TX,
92075,215 Cloudview Dr in,Austin,TX,
70269,6808 Panda Royal Dr in Del,Valle,TX,
77226,8101 Ingrid Dr in,Travis,TX,
140564,10917 Worn Sole Dr in,Austin,TX,
109358,12800 Lake Dr #1026 in,Austin,TX,
60505,9300 Sih 35 And W Slaughter Ln in,Austin,TX,
8760,4413 Scottsdale in,Austin,TX,
8521,1701 W Ben White Blvd in,Austin,TX,
2561,2401 S Lakeshore #5205 in,Austin,TX,
40072,11111 Bending Bough Trail in,Austin,TX,
16234,3000 Jones Rd in Sunset,Valley,TX,
32400,12006 Greenleaf in,Travis,TX,
108290,4803 Flicker Cv in,Austin,TX,
24173,7104 Townsborough in,Austin,TX,
96273,1950 Webberville #2314 in,Austin,TX,
46155,5103 Sadle Cir in,Austin,TX,
31150,1011W. Anderson Ln. in,Austin,TX,
143036,1200 Lily in,Austin,TX,
141458,1500 East Riverside in,Austin,TX,
15684,305 E Yagar Ln in,Austin,TX,
832,3201 Jack Cook Dr. in,Austin,TX,
108920,12187 Running Bird Ln in,Austin,TX,
106276,14600 Vevey Dr in,Travis,TX,
26100,6113 Perlita Dr in,Austin,TX,
43769,1024 Teapot Dr in,Pflugerville,TX,
3830,2936 Barton Skyway in,Austin,TX,
33276,1817 E Oltorf in,Austin,TX,
4332,2200 Pecos in,Austin,TX,
114176,5431 Mathra in Del,Valle,TX,
86411,1212 Sleepytime in,Austin,TX,
106642,2703 Twin Crest Dr. in,Austin,TX,
75340,6812 Crystalbrook Dr in,Austin,TX,
34341,14000 Renaissance in,Austin,TX,
137378,605 Delmar in,Austin,TX,
76313,2815 E. 71 in,Austin,TX,
33572,6102 Caroline in,Travis,TX,
132745,6013 Jfk Dr in,Travis,TX,
41836,5800 Jkf in,Travis,TX,
31058,5703 Caroline in,Travis,TX,
133482,5900 Caroline in,Travis,TX,
30041,6000 Jacquiline Ln in,Travis,TX,
125206,6800 Richardson in,Austin,TX,
79765,1161 Harvey Ln in,Austin,TX,
31969,5709 Melody in,Travis,TX,
53318,6104 Jfk in,Travis,TX,
123713,1500 Reagan Hill in,Austin,TX,
68716,1826 And Circl C in,Austin,TX,
52816,600 Briarwood Park in,Austin,TX,
44041,15000 Maha Rd in,Austin,TX,
56226,1317 Mckie Cv in,Austin,TX,
92528,1303 Village West in,Travis,TX,
22941,3206 Hanover Ln in,Austin,TX,
122884,4105 E 12Th St in,Austin,TX,
132365,5Th And West St in,Austin,TX,
47825,6403 Chimney Creek in,Austin,TX,
102824,734 Yarsa Blvd in,Austin,TX,
73742,9345 E Us Hwy 290 in,Austin,TX,
66515,1137 Gunter #251 in,Austin,TX,
73156,1601 Anis Dr in,Austin,TX,
50485,4016 Vineland in,Austin,TX,
22433,6020 S 1St St in,Austin,TX,
87724,139 Persimmon in Del,Valle,TX,
124274,9105 Hoffman Cv in,Austin,TX,
29966,100 Water Rd in,Webberville,TX,
10349,1402 Cool Shadow Dr in Del,Valle,TX,
27546,602 Great Britain Blvd in,Austin,TX,
77499,7501 Clematis Cv in,Austin,TX,
81756,7505 Espina Dr in,Austin,TX,
108699,6302 Windslow Ct in,Austin,TX,
35680,7216 Texas 71 in,Austin,TX,
119142,6400 S 1St St in,Austin,TX,
11645,7200 Coronado Cir. in,Austin,TX,
143213,8402 Bluff Springs Rd in,Austin,TX,
81065,5707 Manor Rd in,Austin,TX,
118587,2311 Tamarisk Circle in,Austin,TX,
38974,5006 Acorn Grove Ct in,Austin,TX,
73280,2615 Canterbury St in,Austin,TX,
21625,5011 Lambs Ln in,Austin,TX,
34103,12811 Armstrong Ave in,Travis,TX,
102025,10414 Wagon Road W in,Travis,TX,
86786,12004 Oak Haven Rd in,Austin,TX,
111456,290 And Old Kimbo Rd in,Austin,TX,
83016,812 And 183 in,Austin,TX,
33039,10900 Beach Dr in,Travis,TX,
7064,1029 Camino La Costa in,Austin,TX,
132022,9008 Hunters Trace in,Austin,TX,
28141,2850 W Hwy 71 in,Travis,TX,
9403,8100 Tonopa Ln in,Austin,TX,
95362,20801 Hog Eye in,Manor,TX,
101690,8700 Block Of Southwick Dr in,Austin,TX,
47506,8105 Linden Rd in Del,Valle,TX,
50141,4711 Spicewood Springs Rd in,Austin,TX,
77578,10707 Lake Creek Pky in,Austin,TX,
139942,1001 Collinwood West Drive in,Austin,TX,
110394,11915 Stonehollow Dr in,Austin,TX,
51169,19421 Tayshas St in,Manor,TX,
133736,7009 Caver Ave in,Austin,TX,
90997,16Th St And Miriam Ave in,Austin,TX,
7647,2906 Webberville Rd in,Austin,TX,
19048,2124 Picadilly Dr in,Travis,TX,
12912,13127 Elm Grove Rd in,Travis,TX,
115234,4700 Brassiewood in,Austin,TX,
38807,9009 North Plaza in,Austin,TX,
107461,7009 S Ih 35 in,Austin,TX,
87703,1156 W. Cesar Chavez in,Austin,TX,
116707,11682 Maha Loop in,Austin,TX,
43259,8714 Fm812 in Del,Valle,TX,
50751,10917 S Ih 35 in,Travis,TX,
63622,300 Guadalupe St in,Austin,TX,
114367,4900 Nucklos Crossing in,Austin,TX,
61403,6006 Danwood Dr. in,Austin,TX,
24558,106 Camino La Costa in,Austin,TX,
130421,2703 Allcott in,Austin,TX,
96758,5153 Ganymede Dr in,Austin,TX,
109064,5506 Prock in,Austin,TX,
46972,12700 Hill Country Blvd in Bee,Cave,TX,
51265,7500 S. Pleasant Valley Rd. in,Austin,TX,
74362,9220 N Ih 35 in,Austin,TX,
47259,12317 Pratolina in,Austin,TX,
17822,4404 Dovemeadow Dr in,Austin,TX,
67178,5660 Ih 35 in,Austin,TX,
80698,8766 Birmingham in,Austin,TX,
71382,600 E Stassney in,Austin,TX,
71963,720 Airport Blvd in,Austin,TX,
24786,3105 S Ih 35 in,Austin,TX,
20700,13912 Hymill in,Travis,TX,
3425,1503 Demaret St in,Pflugerville,TX,
91672,3800 S 2Nd St in,Austin,TX,
30792,13906 Hymill Dr in,Travis,TX,
119848,1200 E Anderson Ln in,Austin,TX,
29351,6501 Melrose Trl# A in,Austin,TX,
10081,4400 Franklin in,Austin,TX,
107543,515 S Pleasant Valley Rd in,Austin,TX,
138750,2515 Pearl St in,Austin,TX,
34055,11141 Lost Maples Trl in,Austin,TX,
63493,8133 Ladera Verde Dr in,Austin,TX,
93460,1203 Cometa St in,Austin,TX,
105776,802 Emerald Wood Dr in,Austin,TX,
86931,1105 Neans Dr in,Austin,TX,
8551,7904 Eudora Ln in,Austin,TX,
10382,8105 Linden Road in Del,Valle,TX,
127545,9005 S 973 Rd in,Travis,TX,
111008,10463 Sprinkle Rd in,Austin,TX,
48301,1305 Summer Oaks Dr. in,Austin,TX,
123389,4611 Weidemar Ln in,Austin,TX,
140362,1301 Thornberry Road in,Austin,TX,
109337,15204 Pocmont Trl in,Austin,TX,
17340,1706 Krizan Ave in,Austin,TX,
89896,2400 Cedar Creek Dr in,Austin,TX,
116804,15609 E Hwy 290 in,Travis,TX,
101397,1804 Nightview in,Travis,TX,
61387,3600 Presidential Blvd in,Austin,TX,
74176,6713 Porter in,Austin,TX,
128471,5214 Marymount Dr in,Austin,TX,
127509,13404 Cameron Rd in,Manor,TX,
27218,7701 North Ih 35 in,Austin,TX,
8612,6111 Shumard Oak in,Austin,TX,
120766,4611 Dove Springs in,Austin,TX,
128579,2207 Wickersham Ln in,Austin,TX,
34355,7206 Reaburn in,Austin,TX,
90225,2203 Greenwood Ave in,Austin,TX,
102225,601 E St Johns Ave in,Austin,TX,
98249,8900 N Ih 35 in,Austin,TX,
104017,7407 Tumbleweed Dr #B in,Austin,TX,
38239,8536 Birmingham in,Austin,TX,
26251,1009 Rutland Drive in,Austin,TX,
77966,3106 Collins Creek Dr in,Austin,TX,
51323,8425 Twiggy Ln in,Austin,TX,
138456,7301 Spicewood Springs Rd in,Austin,TX,
111371,6200 Airport Blvd in,Austin,TX,
141325,7201 Crystalbrook Dr in,Austin,TX,
76146,831 N Meadows Dr in,Austin,TX,
91760,2700 N Lamar Blvd in,Austin,TX,
139335,7011 W Parmer Ln in,Austin,TX,
54878,183 & Pond Springs in,Austin,TX,
65013,3300 Clarkburg Dr in,Austin,TX,
129194,3915 Idalia Dr in,Austin,TX,
63656,3621 Slaughter Ln in,Austin,TX,
129012,51St And Berkman Dr in,Austin,TX,
90283,13730 N Fm 620 in,Austin,TX,
18003,13911 Tophill Cir in,Travis,TX,
98396,2301 South Mopac Expressway in,Austin,TX,
26675,2001 Trail Of The Madrones in,Austin,TX,
59284,2004 Nogales Trl in,Austin,TX,
60999,7111 Grand Canyon in,Austin,TX,
20072,8219 Elroy in Del,Valle,TX,
112513,13702 Fm 969 in,Austin,TX,
135984,1704 E 21St in,Austin,TX,
91331,4404 E. Oltorf St in,Austin,TX,
142855,15219 County Line in,Travis,TX,
2916,905 Bedford in,Austin,TX,
44639,8312 Cahill Dr in,Austin,TX,
126597,14609 Rumfeldt Street in,Austin,TX,
105630,1600 Grove Blvd. in,Austin,TX,
100056,5106 N Lamar in,Austin,TX,
136600,400 West Saint Elmo Road in,Austin,TX,
63667,8613 Wild Kingdom in,Austin,TX,
121246,15600 Lariat Trl in,Travis,TX,
60790,1127 Bolm Road in,Austin,TX,
71956,2308 Cedrick Cv. in,Austin,TX,
130563,2000 Burton Dr in,Austin,TX,
105267,8713 Hammetts Crossing in,Travis,TX,
94436,715 Minturn Ln. in,Austin,TX,
133239,7803 Dee Gabriel Collins in,Travis,TX,
89199,8410 Cockney Dr in,Austin,TX,
124782,1301 Parker Lane in,Austin,TX,
49046,8515 S Ih 35 in,Austin,TX,
86161,15108 Valerian Tea in,Pflugerville,TX,
34484,15210 Fagerquist in,Travis,TX,
65711,6855 Highway 290 East in,Austin,TX,
104743,7307 E Riverside Dr in,Austin,TX,
29248,5201 Ross Rd in Del,Valle,TX,
24790,5001 Lott Ave. in,Austin,TX,
43088,1215 Fort Branch in,Austin,TX,
102175,6403 Johnny Morris in,Austin,TX,
9518,3406 Manchaca in,Austin,TX,
54931,4703 Fm 1327 in,Creedmoor,TX,
98233,14905 Sand Dollar in,Travis,TX,
12022,6407 Del Monte in,Austin,TX,
91876,1085 Shadow Creek Blvd in,Travis,TX,
72714,3214 Plantation Rd in,Austin,TX,
91192,5338 Thunder Creek Rd in,Austin,TX,
94890,5903 Belafonte in,Travis,TX,
132545,7307 E. Riverside in,Austin,TX,
104306,5809 Breezewood in,Austin,TX,
31957,1409 Berkshire Dr in,Austin,TX,
38393,7604 Crystal Brook Cv in,Austin,TX,
124444,1401 Valley Ridge Dr in,Austin,TX,
83535,3009 Michocan in,Austin,TX,
25045,3009 Michocan in Del,Valle,TX,
2166,3315 Maccauley Lane in,Austin,TX,
36714,4400 Franklin Park in,Austin,TX,
138731,2203 Leah Cove #D in,Austin,TX,
138044,2600 E 5Th St in,Austin,TX,
53113,5605 Manowar Stretch in,Austin,TX,
62443,11900 Hobby Horse in,Austin,TX,
40471,3000 Shoreline in,Travis,TX,
12074,316 Mesa Dr in Del,Valle,TX,
77701,1900 Sunny Brook Dr in,Austin,TX,
80013,6636 W William Cannon in,Austin,TX,
38833,5405 Pine Place in,Austin,TX,
49848,523 E Highland Mall Blvd in,Austin,TX,
103651,600 Slaughter Ln in,Austin,TX,
31163,1701 E 13Th St in,Austin,TX,
76830,1430 Wbberville Rd in,Austin,TX,
119635,4804 Savorey Ln in,Austin,TX,
102734,8201 Riverstone Dr in,Austin,TX,
134307,6106 Wheless Cv in,Austin,TX,
73892,130 And 290 in,Austin,TX,
121158,3606 Farm To Market 1327 in,Creedmoor,TX,
65759,2301 Devonshire Dr in,Austin,TX,
137753,905 Shady Lane in,Austin,TX,
83800,1101 Mearns Meadow Blvd in,Austin,TX,
68480,3421 W Wm Cannon in,Austin,TX,
42304,1005 W Stassney in,Austin,TX,
138250,1903 Woodland Ave in,Austin,TX,
364,14400 Harris Ridge Blvd in,Travis,TX,
12972,8900 N Ih35 in,Austin,TX,
141545,841 Airport Blvd in,Austin,TX,
76507,2901 S Cap Of Tx Hwy in,Austin,TX,
121495,508 Arbor Lane in,Austin,TX,
143151,19000 N Fm 973 in,Travis,TX,
74624,719 Shade Tree Dr in,Austin,TX,
100762,3100 Speedway in,Austin,TX,
41841,6206 Langham in,Austin,TX,
56350,12032 Lincolnshire Dr in,Austin,TX,
73065,11282 Taylor Draper Ln in,Austin,TX,
93569,1626 And S 1St in,Austin,TX,
8600,14300 Plover Pl in,Travis,TX,
65702,5800 Techni Center in,Austin,TX,
52212,10600 Decker Lake Rd. in,Austin,TX,
50423,4015 Kandy Dr in,Austin,TX,
7098,6800 Burleson Rd in,Austin,TX,
109799,6806 Breezy Hill Dr in,Austin,TX,
140993,12005 Trotwood in,Austin,TX,
134676,3121 Mccall Ln in,Austin,TX,
4185,1820 Wooten Park Dr. in,Austin,TX,
75260,1104 S. Meadows in,Austin,TX,
54942,2700 Jorwoods Dr. in,Austin,TX,
40553,10Th And Settlers Valley in,Pflugerville,TX,
55924,725 Airport in,Austin,TX,
84969,2931 Ellon in,Austin,TX,
38572,1410 Waldorf Ave in,Austin,TX,
80809,1196 Greenwood in,Austin,TX,
5270,6608 Johnnie Morris Cove in,Austin,TX,
129711,3406 Foothill Parkway in,Austin,TX,
77496,121 Sheraton Ave in,Austin,TX,
132689,104 E Oltorf in,Austin,TX,
109039,5810 Red River in,Austin,TX,
97740,54537 Tierra Alta Cir in,Austin,TX,
25611,8017 Tee Dr in,Austin,TX,
128539,13619 S. Turnersville in,Travis,TX,
48408,14200 Sandifer in,Travis,TX,
91919,"8301, Apt. A in",Austin,TX,
134345,71 & Catalina in,Austin,TX,
41367,9504 Roxanna Dr in,Austin,TX,
93965,9100 Slayton Dr in,Austin,TX,
15933,7814 Old Bee Caves Rd in,Travis,TX,
127828,2409 Burlson Court in,Austin,TX,
20442,2606 Berkett Dr in,Austin,TX,
28825,5424 Steiner Ranch Blvd in,Austin,TX,
114362,10301 Fm 2222 in,Austin,TX,
65173,12512 Treeline in,Austin,TX,
28637,1511 Cripple Creek in,Austin,TX,
13374,2017 Singing Brook in,Austin,TX,
25912,3703 River Road in,Travis,TX,
24427,7323 Dixie Rd. in,Austin,TX,
15071,1215 W Slaughter Ln in,Austin,TX,
102497,2112 Uphill in,Austin,TX,
139569,1100 E Oltorf St in,Austin,TX,
117475,2202 Dovehill Drive in,Austin,TX,
25840,5006 Heflin in,Austin,TX,
55126,5707 Exeter Dr in,Austin,TX,
120894,6305 Wild St in,Austin,TX,
44570,4900 St Elmo in,Austin,TX,
40228,7605 Craybrough Cir in,Austin,TX,
119464,2803 Ware in,Austin,TX,
121391,8840 Francia Trl in,Austin,TX,
51383,14221 Red Feather in,Austin,TX,
31530,1104 Crown Ridge Path in,Austin,TX,
9757,3312 South Pleasant Vally Rd in,Austin,TX,
127171,3520 Caldwell Ln in Del,Valle,TX,
80017,9839 Childress Dr in,Austin,TX,
121054,7403 E Riverside #29 in,Austin,TX,
126572,2000 Chatham Pl in,Austin,TX,
33677,12805 Buenos Aires in,Austin,TX,
64670,13002 Viento Del Sur in,Austin,TX,
31401,500 W North Loop Blvd in,Austin,TX,
18221,14650 Merrilltown in,Travis,TX,
24520,2425 Sunny Hills in,Austin,TX,
87170,2106 E Stassney in,Austin,TX,
56360,7005 Evelyn Rd in,Travis,TX,
57014,1800 Crystal Bend in,Travis,TX,
109633,900 Webberwood Way in,Travis,TX,
57380,903 N Meadows in,Austin,TX,
71018,7600 Nez Perce Trace in,Travis,TX,
57046,14730 N Ih 35 in,Austin,TX,
29313,1101 Wheatley in,Austin,TX,
5629,6805 Wentworth Dr #D in,Austin,TX,
131342,204 Cloudview in,Austin,TX,
12028,1211 Dobie Dr Unit A in,Austin,TX,
100624,6705 Kingspoint in,Austin,TX,
86503,10802 Cherry Hollow in,Travis,TX,
122512,1111 Kenyon Dr in,Austin,TX,
84228,10824 Gerald Allen Loop in,Austin,TX,
137615,5533 Burnet Rd in,Austin,TX,
57808,6102 Manor Rd in,Austin,TX,
17272,1707 Aggie Ln in,Austin,TX,
32002,24303 Sheephollow in,Travis,TX,
4259,8300 N Ih35 in,Austin,TX,
25816,201 Lavaca in,Austin,TX,
107507,9706 Hansford Dr in,Austin,TX,
55549,2516 Stassney in,Austin,TX,
112964,5513 Buffalo Pass in,Austin,TX,
49590,11009 Metric Blvd in,Austin,TX,
138959,1611 Quail Run in,Pflugerville,TX,
45964,17901 Powder Creek in,Travis,TX,
22565,510 E Koenig Ln in,Austin,TX,
73615,1817 Chasewood Dr in,Austin,TX,
57917,5700 Arcadia Circle in Del,Valle,TX,
119386,7201 Danwood Dr in,Austin,TX,
59457,7200 Duval in,Austin,TX,
81774,10409 Quail Ridge Drive in,Austin,TX,
2989,4719 Castleman in,Travis,TX,
102500,8600 Ranch Rd 620 N in,Austin,TX,
38193,2215 Post Rd in,Austin,TX,
26399,13513 Campasina Dr in,Austin,TX,
128226,4008 Lake Edge in,Austin,TX,
43920,3516 Savage Springs in,Austin,TX,
133029,5511 Tipton in,Austin,TX,
16029,2319 Rockridge in,Austin,TX,
49496,3024 Woodall in,Travis,TX,
1520,2615 Brindle Path in,Austin,TX,
66021,1340 Airport Commerce Dr in,Austin,TX,
108853,2200 E Stassney in,Austin,TX,
88511,12403 Mellow Meadow Dr in,Travis,TX,
48547,815 W. Slaughter in,Austin,TX,
40035,7804 Pheonix Pass in,Austin,TX,
13269,2502 E. Oltorf in,Austin,TX,
52601,1700 Tea Leaf Dr in,Travis,TX,
69003,1500 E Riverside Dr in,Austin,TX,
129438,12808 Crete in,Austin,TX,
121400,1142 Gunter in,Austin,TX,
136419,1600 Lancer Ln in,Travis,TX,
114678,2900 Guadalupe St in,Austin,TX,
107034,1012 Cripple Creek Dr in,Austin,TX,
62099,6705 Cruz St in,Austin,TX,
67136,6120 Speyside Dr in,Austin,TX,
81628,1015 Water in,Webberville,TX,
110291,1900 E Oltorf St in,Austin,TX,
107597,2300 Dove Springs in,Austin,TX,
62741,1715 W Cesar Chavez St in,Austin,TX,
142498,4400 Meadow Dr. in,Travis,TX,
82686,15210 Fagerquist Rd in,Travis,TX,
41154,3311 Gallop Cv in,Austin,TX,
134669,2101 Wood Acre in,Austin,TX,
21720,8511 Jamestown Drive in,Austin,TX,
109094,8511 Jamestown Dr in,Austin,TX,
44747,124 W. Anderson Lane in,Austin,TX,
128951,290 And Scenic Brook in,Austin,TX,
35881,2001 Crazyhorse Pass in,Travis,TX,
80232,2109 Trede Drive in,Austin,TX,
7200,3401 Goodwin in,Austin,TX,
106532,4630 Killingsworth in,Travis,TX,
100114,3701 Highland Dr in,Travis,TX,
1559,12315 Cabana Lane in,Austin,TX,
972,3227 E 5Th St in,Austin,TX,
120266,3900N I-35 in,Austin,TX,
42537,1618 Ashberry Dr in,Austin,TX,
94854,51St St And Berkman in,Austin,TX,
78426,2400 Trasher Ln in,Austin,TX,
28359,8509 Elroy in,Travis,TX,
64097,13613 Glen Creek Ct in,Travis,TX,
42540,1407 Karen Ave in,Austin,TX,
115349,615 E. Wonsley in,Austin,TX,
63367,2304 Berry Hill in,Austin,TX,
83645,1302 E William Cannon in,Austin,TX,
134915,8527 N Capital Of Texas Hwy in,Austin,TX,
115147,13000 Vizquel Loop in,Travis,TX,
42197,11610 Fruitwood Pl in,Austin,TX,
95502,6703 Woodhue Dr in,Austin,TX,
37011,1703 Ledgewood Dr in,Austin,TX,
103893,1050Bastrop Hwy Ne in,Austin,TX,
15295,1101 Wheatly Ave in,Austin,TX,
77009,10806 N Lamar in,Austin,TX,
118715,8105 Research Blvd in,Austin,TX,
67229,7925 Ragewood Lane in,Austin,TX,
112392,5405 Village Ln in,Austin,TX,
84875,17021 Hamilton Point Circle in,Manor,TX,
118619,8800 Hwy 290 West in,Austin,TX,
84698,1200 Treadwell in,Austin,TX,
64091,4821 E Riverside in,Austin,TX,
21714,203 Broadway St in,Austin,TX,
73846,11028 Jollyville Rd Apt 176 in,Austin,TX,
71514,12928 Latchwood Ln in,Austin,TX,
65804,8600 N Ih35 in,Austin,TX,
11278,3805 River Rd in,Travis,TX,
123897,12700 Saint Thomas in,Austin,TX,
7645,8600 N Fm 620 in,Austin,TX,
106549,7700 Northcrest Blvd in,Austin,TX,
65497,4434 Frontier Blvd in,Austin,TX,
87040,909 56Th Street in,Austin,TX,
26693,2214 Metcalfe Dr in,Austin,TX,
20931,1930 W Runberg Ln in,Austin,TX,
69027,2201 Riverview in,Austin,TX,
74540,303 E. Wild Senna in,Austin,TX,
82659,8760 Birmingham Dr in,Austin,TX,
83519,24422 W Hwy 71 in,Travis,TX,
137461,14001 Avery Ranch in,Austin,TX,
41309,4001 Mocha Trl in,Travis,TX,
81010,11708 Barchetta Dr in,Austin,TX,
100135,2300 Hwy 71 in Del,Valle,TX,
114707,6200 Ih 35 Sb in,Austin,TX,
108259,5001 Convict Hill Rd in,Austin,TX,
37843,12420 Jarrod Lee in,Austin,TX,
20059,2511 Rockridge in,Austin,TX,
110588,21315 Union Lee Church Road in,Manor,TX,
122959,21315Union Lee Church Road in,Manor,TX,
142826,15411 Ullman Dr in,Austin,TX,
73118,6210 Langham St in,Austin,TX,
128729,900 Vargas St in,Austin,TX,
44441,10503 Brownie #A in,Austin,TX,
19045,1500 Spyglass Dr in,Austin,TX,
117445,7315 Providence Ave in,Austin,TX,
109200,2804 Wilson St in,Austin,TX,
64098,15005 Lantern Dr in,Austin,TX,
132958,3420 Hovenweep in,Austin,TX,
33928,10228 Deer Chase Trl in,Austin,TX,
102245,2508 Howellwood Way in,Austin,TX,
38349,3902 Hawkshead Dr in,Austin,TX,
85468,2907 Glen Rd in,Austin,TX,
132632,3900 Alexandria Dr in,Austin,TX,
103738,4425 Lost Oasis Hollow in,Austin,TX,
60294,2402 Dove in,Austin,TX,
58076,8201 Linden Loop in,Travis,TX,
32147,3300 E. Martin Luther King Jr. in,Austin,TX,
7112,8000 Decker Ln. in,Austin,TX,
87160,11129 Seay St in,Travis,TX,
22431,4811 Aberdeen Dr in,Austin,TX,
82115,6200 Carnation Ter in,Austin,TX,
74275,103 Jennifer in,Austin,TX,
97118,11500 Brandon Parke Trl in,Austin,TX,
67756,10610 Longshire Dr in,Austin,TX,
142033,202 Saddlehorn Dr in,Travis,TX,
56831,13619 S Turnersville Rd in,Travis,TX,
66614,2201 Tallow Ct. in,Austin,TX,
35401,8801 N Fm620 #711 in,Austin,TX,
92872,1111 Lily in,Austin,TX,
23901,7132 W 71 Hwy in,Austin,TX,
128589,7410 Williamson Creek Dr in,Austin,TX,
133525,6Th St And Trinity in,Austin,TX,
24978,2417 National Park Blvd in,Austin,TX,
128784,2501 Ware Rd in,Austin,TX,
96251,1200 Buffalo Gap Rd in,Travis,TX,
138032,10001 Decker Ln in,Austin,TX,
128276,1911 Willow Creek in,Austin,TX,
95550,7114 N Ih 35 in,Austin,TX,
85706,7604 Providence Ave in,Austin,TX,
11932,2412 Wagon Crossing Path in,Austin,TX,
39051,8216 Research Blvd in,Austin,TX,
129776,11120 Maha Loop in,Travis,TX,
127607,2414B S Lamar Blvd in,Austin,TX,
130289,6109 Wier Hills Rd in,Austin,TX,
111843,15104 Bullace St in,Travis,TX,
131051,13100 Fm 1100 in,Manor,TX,
143206,2700 Montopolis Dr in,Austin,TX,
46997,1100 Northcape in,Austin,TX,
29443,611 W Croslin in,Austin,TX,
72782,14800 Fagrquist Rd in,Travis,TX,
39714,5555 Airport Blvd in,Austin,TX,
142510,10205 Fm N 620 in,Austin,TX,
85376,6305 E Riverside Dr in,Austin,TX,
94099,413 Mock Cherry in,Austin,TX,
20249,12401 Scofield Farms in,Austin,TX,
130184,10517 Mcangus Rd in,Austin,TX,
1376,11629 Timber Heights in,Austin,TX,
78164,8207 Canoga Ave in,Austin,TX,
50106,9024 North Gate in,Austin,TX,
43394,201 W St Elmo Rd in,Austin,TX,
32272,606 Candleberry Cir in,Pflugerville,TX,
132486,1202 Tartan Ln #B in,Austin,TX,
75804,1100 Windy Trl in,Austin,TX,
2984,2508 Sunny Hills in,Austin,TX,
34696,1601 E. Slaughter in,Austin,TX,
121272,10234 Research in,Austin,TX,
73895,6600 Antelope Cir in,Austin,TX,
73987,2803 E 14Th St in,Austin,TX,
135433,1720 Well Branch Pkwy in,Austin,TX,
19815,3902 Eton in,Austin,TX,
51574,2900 Wickersham Ln in,Austin,TX,
67618,3819 Southway Dr in,Austin,TX,
84713,300 N Lamar Blvd in,Austin,TX,
19967,12906 New Sweden Church Road in,Manor,TX,
91466,13191-13481 Farm To Market 973 in,Manor,TX,
43748,509 Montopolis Dr in,Austin,TX,
102494,810 East Slaughter in,Austin,TX,
36536,8402 Avocet Dr in,Austin,TX,
140777,2407 Berekeley Ave. in,Austin,TX,
11021,6005 Old Lockhart Rd. in,Travis,TX,
139864,1803 East Anderson Ln in,Austin,TX,
117943,4605 Lyons Rd in,Austin,TX,
96261,7106 Circle S in,Austin,TX,
143067,8821 Ingrid in,Manor,TX,
78677,11150 Research Blvd in,Austin,TX,
60930,514 Montopolis in,Austin,TX,
95028,9700 Carson Creek in,Travis,TX,
18502,1030 Norwood Park Blvd in,Austin,TX,
112653,3407 Wickham Lane in,Travis,TX,
11249,5900 Red Bud Ridge in,Austin,TX,
143185,1700 Teri in,Austin,TX,
66191,6958 Old Spicewood Springs Rd in,Austin,TX,
58690,2600 Circle Cove in,Austin,TX,
40515,1600 Payton Gin Rd in,Austin,TX,
80434,1135 Garland in,Austin,TX,
137981,4410 Sooner St in,Austin,TX,
125354,85 Pedernales in,Austin,TX,
110772,10402 Broken Shoe in,Austin,TX,
137233,8107 Ampezo in,Austin,TX,
14695,8108 Ferguson Cutoff in,Austin,TX,
48524,7717 Gilbert Ln in,Travis,TX,
89791,13413 James Monroe in,Manor,TX,
21393,8504 Remington Ln in,Austin,TX,
91818,4547 Edge Creek in,Austin,TX,
137962,5720 Manchaca Rd in,Austin,TX,
53292,3308 Hampton Rd in,Austin,TX,
126907,1941 Webberville Rd in,Austin,TX,
30534,9008 Galewood Dr in,Austin,TX,
134747,421 Thompson in,Austin,TX,
56503,2915 East 12Th Street in,Austin,TX,
37423,10701 Redmond Dr in,Austin,TX,
11164,7811 Burleson Manor Rd in,Manor,TX,
49356,8501 Mayview Dr in,Austin,TX,
40354,9019 Elroy Rd in,Travis,TX,
47601,2401 Rosewood in,Austin,TX,
36312,5309 Beckett Cir in,Austin,TX,
35308,12411 Turtleback Ln in,Austin,TX,
112205,15010 Parrish Ln in,Austin,TX,
93981,5105 S Pleasant Valley in,Austin,TX,
87039,7800 N Ih 35 in,Austin,TX,
110651,12202 Von Quintus Rd in,Austin,TX,
82264,10616 Mellow Meadows in,Austin,TX,
48950,9718 Eastwend in,Austin,TX,
10358,6202 Oliver Loving Trail in,Austin,TX,
77382,12003 Stoney Meadows in,Travis,TX,
61870,1430 Frontier Valley in,Austin,TX,
140875,11603 Gungrove Circle in,Austin,TX,
66752,12800 Turtle Rock in,Austin,TX,
95157,520 Woodward St in,Austin,TX,
85617,1925 American Dr in Lago,Vista,TX,
92068,3002 E 18 1/2 St in,Austin,TX,
87993,407 Lake Cliff Trail in,Austin,TX,
108144,500 Canyon Ridge Dr in,Austin,TX,
130133,4601 E St Elmo Rd in,Austin,TX,
118062,909 W 45Th St in,Austin,TX,
34331,2000 E Stassney Ln in,Austin,TX,
69508,7403 S Pleasant Valley Rd in,Austin,TX,
79730,12920-12934 Turnersville Rd N in,Travis,TX,
17269,1605 E 38Th 1/2 St in,Austin,TX,
22670,2500 Magin Meadow Dr in,Austin,TX,
46531,10612 Lanshire Dr in,Austin,TX,
48494,1001 Collinwood W Dr in,Austin,TX,
121879,2114 Williow St in,Austin,TX,
52416,7315 Providence in,Austin,TX,
45425,2507 Bitter Creek in,Austin,TX,
3942,1809 Tolstoy Cir in,Travis,TX,
118894,9011 Quail Valley in,Austin,TX,
131685,5517 Icon St in,Austin,TX,
132487,6101 Perlita in,Austin,TX,
136026,7504 Bennet Ave in,Austin,TX,
7679,2813 Castro in,Austin,TX,
137339,183 And Bolm in,Austin,TX,
95402,5504 Bolm Rd in,Austin,TX,
62427,4201 W Parmer Ln in,Austin,TX,
79326,13096 N 183 in,Austin,TX,
125773,13121 Spiersway in Del,Valle,TX,
86611,15008 Jacks Pond in,Austin,TX,
135946,5555 N Lamar Blvd in,Austin,TX,
39139,20802 Dawn Dr in Lago,Vista,TX,
45170,12227 Old Stage Trail in,Austin,TX,
131170,5317 Park At Woodlands in,Austin,TX,
54264,8300 Blk Colony Loop in,Austin,TX,
123777,7510 St. Cecilia in,Austin,TX,
50199,1611 Headway in,Austin,TX,
84050,4507 Caswell Ave in,Austin,TX,
22116,14503 Menifee St in,Austin,TX,
6074,708 Hyde Park in,Austin,TX,
94424,8702 Birmingham in,Austin,TX,
101069,13264 Pond Springs Rd in,Austin,TX,
138234,8Th & San Antonio St in,Austin,TX,
25088,1801 Fort View Dr in,Austin,TX,
37109,5601 Pinon Vista in,Austin,TX,
110160,12505 Campana in Del,Valle,TX,
116023,5502 Bevin Cove in,Austin,TX,
29024,2400 Wickersham Ln in,Austin,TX,
80889,8500 Lyndon Ln in,Austin,TX,
17262,200 W 4Th St in,Austin,TX,
137902,4610 Benson Way in,Travis,TX,
99860,290 And Shadow Glen Blvd in,Manor,TX,
94364,6602 Deatonhill in,Austin,TX,
137878,1640 Burton Dr in,Austin,TX,
101691,5203 Iron St in,Austin,TX,
41826,7401 Vinca Cir in,Austin,TX,
90870,4505 Magin Meadow in,Austin,TX,
65217,3713 Pevetoe St in,Austin,TX,
15126,6005 Melody Ln in,Austin,TX,
32881,2425 Ashdale in,Austin,TX,
99825,1700 Brassie St in,Austin,TX,
63941,6812 N Lamar in,Austin,TX,
21282,5140 China Garden Dr in,Austin,TX,
46862,2015 Peoples St in,Austin,TX,
27207,4200 Duval Rd in,Austin,TX,
11970,7201 Woodhollow Dr in,Austin,TX,
30296,600 S Lamar Blvd in,Austin,TX,
47927,4532 Clawson Rd. in,Austin,TX,
79195,14112 Bois D Ark in,Manor,TX,
76401,101 Hergotz Ln in,Austin,TX,
123708,973 And Hwy 71 in Del,Valle,TX,
14246,311 E. Croslin St in,Austin,TX,
57599,1027 Nile St. in,Austin,TX,
27771,2113 Pennsylvania Ave in,Austin,TX,
33170,2212 Greenwood Ave in,Austin,TX,
114412,2011 E 6Th St in,Austin,TX,
41707,7200 Ladybug in,Austin,TX,
30622,12304 Pleasant Hill Ct in,Austin,TX,
15087,4605 Whirlaway in,Austin,TX,
73006,6308 Laird Dr in,Austin,TX,
44529,1443 Coronado Hills Dr in,Austin,TX,
14944,1132 Denfield in,Austin,TX,
50899,18018 Fm 969 in,Travis,TX,
30666,6101 Landscape in,Austin,TX,
70892,5707 Northeast Dr in,Austin,TX,
95593,500 Mairo in,Austin,TX,
134317,615 W Slaughter Ln Apt 121 in,Austin,TX,
57524,8007 Dunn St in,Austin,TX,
54256,11507 Maha Loop in,Austin,TX,
73,1104 Durham Dr in,Austin,TX,
4652,12013 Swallow Dr in,Austin,TX,
92023,4821 E Riverside Dr in,Austin,TX,
99460,10025 Rutherford Ln in,Austin,TX,
46813,4805 Russet Hill Dr in,Austin,TX,
125234,4710 Carson Hill Dr in,Austin,TX,
28486,1500 City Park Road in,Austin,TX,
42736,4610 Borage Dr in,Austin,TX,
30620,4511 Lucksinger Ln in,Austin,TX,
66886,7603 Clydesdale in,Austin,TX,
31481,2102 E 10Th St in,Austin,TX,
44854,2505 W Parmer in,Austin,TX,
127730,12445 Alameda Trace Cir in,Austin,TX,
83491,1409 Walnut Ave in,Austin,TX,
65117,2813 Castro St in,Austin,TX,
99365,12805 Wooly Bucket Cv in,Travis,TX,
81962,3603 Ferguson Ln in,Austin,TX,
127453,600 Blueberry Hill in,Austin,TX,
50144,3208 Beanna St in,Austin,TX,
62026,1507 Rutland Dr in,Austin,TX,
44931,11803 Schriber Rd in Mustang,Ridge,TX,
71074,6509 Berkman #203 in,Austin,TX,
103077,6319 Parliamant A in,Austin,TX,
138957,7014 Elroy Rd in Del,Valle,TX,
42549,3601 S Pleasant Valley Rd in,Austin,TX,
118254,5909 Ponciana in,Austin,TX,
50679,37Th And West in,Austin,TX,
48237,8423 S 973 in,Travis,TX,
120554,2212 Greenwood in,Austin,TX,
100250,13902 Merseyside Dr. in,Pflugerville,TX,
33661,4409 Ave B in,Austin,TX,
20882,6600 Elm Creek #119 in,Austin,TX,
11232,6701 Burnet Rd in,Austin,TX,
28603,301 Twin Creeks Rd in,Travis,TX,
60336,6116 Ricky Dr in,Austin,TX,
130754,2405 Saratoga in,Austin,TX,
119890,12550 Metric in,Austin,TX,
26384,1704 Nelms in,Austin,TX,
1236,601 Harris Ave in,Austin,TX,
117522,1121 Spur St in,Austin,TX,
72383,1306 Bonnie Brae in,Austin,TX,
86938,3900 Run Of The Oaks in,Austin,TX,
136302,6910 Colony Loop in,Austin,TX,
51617,4801 Freidrich Ln #106 in,Austin,TX,
53374,3101 Caleb Dr in,Austin,TX,
26102,3300 Kissman Dr in,Austin,TX,
91177,7206 Forestwood Rd in,Austin,TX,
57662,5000 Lansing Dr in,Austin,TX,
50874,508 E Howard in,Pflugerville,TX,
122893,14506 Hartsmith Dr in,Austin,TX,
111553,2406 E Stassney Ln in,Austin,TX,
129039,7209 Wild Onion in,Austin,TX,
54877,8700 Brodie Lane in,Austin,TX,
118611,1408 E M Franklin in,Austin,TX,
98988,5400 Freidrich Ln in,Austin,TX,
15422,9705 Carson Creek in,Austin,TX,
120014,13201 Dessau Rd in,Austin,TX,
64148,6670 Commodore Cir in,Austin,TX,
25591,2111 Donahue Ln in,Austin,TX,
45289,1809 E 52Nd St in,Austin,TX,
77088,5705 Honyebee in,Austin,TX,
119450,3807 Ranch Road 620 N in,Austin,TX,
132647,13904 Merseyside Dr in,Pflugerville,TX,
120573,2324 Bitter Creek in,Austin,TX,
104908,4402 Quicksilver in,Austin,TX,
103731,4058 E Wonsley in,Austin,TX,
120454,7015 W Hwy 290 in,Austin,TX,
86681,14000 Hokanson Rd. in,Travis,TX,
25542,5516 Pine Place in,Austin,TX,
33601,5516 Pine Pl in,Austin,TX,
75879,2101 Jessie E Segovia in,Austin,TX,
70567,9205 Slaughter Ln in,Austin,TX,
10205,7615 Northview Ln in,Austin,TX,
18216,4330 N Lamar in,Austin,TX,
113082,2205 Holly St in,Austin,TX,
16906,2121 Rivena Dr in,Austin,TX,
51315,1010 South Meadows in,Austin,TX,
138214,6114 S 1St Street in,Austin,TX,
136916,7200 Twin Crest Dr in,Austin,TX,
70630,8714 Ridgehill Dr in,Austin,TX,
100331,1200 Vargas in,Austin,TX,
102724,1511 Faro Dr in,Austin,TX,
132256,14812 Avery Ranch Blvd in,Austin,TX,
38153,2101 Elmont Drive in,Austin,TX,
139416,1900 N Ih 35 Sb Service in,Austin,TX,
12214,1125 W Rundberg Ln in,Austin,TX,
126504,1105 Weathers Lane in,Austin,TX,
141675,1620 W 6Th in,Austin,TX,
32180,2244 And Creeks Edge Parkway in,Austin,TX,
29808,2205 S.L. Davis in,Austin,TX,
53504,7707 S Ih 35 in,Austin,TX,
67164,207 East Lola in,Austin,TX,
25267,7409 Elk Pass Dr in,Austin,TX,
21740,3406 Wickham Lane in,Austin,TX,
97394,5412 S 183 Hwy in,Travis,TX,
58151,17600 Blake Manor Rd in,Manor,TX,
136919,407 Cooper Dr in,Austin,TX,
127445,2807 Allison Drive in,Austin,TX,
131470,7500 S Pleasant Valley Rd in,Austin,TX,
132390,7824 Wisteria Valley Dr in,Austin,TX,
126670,4906 Birch Creek Rd in,Austin,TX,
112747,8505 Ruddington in,Austin,TX,
63071,7103 Dan Jean Dr in,Austin,TX,
88895,2505 Kumquat in,Austin,TX,
96115,1633 Royal Crest Dr in,Austin,TX,
67016,4403 Jinx in,Austin,TX,
107134,2305 Park Lane in,Travis,TX,
130070,2332 Wilson in,Austin,TX,
7417,420 West Slaughter Ln in,Austin,TX,
69262,11005 Pebble Garden Lane in,Austin,TX,
29104,2807 Allison Dr in,Austin,TX,
55972,1720 Grand Ave in,Pflugerville,TX,
78383,3908 Verano Dr. in,Austin,TX,
99541,2914 Castro in,Austin,TX,
104565,802 Park Blvd in,Austin,TX,
20416,4315 Hank Ave in,Austin,TX,
111964,3016 East 16Th in,Austin,TX,
12927,3810 South Way #101 in,Austin,TX,
93398,9500 Dessau Rd in,Austin,TX,
98523,4608 Whirlaway in,Travis,TX,
47758,1401 East Rundberg Ln in,Austin,TX,
49334,6004 Roxabury Ln in,Austin,TX,
21179,1401 Saint Edwards Dr in,Austin,TX,
11893,18500 Lake Crest Dr in,Jonestown,TX,
52301,2304 Wirtz Ave in,Austin,TX,
16074,701 Woodward St in,Austin,TX,
131080,2100 South Congress in,Austin,TX,
95395,4101 Smith School Road in,Austin,TX,
36621,11215 Prairie Dove Cir in,Austin,TX,
80350,6204 S 1St St in,Austin,TX,
77541,1400 E 51St St in,Austin,TX,
79803,7601 Daffan Ln #167 in,Austin,TX,
76761,8543 Adirondack Trl in,Austin,TX,
35005,8507 Birmingham in,Austin,TX,
9329,6800 Blue Dawn Trl in,Austin,TX,
91984,2605 Oaklawn Ave in,Austin,TX,
65961,404 E 6Th in,Austin,TX,
68586,1304 West Lakeland in,Austin,TX,
42934,304 Blackson Ave in,Austin,TX,
92448,1200 Montopolis Dr in,Austin,TX,
77829,6805 Wood Hollow in,Austin,TX,
37299,4700 East Riverside Dr in,Austin,TX,
50113,7105 Dan Jean Dr in,Austin,TX,
78408,14811 Bescott in,Austin,TX,
60158,3016 E 16Th St in,Austin,TX,
5140,21424 Ann Showers Dr in,Travis,TX,
79621,2110 Emmett Pkwy in,Austin,TX,
132227,1302 S 1St St in,Austin,TX,
84237,7200 Duval St in,Austin,TX,
88757,3201 E 16Th St in,Austin,TX,
41762,14608 Rumfeldt in Del,Valle,TX,
65131,2314 Wickersham in,Austin,TX,
135005,3401 Ledgestone in,Austin,TX,
72385,"7601, Unit 170 in",Travis,TX,
39733,2806 Burleson in,Austin,TX,
11425,1905 Cedar Ridge Dr in,Austin,TX,
15547,2338 Wilson St in,Austin,TX,
115359,4700 E Riverside Dr in,Austin,TX,
25259,3505 Montopolis #8 in,Austin,TX,
142484,1605 Goddard Bluff Dr in,Austin,TX,
27552,605 Masterson Pass in,Austin,TX,
106727,2601 Scofield Ridge Parkway in,Austin,TX,
100797,930 E Rundburg in,Austin,TX,
25852,183 And Bolm Rd in,Austin,TX,
115015,5105 Provencial in,Austin,TX,
49273,318 W. William Cannon in,Austin,TX,
16917,3800 N Mopac Expy in,Austin,TX,
81586,600 E Parsons St in,Travis,TX,
88666,13200 Field Gate in,Travis,TX,
80676,3218 Enfield Rd in,Austin,TX,
93718,4405 E Riverside Dr in,Austin,TX,
29839,229 Pedigree Dr in,Austin,TX,
74510,6704 Manchaca Rd in,Austin,TX,
6884,1700 Exposition Blvd in,Austin,TX,
71001,5701 S Mopac Expy in,Austin,TX,
25378,7203 Southwind Dr in,Austin,TX,
53412,2408 Rick Whinery Dr in,Austin,TX,
65203,94 San Saba in,Austin,TX,
50407,7100 Bluff Springs Rd in,Austin,TX,
92727,2921 E 12T St in,Austin,TX,
69095,9128 Texas Sun Dr in,Austin,TX,
34593,2009 Kirksey Dr in,Austin,TX,
125797,5402 Glissman in,Austin,TX,
30372,10511 Hibbs Ln in,Manor,TX,
40648,1314 Morgan in,Austin,TX,
13455,9800 Curlew Dr in,Austin,TX,
48374,12808 Topsail in,Manor,TX,
141963,5400 Williams in,Creedmoor,TX,
78606,6917 Mcneil Dr in,Austin,TX,
97249,5604 Southwest Pkwy in,Austin,TX,
132127,4601 Imperial Dr in,Austin,TX,
32172,7307 E Riverside Dr #31 in,Austin,TX,
36133,11425 Kingsgate in,Austin,TX,
118369,12Th/ Pleasant Valley in,Austin,TX,
123477,1100 Estes Ave in,Austin,TX,
120978,1512 W Braker Ln in,Austin,TX,
72624,7801 N Lamar in,Austin,TX,
8206,5720 Mcneil in,Austin,TX,
83204,2106 Walnut Ave in,Austin,TX,
136072,7107 Appaloosa Ct in,Travis,TX,
21713,6820 Crestone Rd in,Austin,TX,
90948,10204 Faylin Dr in,Austin,TX,
110491,7610 Islander in,Austin,TX,
3537,904 Wagon Trl in,Austin,TX,
31742,7501 Wynne Ln in,Austin,TX,
89859,4200 Duval in,Austin,TX,
30969,4200 Turnersville Rd in,Travis,TX,
123824,1855 Coronado Hills Dr in,Austin,TX,
18943,1907 Margalene Way in,Austin,TX,
80962,1841 Wooton Park in,Austin,TX,
85900,1841 Wootan Park in,Austin,TX,
15989,191 Canterbury Dr in,Austin,TX,
68311,12002 Thompkins Dr in,Austin,TX,
61540,517 S. Pleasant Valley Rd in,Austin,TX,
135914,5509 Tallow Tree Dr in,Austin,TX,
76080,15705 Debba Dr in,Austin,TX,
32144,2215 Mildred St in,Austin,TX,
54614,1333 Shore District Dr in,Austin,TX,
63626,5610 Colton Rd in,Austin,TX,
3965,10701 S. 1St Street in,Austin,TX,
58699,1101 Wheatley Avenue in,Austin,TX,
71180,1303 Parsons A in,Austin,TX,
38837,1308 Thornberry #62 in,Austin,TX,
19549,13101 Hwy 71 in Bee,Cave,TX,
80924,909 W Village Ln in,Austin,TX,
93906,8212 Sam Rayburn in,Austin,TX,
56537,10525 W Parmer Ln in,Austin,TX,
99590,2765 Lyons in,Austin,TX,
29061,8714 Fm 812 in,Austin,TX,
43764,110 Lanier Ranch Road in,Hays,TX,
31381,12401 Briarcreek Loop in,Manor,TX,
33369,2341 Corta St in,Austin,TX,
46463,7227 E Hwy 290 in,Austin,TX,
58352,9400 Mountain Quail in,Austin,TX,
15258,5408 Westminster Dr in,Austin,TX,
31062,9601 Point Dr in,Austin,TX,
670,9607 Hansford Dr in,Austin,TX,
141982,5660 N Interstate 35 in,Austin,TX,
19099,12325 in,Austin,TX,
86473,13408 Vizquel Loop in Del,Valle,TX,
59493,2327 Lavendale Ct in,Austin,TX,
62978,7601 Summervale in,Travis,TX,
3594,7209 Barnsdale in,Austin,TX,
125301,1104 Milrace Dr in,Austin,TX,
92842,4708 Rue Lefleur in,Austin,TX,
115687,1101 E Slaughter Ln in,Austin,TX,
31282,701 Center Ridge Dr in,Austin,TX,
9906,8500 Bargamin in,Austin,TX,
7944,1730 E Oltorf in,Austin,TX,
119490,303 Tawny Dr in,Austin,TX,
9956,4500 Meadow Dr. in,Bastrop,TX,
128611,5413 Evans in,Austin,TX,
32387,1510 E Martin Luther King Jr Blvd in,Austin,TX,
98913,5408 Manchaca Rd in,Austin,TX,
85974,8710 Southwick Dr in,Austin,TX,
65000,1312 Cometa St. in,Austin,TX,
20323,602 Springdale Rd. in,Austin,TX,
28728,1313 Mesquite Rd in,Austin,TX,
71102,8500 E Us Hwy 290 in,Austin,TX,
67014,117 Havana in,Austin,TX,
100177,1132 Lawson Ln in,Austin,TX,
93246,4808 Pewter in,Austin,TX,
64598,3706 Goodwin Ave in,Austin,TX,
116417,5326 #B East Hwy 71 in,Travis,TX,
36493,6504 Staghorn Cv in,Austin,TX,
23519,5413 Evans Ave in,Austin,TX,
126817,207 E Lola Dr in,Austin,TX,
22136,5222 Marymount Dr in,Austin,TX,
87786,14506 Hartsmith in,Austin,TX,
19641,715 East 8Th St in,Austin,TX,
23037,1111 Arthur Stiles Rd in,Austin,TX,
66865,4200 South Ih 35 in,Austin,TX,
83449,7301 Glenn Hill Rd in,Austin,TX,
96185,1413 Sanchez in,Austin,TX,
55030,7125 Howerington Circle in,Austin,TX,
111112,9520 Brown Ln in,Travis,TX,
76410,1827 Bitter Creek in,Austin,TX,
56729,11803 Schriber Rd in,Travis,TX,
35512,4719 Harmon Ave in,Austin,TX,
138611,5300 Thornwood in,Austin,TX,
40686,4511 E 71 in,Travis,TX,
33629,11809 Morning View in Del,Valle,TX,
122207,66212 Hondo Bend in,Austin,TX,
11720,1702 Loreto Drive in,Austin,TX,
101830,12507 Esplande in,Austin,TX,
6891,13233 Pine Needle St in,Manor,TX,
128884,8502 C Elroy Road in Del,Valle,TX,
92790,1109 Gemini Drive in,Austin,TX,
81791,6612 Hondo Bend in,Austin,TX,
103549,1000 Camino La Costa in,Austin,TX,
77023,1189 Angelina St in,Austin,TX,
62705,5705 Brook Valley in,Austin,TX,
3821,2222/ Boulder Ln in,Austin,TX,
23978,5212 Avenue H in,Austin,TX,
123685,2036 Desco Dr in,Austin,TX,
117658,1110 Westbank in West Lake,Hills,TX,
104465,911 Stoneoak Ln in,Austin,TX,
64904,1311 Fairbanks in,Austin,TX,
81201,5200 E Stassney in,Austin,TX,
7000,14000 Westall Street in,Austin,TX,
67940,5413 Evans Ave in,Austin,TX,
29165,10004 Gail in,Austin,TX,
132468,41St And Red River in,Austin,TX,
114513,8015 Running Water in,Austin,TX,
88769,9334 Lightwood Loop in,Austin,TX,
113465,15208 Fm 969 in,Travis,TX,
76671,14714 Colt Dr in,Travis,TX,
114026,6502 Hickman in,Austin,TX,
24763,7101 Appaloosa Ct in,Travis,TX,
61076,201 W Ben White in,Austin,TX,
64068,14000 Westall St in,Austin,TX,
117538,5901 Rickerhill Ln in,Austin,TX,
125262,3308 Thompson St in,Austin,TX,
85737,1203 Weatherford Dr in,Austin,TX,
21434,7307 E Riverside Dr #39 in,Austin,TX,
12967,14631 Branding Iron Pass in,Travis,TX,
131887,4902 Duval Road in,Austin,TX,
82710,2916 E. 14Th St. in,Austin,TX,
18471,5805 Waywood Rd in,Austin,TX,
127625,1900 Rossetti Dr in,Austin,TX,
89178,1704 Cedar Ave. in,Austin,TX,
116083,1017 N Meadows Dr in,Austin,TX,
51048,1017 N Meadowns Dr in,Austin,TX,
4610,10001 N 35 in,Austin,TX,
76131,6700 Krollton Dr in,Austin,TX,
60108,9805 Bal Harbor Rd in,Austin,TX,
51031,14714 Colt Dr in,Austin,TX,
23881,1855 S E Inner Loop in,Williamson,TX,
129853,1412 Choquete Dr in,Austin,TX,
124392,928 Melted Candle Cv in,Austin,TX,
132336,2200 Bitter Creek Dr in,Austin,TX,
125810,9001 Capitol Dr in,Austin,TX,
107062,13810 Randalstone in,Pflugerville,TX,
69686,9704 Chukar in,Austin,TX,
40742,14714 Colt Dr. in,Austin,TX,
22459,3374 Lake Austin Blvd in,Austin,TX,
19810,1103 Glass Dr in,Leander,TX,
70622,4902 Duval in,Austin,TX,
107264,1307 Glencrest in,Austin,TX,
120225,2204 Vanderbilt Ln in,Austin,TX,
74644,905 Mansell Ave in,Austin,TX,
51796,300 Bramble in,Austin,TX,
111890,4800 Shaw Ln in,Travis,TX,
92124,6808 Blue Dawn Trl in,Austin,TX,
19280,12445 Alameda Trace in,Austin,TX,
73983,4900 Navarro Creek Rd in Del,Valle,TX,
34814,6600 Elm Creek Drive in,Austin,TX,
80847,10614 Research Blvd in,Austin,TX,
77064,4801 Lott in,Austin,TX,
15956,17335 Bridgefarmer in,Travis,TX,
57614,7516 Nixon Lane in,Austin,TX,
17433,17335 Bridgefarmer Blvd in,Travis,TX,
10985,7308 Bucknell in,Austin,TX,
43980,2400 Ben White in,Austin,TX,
57515,1709 Texas 71 in,Austin,TX,
26356,5721 Alsace Trail in,Austin,TX,
46737,101 W Louis Henna Blvd in,Austin,TX,
125249,5800 Cougar Drive in,Austin,TX,
114159,3903 Clawson Rd in,Austin,TX,
105546,10630 Joseph Clayton Dr in,Austin,TX,
92118,1709 Norris Dr in,Austin,TX,
23532,11203 Hidden Bluff Dr in,Austin,TX,
76831,1508 South Port in,Austin,TX,
72474,16670 Round Mountain in,Travis,TX,
92902,7105 Wishing Well in,Austin,TX,
31854,7601 Daffen Lane in,Austin,TX,
16480,4701 Wirlaway Dr in,Travis,TX,
5997,11406 Santa Cruz Dr in,Austin,TX,
4367,9808 Oak Run Dr in,Austin,TX,
15871,9500 S. Chisholm Trail in,Austin,TX,
75820,9500 S Chisholm Trl in,Austin,TX,
52454,808 Gunter in,Austin,TX,
32213,8709 Old Manor Rd in,Austin,TX,
7669,7104 Berkman Dr in,Austin,TX,
89693,4103 North Ih-35 in,Austin,TX,
71210,4905 Prock Ln in,Austin,TX,
104974,1900 Cullen Ave in,Austin,TX,
61193,7000 Montana Dr in,Austin,TX,
44321,7125 Howerington Cir in,Austin,TX,
56391,1108 West Anne Drive in,Austin,TX,
110197,5907 Nancy in,Austin,TX,
48275,4005 Rocky Shore in,Travis,TX,
81462,9209 1625 Rd in,Austin,TX,
25983,7205 Squirrell Oak Cir in,Austin,TX,
64700,12207 Twin Creeks #B in,Austin,TX,
111657,4200 Greg Ward Ln in,Austin,TX,
50101,1401 Brighton Cir in,Austin,TX,
142973,6604 Evelyn Rd in,Austin,TX,
10060,7101 Texas 71 in,Austin,TX,
49509,2106 Conestoga in,Austin,TX,
22598,2213 Voyageurs Ln in,Austin,TX,
60296,1152 Shady Ln in,Austin,TX,
3266,13602 Fm 969 in,Austin,TX,
34216,4606 Federal Cir in,Austin,TX,
76970,208 Dry Creek Rd in,Manor,TX,
33363,1101 Springdale in,Austin,TX,
60611,2309 Berkeley #1085 in,Austin,TX,
128978,2036 Desco in,Austin,TX,
110115,1601 Black Willow in,Pflugerville,TX,
29821,2401 East 6Th St in,Austin,TX,
127360,12100 Park 35 Circle in,Austin,TX,
128553,15906 Windermere Dr in,Pflugerville,TX,
27845,6311 El Mirando in,Austin,TX,
85061,15100 Chamberlain Ct in,Travis,TX,
123209,11408 Cozette Dr in Del,Valle,TX,
43585,2814 Gonzales St in,Austin,TX,
41001,2518 Muirlands Dr in,Austin,TX,
109209,10707 Lake Creek Pkwy #82 in,Austin,TX,
102503,4800 Quick Silver in,Austin,TX,
80967,4800 Quicksilver Blvd in,Austin,TX,
109175,2600 Guadalupe St in,Austin,TX,
77101,1707 W. Braker in,Austin,TX,
86060,"2300, , Tx in",Austin,TX,
81939,818 North Meaddows in,Austin,TX,
6516,4903 D Fm 1327 in,Creedmoor,TX,
40621,16920 Hayride Cir in Del,Valle,TX,
19036,8502 Elroy in Del,Valle,TX,
88214,8503 El Rey Blvd in,Austin,TX,
115962,1708 Hydro Dr in,Austin,TX,
74936,7651 Trailside Estates in,Travis,TX,
57287,8803 Georgian Dr in,Austin,TX,
51093,3909 Becker Ave in,Austin,TX,
123322,3300 Parker Ln in,Austin,TX,
126224,1700 W Parmer Ln in,Austin,TX,
1709,4800 Quicksilver in,Austin,TX,
23157,4706 Santa Anna St in,Austin,TX,
58990,3856 Williamsburg Circle in,Austin,TX,
16392,183 & Lakeline in,Austin,TX,
14305,808 Eberhart Ln in,Austin,TX,
120820,1709 Matthews Ln in,Austin,TX,
105596,1020 E 45Th in,Austin,TX,
140200,4711 Hudson Bend Rd in,Austin,TX,
43023,177 Meadow View Blvd in Del,Valle,TX,
17177,2401 Apple Valley in,Austin,TX,
855,17701 Prairie Vebenia in,Travis,TX,
54995,10505 S 35 in,Austin,TX,
64512,8100 Sonnet in,Austin,TX,
67447,9205 North Dr in,Austin,TX,
99470,9303 Slayton Dr in,Austin,TX,
42773,12316 Fay Street in,Manor,TX,
117214,1501 Warrior Ln in,Austin,TX,
36499,1706 City Park Rd in,Austin,TX,
28223,717 Travis Green Road in,Austin,TX,
91106,2005 Tillery in,Austin,TX,
41134,501 183 in,Austin,TX,
15259,7106 Windrift Way in,Austin,TX,
40106,5000 Blue Bluff Rd in,Travis,TX,
126380,10713 Watchful Fox in,Austin,TX,
62356,8700 Brookfield in,Austin,TX,
42912,913 Yabers Ct in,Austin,TX,
54171,19406 Blake Manor in,Manor,TX,
89645,5926 Hammermill Run in,Austin,TX,
27364,11928 Stonehollow Dr in,Austin,TX,
91955,10606 Jean St in,Austin,TX,
61247,6204 Hyside Dr in,Austin,TX,
91809,1301 Crossing Place in,Austin,TX,
30824,8930 Galewood Dr.#218 in,Austin,TX,
5725,114 Mist Flower in,Pflugerville,TX,
13815,6600 Elm Crk Dr 69 in,Austin,TX,
97534,8827 Mountian Path Cir in,Austin,TX,
90867,6807 Blue Dawn in,Austin,TX,
133957,17703 Stacey Ln in,Travis,TX,
49383,2723 Citation Dr in,Travis,TX,
112824,6700 Cooper Ln 39 in,Austin,TX,
50202,6603 N Ih 35 #114 in,Austin,TX,
62052,7500 Ih 35 in,Austin,TX,
117153,6600 Manor in,Austin,TX,
62059,17709 Powder Creek Dr in,Manor,TX,
53048,7402 Vintage Hills in,Austin,TX,
106388,1403 Dominique Dr in,Austin,TX,
137751,1709 Jj Seabrook in,Austin,TX,
117086,12336 Laguardia Ln in Del,Valle,TX,
96613,501 Hwy 183 in,Austin,TX,
86458,3702 Counselor in,Austin,TX,
133185,106 Pecan Park Blvd in Cedar,Park,TX,
67134,2801 Wells Branch Pkwy in,Austin,TX,
39254,6575 Decker Lane in,Austin,TX,
53457,12202 Vonquintus Rd in,Austin,TX,
84372,9222 Burkland in Del,Valle,TX,
89765,1009 Vazquez St in,Austin,TX,
24481,6408 Burns St in,Austin,TX,
107163,12909 Fm 969 in,Austin,TX,
127195,9025 Sawtooth Ln. in,Austin,TX,
49924,9503 Quail Ct in,Austin,TX,
53642,7707 N Ih 35 in,Austin,TX,
80607,8513 Cobblestone in,Austin,TX,
119063,5720 Silver Screen in,Austin,TX,
47411,7404 Twin Crest in,Austin,TX,
9093,7Th And Neches in,Austin,TX,
75415,744 W William Cannon Dr in,Austin,TX,
132605,8626 Piney Creek Bend in,Austin,TX,
86240,9908 Thaxton Rd in,Austin,TX,
39968,2603 Reeves Cir B in,Austin,TX,
16680,14501 Reynero Ln in,Travis,TX,
72265,7 Espinosa in,Austin,TX,
12038,4536 Little Hill Cir in,Austin,TX,
117779,9322 Fm 812 in,Travis,TX,
59899,126 Airport in,Austin,TX,
126995,12009 Green Leaf Dr in,Travis,TX,
86964,21205 Paleface Vet in,Austin,TX,
138721,6828 Sabrina Dr in,Austin,TX,
3229,11512 Travis St in,Jonestown,TX,
24507,3108 Neal St in,Austin,TX,
121576,4801 Nuckols Crossing in,Austin,TX,
115030,911 S. 2Nd St. Side B in,Austin,TX,
140741,24609 Long Hollow Trail in,Travis,TX,
41523,5510 J F K in,Travis,TX,
16786,13001 Candlestick in,Austin,TX,
18402,1413 North Weston Lance in,Austin,TX,
124019,1000 E 41St St in,Austin,TX,
93698,9506 Springdale Road in,Austin,TX,
11686,2117 Beaver Pelt Cv in,Austin,TX,
123786,9616 Point Vista Pl Unit B in,Austin,TX,
66951,8208 Colony Loop Unit B in,Austin,TX,
15558,1600 Parkway in,Austin,TX,
142988,1614 Forest Trail in,Austin,TX,
115953,3309 Barksdale Drive in,Austin,TX,
6621,4702 Little Hill Circle in,Austin,TX,
28324,2002 Millhouse in,Pflugerville,TX,
38762,5208 Village Trl in,Austin,TX,
92401,10421 Hwy 183 S in,Austin,TX,
78356,4618 Blue Meadow Dr in,Austin,TX,
33698,12312 Havelock Dr in,Austin,TX,
43263,10442 Fm 812 in,Travis,TX,
82636,9300 S Interstate 35 in,Austin,TX,
123366,600 W Carrie Manor St in,Travis,TX,
77072,2318 Hartford Rd in,Austin,TX,
119107,10000 Peirce Ln in Cedar,Park,TX,
69768,3308 Elijah St in,Austin,TX,
126560,3308 Elija St in,Austin,TX,
100875,12349 Metric Blvd in,Austin,TX,
128369,9117 Anderson Mill in,Austin,TX,
48130,9414 N Lamar in,Austin,TX,
118818,3605 Steck Ave in,Austin,TX,
98640,13419 Imanuel in,Austin,TX,
46776,5605 Jacaranda Dr in,Austin,TX,
139803,5108 Gate Dancer Ln in,Pflugerville,TX,
15249,3822 Airport Blvd in,Austin,TX,
75623,11215 Prairie Dove in,Austin,TX,
112996,6994-7226 Spicewood Springs Rd in,Austin,TX,
116139,2525 W Anderson Ln in,Austin,TX,
77082,4017 Victory Dr Unit 123 in,Austin,TX,
116335,817 W Howard Lane in,Austin,TX,
133176,8407 Coulvrer in,Travis,TX,
58711,3001 Rae Dell in,Austin,TX,
31904,3407 Westside Cove in,Austin,TX,
142974,6804 Bitteroot in,Austin,TX,
1110,1405 Greenwood in,Austin,TX,
74894,2203 Hancock Dr in,Austin,TX,
94953,3001 Montopolis Drive in,Austin,TX,
59093,5315 Wellington Dr in,Austin,TX,
135044,8805 N Interstate 35 in,Austin,TX,
20588,14725 Lantern Dr in,Pflugerville,TX,
99464,7200 W Anderson Ln in,Austin,TX,
16268,6205 Aviary Cv in,Austin,TX,
140206,19905 Dos Amigo Dr in Lago,Vista,TX,
65328,9201 Circuit Of The Americas Blvd in,Travis,TX,
42099,12001 Dessau Rd in,Austin,TX,
31718,2315 Wickersham in,Austin,TX,
96872,1511 Betty Jo in,Austin,TX,
39214,11330 Farrah Ln in,Austin,TX,
76723,2110 Uphill Ln in,Austin,TX,
8025,1106 Algarita Ave in,Austin,TX,
84783,3702 Counselor Dr in,Austin,TX,
116351,5400 Friedrich Rd in,Austin,TX,
56802,1504 E 51St St in,Austin,TX,
28794,8904 Chisolm Ln in,Austin,TX,
90513,6700 Zequiel Dr in,Austin,TX,
8416,2005 E 21 in,Austin,TX,
136452,739 William Cannon Dr in,Austin,TX,
71679,2505 Dana Cv in,Austin,TX,
134384,7592 Chevy Chase Dr in,Austin,TX,
71272,2502 Dana Cv in,Austin,TX,
72904,11098 Fitzhugh Rd in,Austin,TX,
52213,5Th St/Comal in,Austin,TX,
11032,2000 N. Ih35 in,Austin,TX,
34197,7685 Northcross in,Austin,TX,
33302,7006 Appaloosa Ct in,Travis,TX,
98332,5Th St & I35 in,Austin,TX,
92659,17312 Lakewood Cir in,Travis,TX,
61023,3407 Dolphin in,Austin,TX,
121219,5300 Village Cv in,Austin,TX,
6932,3421 W. William Cannon #110 in,Austin,TX,
84495,3431 Willowrun Dr in,Austin,TX,
43038,8033 Gessner Dr in,Austin,TX,
10206,11701 Big Trail in,Austin,TX,
122571,1200 Frontier Valley in,Austin,TX,
67011,2214 Haskill St in,Austin,TX,
67668,7400 Loyola Ln in,Austin,TX,
68933,12836 Hwy 290 in,Manor,TX,
101463,1911 Williow Creek in,Austin,TX,
108114,2204 Airport Blvd in,Austin,TX,
12883,5502 Sapote Court in,Austin,TX,
135466,9620 Chukar Cir. in,Austin,TX,
41955,8225 Sam Rayburn Dr. in,Austin,TX,
1293,2003 Ouida Dr in,Austin,TX,
72287,8904 Chisolm Lane in,Austin,TX,
132684,2509 Elara in,Austin,TX,
5482,8101 Salt Springs Dr in,Austin,TX,
142467,7303 Manchaca in,Austin,TX,
83708,4701 Staggerbrush Rd in,Austin,TX,
95591,8504 Linden Loop in,Travis,TX,
39265,18709 Great Falls Dr in,Austin,TX,
30146,8510 Elroy Rd in,Travis,TX,
96544,7109 Walkup Ln in,Austin,TX,
10055,510 Hickory Ridge in,Travis,TX,
16989,1905 Hearthstone in,Austin,TX,
87222,8312 N Ih 35 in,Austin,TX,
122926,18649 Fm1431 in,Jonestown,TX,
30611,7239 Ellington in,Austin,TX,
18115,3300 Thompson St in,Austin,TX,
114913,7407 Wild Onion Drive in,Austin,TX,
127888,20300 Trappers Trail in,Manor,TX,
129844,4610 Norwood Lane in,Austin,TX,
10116,8507 Georgian Dr in,Austin,TX,
91764,3456 N Hills in,Austin,TX,
82715,6001 Brokenspoke Trl in,Austin,TX,
121369,4311 Small Dr in,Austin,TX,
135753,1000 Tillery in,Austin,TX,
39589,7517 Carver Ave. in,Austin,TX,
103584,7517 Carver Ave in,Austin,TX,
131363,4600 Prock in,Austin,TX,
115037,5016 Miller Ln in,Travis,TX,
116636,4712 E Yager in,Austin,TX,
90064,2220 Mission Hill Dr in,Austin,TX,
25232,3600 Sawmill Dr in,Austin,TX,
100808,2915 Aftonshire Way #2-203 in,Austin,TX,
37673,6706 Starcrest Ln in,Austin,TX,
20825,10502 Wendts Way in,Austin,TX,
98475,9402 Freight Ln in,Austin,TX,
45038,5701 Johnney Morris Road in,Austin,TX,
91246,12610 Brodie Ln in,Austin,TX,
53448,5700 Jfk in,Travis,TX,
43123,10Th And Red River in,Austin,TX,
72611,5701 S Mopac Apt 1813 in,Austin,TX,
28396,7801 Doncaster in,Austin,TX,
34397,3522 E Mlk in,Austin,TX,
108661,76 San Saba St in,Austin,TX,
123903,4500 Quicksilver in,Austin,TX,
143148,8339 Research Blvd in,Austin,TX,
133335,13005 Heinemann Dr in,Austin,TX,
122346,2013 Conestoga Trl in,Austin,TX,
21479,1804 Nightview Dr in,Pflugerville,TX,
2690,13005 Heinemann in,Austin,TX,
140531,9220 N 35 in,Austin,TX,
28464,2305 Mission Hill Dr in,Austin,TX,
66897,1401 Power Ln in,Travis,TX,
129114,7100 Outfitter Dr in,Austin,TX,
1568,9001 Tuscany Way in,Austin,TX,
32652,5341 Sendero Hills in,Austin,TX,
122433,24Th/ Longview in,Austin,TX,
38082,201 W 30Th in,Austin,TX,
22853,1300 E M Franklin in,Austin,TX,
75425,209 Turkey Run in,Travis,TX,
16358,802 S Ist St in,Austin,TX,
14954,9415 Mcneil Dr in,Austin,TX,
128084,8021 N Fm 620 in,Austin,TX,
51395,5504 Fern View Rd in,Austin,TX,
141958,1128 Spur St in,Austin,TX,
45433,515 Krebs Ln in,Austin,TX,
118984,9024 Northgate Blvd in,Austin,TX,
30874,8210 Edgemoor Pl in,Austin,TX,
113613,1044 Norwood Park Blvd in,Austin,TX,
126042,11102 Ptarmigan Dr in,Austin,TX,
84286,4912 W Francis Place in,Austin,TX,
59950,7800 Northcrest #102 in,Austin,TX,
27433,4411 Dovewood Dr in,Austin,TX,
108178,2401 S Lakeshore Blvd Unit 103 in,Austin,TX,
75498,10300 Larado Dr in,Austin,TX,
129907,2809 Parker Ln in,Austin,TX,
25671,10005 Shively Ln in,Austin,TX,
116454,5129 Cameron in,Austin,TX,
129941,5338 Thunder Creek in,Austin,TX,
9443,802 S 1St in,Austin,TX,
142639,7406 Onion Crossing in,Austin,TX,
42679,5304 Ranch Rd 2222 in,Austin,TX,
31079,1400 Braided Rope in,Austin,TX,
121346,3500 Crownover in,Austin,TX,
124307,12613 Belcara Place in,Austin,TX,
10469,833 Whitehall Dr in,Pflugerville,TX,
101046,4600 Reyes St in,Austin,TX,
674,1722 Colony Creek Dr in,Austin,TX,
68821,6109 Cougar in,Austin,TX,
133062,1136 Elanor St in,Austin,TX,
126959,15508 Sarah'S Creek in,Pflugerville,TX,
28216,821 Sirocco Dr in,Austin,TX,
102484,2612 Cockburn Dr. in,Austin,TX,
83263,8303 Coulver Rd in,Austin,TX,
39143,802 S 1St St in,Austin,TX,
56540,4707 Munson in,Austin,TX,
118434,7406 Onion Crossing Dr in,Austin,TX,
60525,20614 Moses Dr in,Travis,TX,
84148,1210 Coleto St in,Austin,TX,
90253,6210 E Ben White Blvd in,Austin,TX,
2092,23393 Nameless Rd in,Travis,TX,
121104,1205 Westmoor in,Austin,TX,
87851,7000 Montana St in,Austin,TX,
54243,6100 Kasper in,Austin,TX,
121955,1307 Southport in,Austin,TX,
93535,1109 Fiesta St in,Austin,TX,
66401,14212 Wells School Rd in,Travis,TX,
102256,8607 Cretys Cv in,Austin,TX,
30381,6111 Blarwood in,Austin,TX,
76583,5609 Glouchester in,Austin,TX,
104044,4707 Munson Ave in,Austin,TX,
14235,5361 Ih 35 Frontage Rd in,Austin,TX,
81378,1604 E 11Th St in,Austin,TX,
125912,1030 Norwood Park Boulevard in,Austin,TX,
118237,2305 E 7Th St in,Austin,TX,
42335,11303 Randy Rd in,Austin,TX,
100818,2610 S I-H-35 in,Austin,TX,
98314,1800 Patton Ln in,Austin,TX,
125972,4300 Nixon Ln in,Austin,TX,
26826,9940 Wading Pool in,Austin,TX,
41840,512 E. Annie Street in,Austin,TX,
9202,401 Tillery in,Austin,TX,
47078,800 W 38Th St in,Austin,TX,
136427,215 E 6Th Street in,Austin,TX,
92231,2213 Patsy Parkway in,Austin,TX,
129309,900 W Riverside Dr. in,Austin,TX,
123183,12118 Walnut Park Xing. in,Austin,TX,
20068,1139 Richardine Ave in,Austin,TX,
83821,21509 Cherry Hollow Trl in,Travis,TX,
2824,6806 Montana St in,Austin,TX,
112930,5505 Emerald Forest in,Austin,TX,
89610,50 Robert Martinez in,Austin,TX,
113574,1800 Patton Ln. in,Austin,TX,
3316,13006 Garfield Ln in,Austin,TX,
32946,11605 Gungrove in,Austin,TX,
50005,14934 Swiss Sr in,Travis,TX,
139850,4808 Brown Bark Place in,Austin,TX,
30035,8410 Garcreek Cir.#C in,Austin,TX,
132426,5824 Encinal Cv in,Austin,TX,
135360,11804 Highland Oaks Trl in,Austin,TX,
81818,7505 Calumet in,Austin,TX,
100991,1500 Crossing Place in,Austin,TX,
1655,6600 Cromarty Ln in,Austin,TX,
58203,2700 W Pecan in,Pflugerville,TX,
8598,12612 North Lamar Boulevard in,Austin,TX,
61849,11Th And Trinity in,Austin,TX,
28200,1520 Rutherford Ln in,Austin,TX,
105042,6800 Burnet Rd in,Austin,TX,
85378,14903 Bern Dr in Del,Valle,TX,
140434,110 Lessin Ln in,Austin,TX,
36790,1307 South Port in,Austin,TX,
63499,8808 Wildridge Dr in,Austin,TX,
58860,6101 Deridder Ct in,Austin,TX,
9491,404 Ralph Ablanedo in,Austin,TX,
55157,5404 Village Ln D in,Austin,TX,
25885,4100 Tannehill Ln in,Austin,TX,
83521,7612 Loganberry Dr in,Austin,TX,
45415,2200 Willow Creed Dr in,Austin,TX,
79206,13820 Fm 812 in Del,Valle,TX,
79700,5506 Teri Rd in,Austin,TX,
142741,1525 Barton Springs Rd in,Austin,TX,
124196,4105 Victory Dr in,Austin,TX,
122852,5400 N Lamar in,Austin,TX,
114518,307 Tamworth in,Austin,TX,
33013,4108 Nixon Ln in,Austin,TX,
109992,3000 University in,Austin,TX,
57674,183/ 71 in,Austin,TX,
3463,14906 Lucerne Dr in Del,Valle,TX,
20934,10953 Colonel Winn Loop in,Austin,TX,
35689,5107 Par Cove in,Austin,TX,
44473,2933 E 13Th St in,Austin,TX,
23797,744 W William Cannon in,Austin,TX,
49037,5411 Overbrook Dr in,Austin,TX,
10791,7329 Rhett Place in,Austin,TX,
94539,11807 Knights Brg in,Austin,TX,
79560,3000 E 51St St in,Austin,TX,
130325,1603 Future Dr #A in,Austin,TX,
122951,183 & Dessau in,Austin,TX,
139074,5300 Overbrook in,Austin,TX,
137003,1710 E Oltorf St #511 in,Austin,TX,
76144,90 N Ih35 in,Austin,TX,
110557,4108 Nixon Lane in,Austin,TX,
130643,2803 Loyola Ln in,Austin,TX,
79170,10317 Hibbs Ln in,Manor,TX,
119846,6000 Southwood Dr in,Austin,TX,
49653,6313 Del Monte Rd in,Austin,TX,
76072,1431 Wells Branch Pkwy in,Pflugerville,TX,
63862,14201 Vandever St in,Austin,TX,
143220,1109 Westlake Dr in,Austin,TX,
128099,305 S Congress Ave in,Austin,TX,
104197,6800 Trandeal Ln in,Austin,TX,
28387,8028 Gessner Dr in,Austin,TX,
52437,8413 Seminary Ridge Dr in,Austin,TX,
57158,3811 Leafield Dr in,Austin,TX,
133104,13941 Ashton Woods Cir in,Austin,TX,
18343,6207 Avery Island in,Austin,TX,
28334,3505 Crownover St in,Austin,TX,
6217,9102 Happy Trl in,Austin,TX,
143081,912 U.S. 183 in,Austin,TX,
116703,13 Club Estates in,Lakeway,TX,
22312,8801 N Fm 620 in,Austin,TX,
123150,2Nd Street And Pleasant Valley in,Austin,TX,
44442,8003 Caribou Parke Cv in,Austin,TX,
77254,11706 Wind Song Cv in,Austin,TX,
128635,11115 Estes in,Austin,TX,
101331,6101 Carnation Terr. in,Austin,TX,
34898,7020 Grand Canyon Dr. in,Austin,TX,
51049,5204 E Ben White Blvd in,Austin,TX,
131894,12508 Esplanade in,Austin,TX,
49431,7800 Forest Wood in,Austin,TX,
932,15Th And Colorado in,Austin,TX,
23662,1900 Deer Run in,Austin,TX,
140222,8409 Jamestown Dr in,Austin,TX,
29660,10000 N Lamar Blvd in,Austin,TX,
30016,17400 Rush Pea Cir in,Austin,TX,
45374,4344 Frontier Trl. in,Austin,TX,
44768,4434 Frontier Trl. in,Austin,TX,
45734,4400 Tannehill in,Austin,TX,
71356,6106 Hogan Ave in,Austin,TX,
49030,6700 Decker Ln. in,Austin,TX,
109441,3300 Killingsworth Way in,Pflugerville,TX,
23846,5603 Jfk Dr in,Austin,TX,
113661,8403 Cedar Elm in,Austin,TX,
72081,7520 Aspen Brook Dr in,Austin,TX,
1314,4310 Ramsey Ave in,Austin,TX,
114873,9111 Fm 812 in,Austin,TX,
61422,1239 Orchard Park Circle in,Travis,TX,
85808,207 E Lola in,Austin,TX,
95965,2200 Mission Hill #104 in,Austin,TX,
16049,2317 S Pleasant Valley in,Austin,TX,
60655,2504 Kumquat in,Austin,TX,
130618,6200 Wagon Bend in,Austin,TX,
15774,7101 Texas 71 D1 in,Austin,TX,
13646,6610 Fm 1327 in,Travis,TX,
131228,1105 Collinswood West in,Austin,TX,
6116,8106 Parmer Lane in,Travis,TX,
13377,11900 Hobby Horse Court in,Austin,TX,
62753,8225 Sam Rayburn in,Austin,TX,
128619,16419 Fm 969 Rd in,Travis,TX,
113359,3518 Malone in,Austin,TX,
66085,1200 Barbara Jordan in,Austin,TX,
135078,2001 Guadalupe St in,Austin,TX,
15477,6920 Carver in,Austin,TX,
6435,1301 Crossing Pl in,Austin,TX,
139049,17305 Pearce Ln in Del,Valle,TX,
46303,1104 Shady Ln in,Austin,TX,
42830,1618 Future Dr in,Austin,TX,
41603,10513 Hendon St in,Austin,TX,
53176,5200 Cloverdale Ln in,Austin,TX,
19089,21850 Blake Manor in,Travis,TX,
81409,12414 Beartrap Ln in,Austin,TX,
2422,2624 Piping Rock Trl in,Austin,TX,
90054,7019 Cooper in,Austin,TX,
56614,1600 Chicon St in,Austin,TX,
53289,9217 Simmons Rd in,Austin,TX,
24308,1306 Bob Harrison St in,Austin,TX,
61573,1700 Jj Seabrook in,Austin,TX,
2402,3737 Keats Dr in,Austin,TX,
43647,4900 Howard Ln in,Austin,TX,
117008,2109 Garden St in,Austin,TX,
52471,6701 One Oak Rd in,Austin,TX,
36290,8426 Goldfinch Ct in,Austin,TX,
52535,5505 Helen St in,Austin,TX,
51545,4800 Friedrich in,Austin,TX,
58201,1904 E 13Th St in,Austin,TX,
137290,8801 S Interstate 35 Frontage Rd in,Austin,TX,
117656,7901 E Ben White Blvd in,Austin,TX,
60003,9611 Mcneil Rd in,Austin,TX,
2333,7598 Chevy Chase Dr in,Austin,TX,
63086,6303 Morning Dew in,Austin,TX,
129799,400 Grove Blvd in,Austin,TX,
83875,2320 Webberville Rd in,Austin,TX,
65206,6117 Perlita in,Austin,TX,
127952,11304 Fletcher Hall Ln in,Austin,TX,
91971,16503 High Noon Rd in,Travis,TX,
114085,0000 Onion Creek Rd in,Austin,TX,
58710,908 W Meadowmere in,Austin,TX,
19899,6103 Manor Rd #118 in,Austin,TX,
76574,907 Bird Creek Dr in,Austin,TX,
120778,8908 Wagtail Cv in,Austin,TX,
50478,908 Galewood in,Austin,TX,
41794,6917 Mcniel Dr in,Austin,TX,
30948,3220 Duval Road in,Austin,TX,
79337,101 E 2Nd St in,Austin,TX,
845,5315 Ed Bluestein Blvd in,Austin,TX,
3027,314 Hackberry Ln in,Austin,TX,
76900,1148 Airport Blvd in,Austin,TX,
126982,8911 Trone Circle in,Austin,TX,
76882,818 N Meadows Dr in,Austin,TX,
10994,5500 Stuart Cir in,Austin,TX,
90115,1601 E Slaughter Lane in,Austin,TX,
809,14001 Avery Ranch Blvd in,Austin,TX,
44078,1211 Glen Summer Cv in,Austin,TX,
113880,7705 Metro Center Dr in,Austin,TX,
77270,183 And Loyola Ln in,Austin,TX,
124510,5405 S Pleasant Valley in,Austin,TX,
109786,2815 Guadalupe St in,Austin,TX,
86766,5207 Bogey Ct in,Austin,TX,
12025,7522 N Ih 35 in,Austin,TX,
50132,169 Segovia Way in,Pflugerville,TX,
141702,10702 Newmont Rd in,Austin,TX,
80911,1701 E Parmer in,Austin,TX,
23384,7506 Compass Dr in,Travis,TX,
22087,800 Grove Blvd in,Austin,TX,
96235,11901 Springwater Circle in,Austin,TX,
89284,6525 Moonglow Dr in,Austin,TX,
29327,"9301, Building 23 in",Austin,TX,
143160,4606 Reyes in,Austin,TX,
79927,13009 South Madrone in,Austin,TX,
102848,5805 Bull Creek Rd in,Austin,TX,
1452,54Th/Evans in,Austin,TX,
126831,8221 Coulver Rd. in,Travis,TX,
40876,12027 Bethel Church Rd. in,Travis,TX,
132866,5503 Wagon Trail Rd. in,Austin,TX,
10166,8108 Georgian Dr in,Austin,TX,
14392,4623 Credo Ln in,Travis,TX,
51253,1509 Sweet Leaf Ln in,Pflugerville,TX,
132071,2015 S Ih 35 in,Austin,TX,
72694,915 W 22Nd St in,Austin,TX,
39003,905 W 29Th St in,Austin,TX,
49576,1625 & 1327 in,Creedmoor,TX,
108887,4002 Kaywood Ct in,Austin,TX,
62521,6200 Middle Fiskville Rd in,Austin,TX,
10058,7403 West Gate Blvd in,Austin,TX,
25963,1800 Lavaca St in,Austin,TX,
46648,13205 Winecup Mallow Trl in,Travis,TX,
104269,5004 Parell in,Austin,TX,
39249,5300 Palo Blanco Ln in,Austin,TX,
120591,2428 W Ben White Blvd in,Austin,TX,
114039,14400 Harris Ridge Blvd in,Pflugerville,TX,
24092,3208 Accomac Dr in,Austin,TX,
32386,16701 N Heatherwilde in,Pflugerville,TX,
76438,11302 Mayo in,Austin,TX,
13728,12435 Dessau Rd#916 in,Austin,TX,
27455,5500 Duval St in,Austin,TX,
138633,9402 Donner in,Austin,TX,
108102,2300 Wagon Crossing Path in,Austin,TX,
137712,38Th And Duval in,Austin,TX,
14239,204 W Powell Ln in,Austin,TX,
59738,5001 Canella Dr. in,Austin,TX,
21851,5507 Bluebird in,Austin,TX,
15526,1705 Cuernavaca in,Austin,TX,
60252,200 Cedar Bend in,Austin,TX,
117627,1009 Webbwood Way in,Austin,TX,
133991,5701 Johnny Norris in,Austin,TX,
70623,14811 Chicadee Circle in,Travis,TX,
71538,5300 Thornwood Dr in,Austin,TX,
127978,6725 Cromarty Ln in,Austin,TX,
56055,4520 Felicity in,Travis,TX,
67586,7006 Bronco Ct in,Travis,TX,
136127,10303 Quail Ridge Dr in,Austin,TX,
7605,635 W Dittmar Rd in,Austin,TX,
28623,4516 Burleson Road in,Austin,TX,
47224,5Th St And Pedernales in,Austin,TX,
56728,1904 Poquito in,Austin,TX,
111517,1213 Lily Ter in,Austin,TX,
121947,1703 Olympus Dr in,Austin,TX,
57495,5201 Mathra Dr in,Austin,TX,
71793,11414 Ptarmigan in,Austin,TX,
33336,1807 Braker Ln in,Austin,TX,
120112,8121 Almondsbury Ln in,Austin,TX,
76304,21400 Ann Showers Dr in,Travis,TX,
100282,7403 Ophelia Dr in,Austin,TX,
107906,183 And Cameron Rd in,Austin,TX,
84845,24001 Pedernales Drive in,Travis,TX,
42678,1105 Echo Ln in,Austin,TX,
119918,10806 Plains Trl in,Austin,TX,
119423,1054 Springdale in,Austin,TX,
32037,2802 Webberville Rd in,Austin,TX,
107315,7201 Lake Charles in,Austin,TX,
45703,7581 Chevy Chase Dr in,Austin,TX,
72202,8110 Castle Peak Trl in,Austin,TX,
51163,6806 Santos St in,Austin,TX,
20234,6321 Vida Nueva in Del,Valle,TX,
87335,840 Interchange Blvd in,Austin,TX,
38505,420 W Fm1626 in,Austin,TX,
126355,2504 E Stassney in,Austin,TX,
73969,4901 Lexington Meadow Ln in Del,Valle,TX,
18547,903 Riddlewood in,Austin,TX,
109063,9610 Stonebridge in,Austin,TX,
110939,51St And Marymount in,Austin,TX,
67772,1701 Grand Ave Pkwy in,Travis,TX,
34674,1124 Rutland Dr in,Austin,TX,
53797,1200 E 51St in,Austin,TX,
125570,8612 Fireside Dr in,Austin,TX,
30251,4632 Mont Blanc Dr in,Travis,TX,
31816,4508 Duval Rd in,Austin,TX,
24058,3100 Prado St in,Austin,TX,
32277,2798 Windswept Cv in,Austin,TX,
126750,12601 Wayne Spur Lane in,Travis,TX,
58533,2008 E 11Th St in,Austin,TX,
65267,144 Escondido Dr in Del,Valle,TX,
45266,2725 Kickapoo Cavern Dr in,Pflugerville,TX,
120972,7200 Lenora St in,Austin,TX,
97779,1606 E 3Rd in,Austin,TX,
68114,3005 Birdwood in,Austin,TX,
133017,7201 Leavender Loop in,Austin,TX,
10659,1773 Wells Branch Pkwy in,Austin,TX,
17151,8120 Research Blvd in,Austin,TX,
62149,6600 Elm Creek Dr in,Austin,TX,
24320,1600 Grove Blvd in,Austin,TX,
6370,2204 Wirtz Ave in,Austin,TX,
88736,5901 N Ih 35 in,Austin,TX,
41018,1111 Red River St in,Austin,TX,
50177,1128 Spur in,Austin,TX,
136642,2204 Vandervielt in,Austin,TX,
31936,5507 Blue Bird Ln in,Austin,TX,
46410,1050 Springdale in,Austin,TX,
60498,14708 Varrelman in,Austin,TX,
31059,4522 Merle in,Austin,TX,
84336,8101 Wells Branch Pkwy in,Austin,TX,
94786,1000 San Marcos in,Austin,TX,