Index_ID,Address,City,State,Zipcode
23025,4600 Seton Center Parkway in,Austin,TX,
57870,9811 South Ih-35 in,Austin,TX,
115341,4713 Dorchester in,Austin,TX,
108518,1708 Holly Street in,Austin,TX,
112268,7302 Twin Crest Dr in,Austin,TX,
110257,4201 Monterrey Oaks Blvd in,Austin,TX,
104492,12805 Arroyo Doble Dr in,Travis,TX,
21273,11901 North Mopac in,Austin,TX,
133792,13711 Cambourne Drive in,Pflugerville,TX,
119151,1212 Vargas in,Austin,TX,
129170,12800 Harrisglenn Drive in,Austin,TX,
50016,14917 Jacks Pond Road in,Austin,TX,
81766,824 Fairfield Drive in,Austin,TX,
48365,14309 Highsmith in,Travis,TX,
58960,3505 South Lamar in,Austin,TX,
64172,7604 Lazy River Cv in,Austin,TX,
47869,15134 Sarahs Creek Dr in,Pflugerville,TX,
131640,14602 Rumfeldt St in,Travis,TX,
100179,6707 Creedmoor Drive in,Austin,TX,
72409,12302 Havelock Dr in,Austin,TX,
75176,8704 Airline Terrace in,Austin,TX,
110036,9811 Blocker Ln in,Austin,TX,
88847,1910 Wickshire in,Austin,TX,
4786,12202 N Mopac Expressway in,Austin,TX,
47035,3204 Fairfox Walks in,Austin,TX,
113219,4316 Bull Creek Rd in,Austin,TX,
48214,8913 Slayton Dr in,Austin,TX,
116277,2002 E 11Th St in,Austin,TX,
117746,3721 Ranch Rd 620 N in,Austin,TX,
64528,1703 Astor Pl in,Austin,TX,
40557,11502 January Drive in,Austin,TX,
88357,2239 S. Lamar in,Austin,TX,
22187,3101 Wells Branch in,Austin,TX,
58587,15128 Mandarin Xing in,Travis,TX,
95762,8225 Sam Rayburn Drive in,Austin,TX,
98015,11131-C Pinehurst Drive in,Austin,TX,
105135,1305 Tea Leaf Ln in,Pflugerville,TX,
118221,1221 West Ben White in,Austin,TX,
40447,3502 Needls Dr in,Austin,TX,
72931,2000 Conestoga in,Austin,TX,
108732,1200 Larkspur in,Austin,TX,
92125,6910 Colony Loop Drive in,Austin,TX,
94674,18413 Little Sky Dr in,Travis,TX,
22432,4701 S Ih 35 in,Austin,TX,
130489,1612 W. Braker Ln in,Austin,TX,
67214,3408 Autumn Bay Dr in,Austin,TX,
123996,601 E. 15Th St in,Austin,TX,
54192,1404 Cotton in,Austin,TX,
71819,16205 Hammilton Point Cir in,Manor,TX,
126576,3502 Needles Dr in,Austin,TX,
47691,8305 Burrell Dr in,Austin,TX,
61226,7808 Cottle in,Austin,TX,
42765,2508 E3 Riverside Dr in,Austin,TX,
140268,8128 N. Interstate 35 in,Austin,TX,
99538,414 E William Cannon in,Austin,TX,
103309,401 Little Texas #1634 in,Austin,TX,
36440,6011 Blue Bluff in,Travis,TX,
85125,4100 Westbank Dr in,Travis,TX,
31138,209 The Ranch Rd in Del,Valle,TX,
66014,2200 W 35Th St in,Austin,TX,
105575,813 Turtle Creek in,Austin,TX,
106525,5919 La Crosse Ave in,Austin,TX,
96024,7625 N Interstate 35 in,Austin,TX,
131322,1300 Thornridge Rd # A in,Austin,TX,
58975,11928 Rosethorn Dr in,Austin,TX,
47358,2600 Penny Lane in,Austin,TX,
128954,1411 Glencrest in,Austin,TX,
31917,4811 Santa Anna in,Austin,TX,
129444,116 Sabastians Run in,Austin,TX,
136461,2609 Willow St in,Austin,TX,
122146,720 Yarsa Blvd in,Austin,TX,
90971,13408 Briarcreek in,Manor,TX,
18439,5240 Mathra Dr in Del,Valle,TX,
30230,5702 Killingsworth in,Travis,TX,
113733,4609 Harmon Ave in,Austin,TX,
34758,2403 E 71 in,Austin,TX,
6031,38Th St And Ave B in,Austin,TX,
91273,2529 Rio Grande St in,Austin,TX,
124964,5935 Hammermill Run in,Austin,TX,
112761,1207 Southport #108 in,Austin,TX,
76053,1100 Debco Ln in,Travis,TX,
50701,16808 High Noon St in Del,Valle,TX,
4071,2906 Gem Circle in,Austin,TX,
111880,1203 Fort Branch Blvd in,Austin,TX,
128614,7625 N I H 35 in,Austin,TX,
117714,11153 Franklins Tale Loop in,Austin,TX,
47841,601 E 15Th St in,Austin,TX,
2973,2425 Ashdale #18 in,Austin,TX,
126709,1704 Colony Creek Dr in,Austin,TX,
32712,12500 S I-H-35 in,Austin,TX,
139026,12317 Calibri Lane in,Austin,TX,
5932,11413 Ptarmigan Dr #B in,Austin,TX,
135488,300 Lightsey Rd in,Austin,TX,
55335,11613 April Unit C in,Austin,TX,
40402,1000 Ellison in,Austin,TX,
64739,1100 Lily Terrace in,Austin,TX,
18946,3403 Needles Dr in,Austin,TX,
68023,4511 Ave B in,Austin,TX,
35164,1925 Airport Blvd in,Austin,TX,
70322,5608 Peppertree Pkwy in,Austin,TX,
91055,2409 Ventura Dr in,Austin,TX,
74838,510 W 26Th St #310 in,Austin,TX,
32137,4313 Acropolis Court in,Austin,TX,
124679,910 W Anderson Ln in,Austin,TX,
9396,5701 Johnny Morris Road in,Austin,TX,
1909,5400 East Ben White Wb in,Austin,TX,
14508,8400 Beech Drive in,Austin,TX,
86966,4611 Peach Grove in,Austin,TX,
142754,1216 Quail Field Circle in,Austin,TX,
38819,9910 Peterson Road in,Travis,TX,
84801,12407 Mossy Bark Trail in,Austin,TX,
61122,10420 Formith St. in,Travis,TX,
100730,200001 Harrier Flight Trail in,Pflugerville,TX,
90245,3638 Bee Caves Rd in West Lake,Hills,TX,
122330,1009 Apple Cross Drive in,Pflugerville,TX,
12303,12151 Ih 35 in,Austin,TX,
115751,9725 Lake Creek Pkwy in,Austin,TX,
63850,501 Deen Ave in,Austin,TX,
103605,7631 W Us Hwy 290 in,Austin,TX,
28738,2010 Goodrich in,Austin,TX,
140024,2707 Goldbridge Dr in,Austin,TX,
14829,2014 Karen Avenue in,Austin,TX,
139184,811 West Slaughter Lane in,Austin,TX,
115882,1107 Mission Ridge in,Austin,TX,
60385,7928 Gessner Dr in,Austin,TX,
54406,9800 Wading Pool Path in,Austin,TX,
13833,1200 Bonnie Brae in,Austin,TX,
104864,2800 E 2Nd St in,Austin,TX,
99833,12844 Buenos Aires Pkwy in Del,Valle,TX,
43301,11009 Amblewood Way in,Austin,TX,
42519,1710 S Pleasant Valley Rd in,Austin,TX,
99128,22132 Rose Grass Ln in,Travis,TX,
90302,600 W William Cannon Dr in,Austin,TX,
16201,7405 Mifflin Kennedy Ter in,Austin,TX,
50832,8904 Tronewood Dr in,Austin,TX,
21419,7204 Evelyn Road in,Travis,TX,
3543,7001 Craybrough in,Austin,TX,
109526,13201 Wild Turkey Drive in,Travis,TX,
94609,6707 Sandshof Dr in,Austin,TX,
3028,4404 Quicksilver Dr in,Austin,TX,
16319,7101 Daffan Ln in,Austin,TX,
13748,20439 Fm 969 in,Travis,TX,
119071,6202 Vera Ln in,Austin,TX,
48265,8101 Tapo Ln in,Austin,TX,
141323,12012 Mystic Forest Lane in,Austin,TX,
84329,5124 Abilene in,Austin,TX,
122342,1612 Buttercup Rd in,Travis,TX,
76597,18000 Gallant St in,Manor,TX,
86485,4703 Whirlaway Dr in Del,Valle,TX,
12976,3102 Collins Creek in,Austin,TX,
127005,10401 N Lamar Blvd in,Austin,TX,
21261,11752 Von Quintus in Mustang,Ridge,TX,
106663,12400 Hwy 71 W in,Austin,TX,
26596,7625 North Ih -35 in,Austin,TX,
89261,10405 Marietta Drive in,Austin,TX,
67916,1401 Manford Hill Dr in,Austin,TX,
67836,4320 S Lamar in,Austin,TX,
60338,5800 Sweeney Cir in,Austin,TX,
80123,205 The Cir in,Austin,TX,
23182,1109 Plymouth Dr in,Austin,TX,
107309,4710 Prock Lane in,Austin,TX,
137102,1841 Wooten Park Drive in,Austin,TX,
92216,1307 E 7Th St in,Austin,TX,
55100,10032 Woodland Village Dr in,Austin,TX,
27861,6312 Libyan in,Austin,TX,
20526,3101 Wells Branch Parkway #1513 in,Austin,TX,
64605,12800 Us-290 in,Manor,TX,
97614,1000 Ellingson Lane in,Austin,TX,
108772,3403 Cherrywood Rd in,Austin,TX,
20183,7209 Antoine Cirle in,Austin,TX,
20101,12320 Dessau Rd in,Austin,TX,
35300,7209 Antoine Circle in,Austin,TX,
95163,11125 Henge Dr in,Austin,TX,
137841,5210 Village Path in,Austin,TX,
17004,5408 Brompton Cir in,Austin,TX,
124758,5205 Provencial Dr in,Austin,TX,
126287,10001 Peterson Rd in Del,Valle,TX,
71540,12407 Mossy Bark Trl in,Austin,TX,
32592,4710 Prock Ln in,Austin,TX,
68035,901 E 50Th St in,Austin,TX,
36614,1100 W Rundburg Ln in,Austin,TX,
66678,1601 E Slaughter Ln #462 in,Austin,TX,
76395,7603 Onion Creek Dr in,Austin,TX,
70538,8540 Research Blvd in,Austin,TX,
35243,12404 Paloma Blanco Way in Del,Valle,TX,
25323,3505 S Lamar Blvd in,Austin,TX,
6770,7518 Compass Dr in,Travis,TX,
74109,13425 Wagon Way in,Travis,TX,
112066,4810 Avalon Ave in,Austin,TX,
45652,2507 E Riverside Dr in,Austin,TX,
104117,12312 La Guardia Ln in Del,Valle,TX,
80358,12312 Laguardia Ln in Del,Valle,TX,
13945,2200 Willow Creek Drive in,Austin,TX,
13653,8212 Barton Club Dr in,Travis,TX,
83030,1136 Map Cir in,Austin,TX,
123954,2016 Willow St in,Austin,TX,
54052,1301 Webberwood in,Travis,TX,
116705,1616 6Th Street in,Austin,TX,
129095,10003 Fm 969 in,Austin,TX,
30564,1203 Marcy Street in,Austin,TX,
96078,1101 1/2 Tillery St in,Austin,TX,
138631,9220 N Ih-35 in,Austin,TX,
27809,12306 Old Stage Cv in,Austin,TX,
58459,1009 Arthur Stiles Rd in,Austin,TX,
62254,4505 Imperial Dr in,Travis,TX,
104623,6518 Ed Bluestein Blvd in,Austin,TX,
57328,333 East Slaughter Lane in,Austin,TX,
54377,5544 Pine Pl in,Austin,TX,
27860,5704 Bitterwood Drive in,Austin,TX,
1027,9712 Brown Ln in,Austin,TX,
55772,15004 Hyson Crossing in,Pflugerville,TX,
62711,78748 S Chisholm Trl in,Austin,TX,
19143,9112 Anderson Mill Road in,Austin,TX,
70273,2303 E William Cannon in,Austin,TX,
56553,811 W Saint Johns Ave in,Austin,TX,
134631,11211 Tom Adams Dr in,Austin,TX,
120447,10217 River Plantation Dr in,Austin,TX,
6515,6902 Colony Park in,Austin,TX,
142791,183 & 812 in,Austin,TX,
42301,1133 1/2 Poquito Street in,Austin,TX,
142190,1209 Battenburg Trl in,Travis,TX,
37029,2104 E Cesar Chavez St in,Austin,TX,
120692,6500 Bee Cave in,Austin,TX,
141911,901 Springdale Road in,Austin,TX,
10455,4712 East Mlk Blvd in,Austin,TX,
55543,10603 Marias River Drive in,Austin,TX,
92795,14400 Vandever St in,Austin,TX,
90318,3810 Manchaca Road in,Austin,TX,
100045,12706 Europa Ln in,Austin,TX,
42506,16900 Jaron Drive in,Manor,TX,
27262,10001 Imperial Court in,Travis,TX,
82927,8404 Los Ranchos Drive in,Austin,TX,
72197,7200 Twisted Oaks Dr in,Austin,TX,
106429,7003 Alegre Pass in,Austin,TX,
97656,6804 Syracuse Cove in,Austin,TX,
42436,3520 Fitzroy Ave in,Austin,TX,
65383,1300 Redd St in,Austin,TX,
68678,14801 Vevey Dr in Del,Valle,TX,
127942,1311 Sierra Dr in,Austin,TX,
46358,1701 Webberwood Rd in,Webberville,TX,
132644,7112 Derby Downs Drive in,Austin,TX,
94639,3406 Sterling Heights Ct in,Travis,TX,
8621,4550 Mueller Park in,Austin,TX,
133448,2680 Anderson Mill in,Travis,TX,
80754,6000 Bluebell Cir in,Austin,TX,
131209,5345 N Ih35 in,Austin,TX,
69469,3304 Pecan Springs Rd in,Austin,TX,
36898,1014 Bird Creek in,Austin,TX,
36340,20602 Ed Acklin in,Travis,TX,
32978,11405 Hereford St in,Manor,TX,
83962,4011 S. 1St in,Austin,TX,
106910,7227 E Highway Us 290 Dr in,Austin,TX,
9066,18417 Plazaway in,Jonestown,TX,
30205,8557 Research Blvd #126 in,Austin,TX,
69780,11800 Byers Cv in,Austin,TX,
95560,9106 N Ih35 in,Austin,TX,
137055,6800 Westgate in,Austin,TX,
96841,7000 Cozette in Del,Valle,TX,
43151,10719 Doyle Overton Rd in Del,Valle,TX,
109510,1101 1/2 Tillery Street in,Austin,TX,
129370,4603 Preakness Dr in,Austin,TX,
128155,18017 Blake Manor Rd in,Travis,TX,
26877,7610 Cameron in,Austin,TX,
88909,10303 Golden Meadow Dr #A in,Austin,TX,
58018,10401 Weller Dr in,Austin,TX,
134592,6803 Lucy Cv in,Austin,TX,
86986,3410 Far West Blvd in,Austin,TX,
124819,3500 Susquehanna Ln in,Austin,TX,
34575,14412 Briarcreek Loop in,Manor,TX,
142531,1161 Harvey St in,Austin,TX,
25721,1149 Brookswood in,Austin,TX,
88002,18300 River Timber Dr in Del,Valle,TX,
22145,1407 West Stassney Lane in,Austin,TX,
25027,12001 Colt Drive in,Travis,TX,
64301,13208 Dime Box in,Austin,TX,
59362,3400 W Slaughter Ln in,Austin,TX,
49954,6804 Lucy Cove in,Austin,TX,
79028,810 Slaughter Ln in,Austin,TX,
89720,4701 Staggerrush Rd in,Austin,TX,
84664,4601 E Slaughter Ln in,Austin,TX,
29639,2400 E 10Th in,Austin,TX,
94995,107 Beaver in,Austin,TX,
78824,1804 Victoria Dr in,Austin,TX,
56985,6808 Mira Loma Ln in,Austin,TX,
111415,301 Navasota St in,Austin,TX,
107857,10400 Macmora Road in,Austin,TX,
61670,2213 Toulouse Dr in,Austin,TX,
84678,4502 Dovewood Dr in,Austin,TX,
23136,9802 Roxanna Drive in,Austin,TX,
94659,3921 W Palmer Ln in,Austin,TX,
83542,2530 Chaparral Trl in,Austin,TX,
29467,7104 Northeast Dirve in,Austin,TX,
125050,15307 1825 Rd in,Austin,TX,
8212,605 Canyon Rim Dr in,Austin,TX,
42988,12704 Quirin Dr in Del,Valle,TX,
35102,12900 N Ih 35 in,Austin,TX,
142260,15011 Mossycup Lane in,Austin,TX,
14325,812 Hwy And Piland Triangle in Del,Valle,TX,
2053,1200 East 52Nd Street in,Austin,TX,
43971,12600 Quirin Dr in Del,Valle,TX,
3145,15134 Sarah'S Creek Dr in,Pflugerville,TX,
52418,2505 Douglas St in,Austin,TX,
96675,3503 Rockhurst Ln in,Austin,TX,
38542,1200 Brita Olson in,Manor,TX,
46054,11309 Jack Rabbit Trl in,Austin,TX,
81578,6318 Shadow Bend in,Austin,TX,
120565,200 S Lamar Blvd in,Austin,TX,
6100,2207 E 10Th St in,Austin,TX,
75195,2015 E Riverside Dr in,Austin,TX,
64242,12114 Ballerstedt Rd in,Travis,TX,
14464,8605 Panadero Dr in,Austin,TX,
29216,1305 Webberville Rd in,Austin,TX,
80255,16231 Interstate 35 Frontage Rd in,Pflugerville,TX,
13156,8600 N Lamar Blvd in,Austin,TX,
19101,3606 Fm 1327 in,Travis,TX,
9148,21205 W 71 in,Austin,TX,
40689,7618 Lunar Dr in,Austin,TX,
27125,5106 Merritt in,Austin,TX,
107726,10013 620 N in,Austin,TX,
63229,1127 E 52Nd St in,Austin,TX,
106900,9603 Brown Ln Building A in,Austin,TX,
8281,10610 Morado Cir in,Austin,TX,
2123,13131 Pond Springs Rd in,Austin,TX,
4097,9009 Brown Ln in,Austin,TX,
113330,2928 Manor Rd in,Austin,TX,
135432,9206 Collinfield Dr in,Austin,TX,
46812,1309 Holly St in,Austin,TX,
127452,00000 Briarcliff in,Travis,TX,
126818,3810 Oak Springs Dr. in,Austin,TX,
67709,12700 Hill Country Blvd in,Austin,TX,
17267,7630 Wood Hollow Dr in,Austin,TX,
72772,1138 Poquito in,Austin,TX,
82803,6502 Ponca in,Austin,TX,
120746,2005 Prather Ln in,Austin,TX,
137861,7006 Kildare Cv in,Austin,TX,
139045,1014 Castle Rd in,Travis,TX,
50595,2203 Warfield Way in,Austin,TX,
118518,10504 Hibbs Ln in,Travis,TX,
95509,21 Waller St in,Austin,TX,
97638,7440 Ed Bluestein Blvd in,Austin,TX,
96731,901 W Ben White Blvd in,Austin,TX,
101395,2850 State Hwy 71 in,Travis,TX,
113037,4811 Prock Lane in,Austin,TX,
11251,13915 N Mopac Expy in,Austin,TX,
55650,1717 Teri Rd in,Austin,TX,
40552,4711 Castleman Dr in,Austin,TX,
4365,7506 Rolohan Ford Rd in Lago,Vista,TX,
136871,2601 E 7Th St in,Austin,TX,
59290,10709 Topperwein in,Austin,TX,
140670,730 W Stassney in,Austin,TX,
24771,1100 E Dean Keeton St in,Austin,TX,
83773,1177 Harvey St in,Austin,TX,
23800,1819 Quanah Parker in,Austin,TX,
123509,10200 N Lamar Blvd in,Austin,TX,
51613,16808 High Noon in,Austin,TX,
43114,10206 N I H 35 # B in,Austin,TX,
21398,1500 Village W Dr in,Austin,TX,
128740,2600 Willow St in,Austin,TX,
111203,2815 E Slaughter Ln in,Austin,TX,
14134,3426 Greystone Dr in,Austin,TX,
57295,5740 N Interstate 35 Frontage Rd in,Austin,TX,
98283,8522 N Lamar Blvd in,Austin,TX,
88117,2785 E. 7Th in,Austin,TX,
65625,9102 1/2 Happy Trl in,Austin,TX,
109675,8800 N Interstate 35 in,Austin,TX,
35136,7303 Trace Chain Drive in,Austin,TX,
128152,5006 Sara Dr in,Austin,TX,
141425,2222 Corta St in,Austin,TX,
113572,14221 Briarcreek Loop in,Manor,TX,
91200,3918 Knollwood Dr in,Austin,TX,
66993,6211 W William Cannon Dr in,Austin,TX,
76811,908 W Martin Luther King Jr in,Austin,TX,
135319,6910 Meador Ave in,Austin,TX,
72522,410 Blue Valley Dr in,Austin,TX,
82266,10000 Bock Rd in,Travis,TX,
55447,14510 Wells School Rd in,Manor,TX,
124596,3001 Cedar Street in,Austin,TX,
46157,18001 Powder Creek Dr in,Manor,TX,
119505,4407 Bucks Run A in,Austin,TX,
52542,12406 Burr Ridge Drive B in,Austin,TX,
92616,21700 Quail Valley Ct in,Travis,TX,
28507,12104 Sage Hen Cir in,Austin,TX,
104034,2010 Northridge in,Austin,TX,
140518,1101 1\2 Tillery St in,Austin,TX,
139425,5315 Harvest Ln in,Austin,TX,
78541,2515 Willow St in,Austin,TX,
2878,8713 Crest Ridge Cir in,Austin,TX,
120407,4711 Santa Anna St in,Austin,TX,
52333,10901 N Lamar Blvd in,Austin,TX,
16035,5701 S Mopac in,Austin,TX,
56790,4801 Cabob St in,Austin,TX,
53296,41St /Duval St in,Austin,TX,
92360,5904 E Stassney in,Austin,TX,
40265,"30 N I, Tx 78701 in",Austin,TX,
44856,24609 Long Hollow Trl in,Travis,TX,
40067,9415 Mountain Quail Road in,Austin,TX,
46045,5800 Techni Center Rd in,Austin,TX,
135779,3508 South 1St Street in,Austin,TX,
68518,2001 Wells Branch Parkway in,Austin,TX,
86226,5105 E Stassney Ln in,Austin,TX,
136786,5625 West Gate Blvd in,Austin,TX,
32123,1109 Valdez St in,Austin,TX,
35004,12621 Hymeadow Rd in,Austin,TX,
19453,6802 Aries Ln B in,Austin,TX,
38006,10106 Jupiter Hills in,Austin,TX,
81257,1106 Gunter Street in,Austin,TX,
131119,10418 Bilbrook Pl in,Austin,TX,
133015,5105 Coppermead Ln in,Austin,TX,
93208,9725 N Lakecreek Pkwy in,Austin,TX,
99135,1403 Ransom in,Travis,TX,
101797,1152 Tetbury Ln in,Austin,TX,
134171,2200 Denton Dr in,Austin,TX,
94532,8412 Horseshoe Ledge in,Austin,TX,
138499,3310 Northland Dr in,Austin,TX,
63913,3406 Manchaca Rd #A2 in,Austin,TX,
99351,7103 Townsborough in,Austin,TX,
96298,7017 William Wallace Way in,Austin,TX,
122896,5401 Prock Ln in,Austin,TX,
19855,12113 Briarcreek Loop in,Manor,TX,
105021,3100 Whitis Ave in,Austin,TX,
80239,700 Augusta Cir in Point,Venture,TX,
64924,11518 Ranch Rd 620 N in,Austin,TX,
74705,7504 Cedar Edge in,Austin,TX,
56530,9807 N Fm 620 in,Austin,TX,
87137,3210 Govalle in,Austin,TX,
101128,4800 Weletka Dr in,Austin,TX,
3601,56Th And Martin in,Austin,TX,
71334,6204 Blue Stem Trl in,Austin,TX,
84973,2812 Single Trace in,Austin,TX,
12770,9801 Stonelake Blvd in,Austin,TX,
97316,7712 Hidden Brook Ct in,Austin,TX,
7057,1400 S Congress Ave in,Austin,TX,
93192,1705 Elmira in,Austin,TX,
20836,9019 Elroy Road in,Travis,TX,
6298,11421 Flushwing Dr in,Austin,TX,
16210,8988 Elroy Rd in Del,Valle,TX,
117915,912 Cardinal Ln in,Austin,TX,
58051,1-35 And 183 in,Austin,TX,
128145,15709 Fm 812 Rd in,Austin,TX,
91237,1124 Rutland Dr #22 in,Austin,TX,
2706,714 W William Cannon in,Austin,TX,
77469,5824 Taza Trail in,Austin,TX,
109862,1208 Dexford in,Austin,TX,
56047,1001 Floradale in,Austin,TX,
14350,9505 Arboretum Blvd in,Austin,TX,
16420,13000 Fm 812 in Del,Valle,TX,
14680,1141 Nickols in,Austin,TX,
74084,9101 La Cresada in,Austin,TX,
39817,2612 Wheless Lane in,Austin,TX,
54711,1138 Cornel St in,Austin,TX,
80946,1709 East Hwy 71 in,Austin,TX,
122181,2106 Tower Dr in,Austin,TX,
138178,12100 Lima Drive in,Manor,TX,
71897,5405 S. Pleasant Valley Rd in,Austin,TX,
21010,1501 S Mopac Expy #300 in,Austin,TX,
88444,1301 Webberwood Way in,Travis,TX,
10603,11200 Research Blvd in,Austin,TX,
140660,11006 Jordan Lane in,Austin,TX,
22119,9100 Wagtail Dr in,Austin,TX,
142215,2412 Chateau Village Way in,Austin,TX,
123457,1819 Quanah Parker Trl in,Austin,TX,
60902,12903 Stonelake Blvd in,Austin,TX,
68955,10508 Georgian Dr in,Austin,TX,
49158,7502 Compass Dr in,Austin,TX,
32550,1148 1/2 Airport Blvd in,Austin,TX,
68613,5207 Brodie Ln in Sunset,Valley,TX,
18915,5304 Navarro Crk in Del,Valle,TX,
33284,9900 N Ih35 in,Austin,TX,
29035,9801 Metric Blvd in,Austin,TX,
66743,615 E Wonsley in,Austin,TX,
99038,12208 Cardinal Flower Dr in,Austin,TX,
122840,701 Woodward St 1026 in,Austin,TX,
40064,17Th And Nueces St in,Austin,TX,
55779,2903 Locke #B in,Austin,TX,
12588,2708 Francisco St in,Austin,TX,
113245,2608 Little John Ln in,Austin,TX,
78448,2509 Dovemeadow Dr in,Austin,TX,
120487,3900 S 1St St in,Austin,TX,
90163,804 Smoke Signal Pass in,Travis,TX,
70158,3536 Bee Cave Rd in,Austin,TX,
97771,5505 Rogers Lane in,Austin,TX,
11891,620 & 2222 in,Austin,TX,
44479,1111 Rutland Dr # 125 in,Austin,TX,
35026,12502 Tree Line Dr in,Austin,TX,
52263,1070 Mearns Meadow Blvd in,Austin,TX,
99534,7015 Hwy 290 in,Austin,TX,
124147,910 Wilks Ave in,Austin,TX,
14331,7800 Marble Ridge Dr in,Austin,TX,
17296,903 Spingdale Rd in,Austin,TX,
21367,7210 Providence Ave in,Austin,TX,
31696,9717 Hansford Dr in,Austin,TX,
35326,7304 Bar K Ranch Rd in Lago,Vista,TX,
44426,4210 S. Congress in,Austin,TX,
84395,5607 Fence Row in,Austin,TX,
132589,2324 E 2Nd St in,Austin,TX,
38229,11108 Renel Dr in,Austin,TX,
66641,12327 Little Fatima Ln in,Austin,TX,
28730,3120 Montopolis Dr in,Austin,TX,
20174,1315 W St Johns in,Austin,TX,
123172,8426 Goldfinch in,Austin,TX,
70134,708 San Antonio in,Austin,TX,
32253,3337 E 12Th in,Austin,TX,
93315,4603 Glade Line in,Austin,TX,
122382,1748 Ohlen Rd #98 in,Austin,TX,
81633,9119 Balcones Club Dr in,Austin,TX,
10490,9505 Stonelake Blvd in,Austin,TX,
106132,12370 Alameda Trace in,Austin,TX,
137447,2001 Bastrop Hwy in Del,Valle,TX,
53306,7201 Colony Loop Dr in,Austin,TX,
133089,14000 Big Sandy Cove in,Travis,TX,
90246,9418 Carson Creek Blvd in,Austin,TX,
26782,2815 Sissinghurst in,Austin,TX,
53401,11530 Manchaca in,Austin,TX,
139290,5707 N Dunlap Rd in,Austin,TX,
115806,12Th St And Salinas in,Austin,TX,
127038,2601 S Pleasant Valley in,Austin,TX,
29561,14802 Dobush Dr. in,Austin,TX,
21878,7535 U.S 290 Frontage Rd in,Austin,TX,
61700,1148 Miss Kimberlys in,Pflugerville,TX,
54557,8500 Evelyn Rd in,Austin,TX,
132599,15800 Panarama Court in Del,Valle,TX,
65288,708 E 51St St in,Austin,TX,
126342,4517 E Hwy 71 in Del,Valle,TX,
130579,10817 Ranch Rd 2222 in,Austin,TX,
138151,1007 S Congress Ave in,Austin,TX,
2395,900 N Fm 620 in,Austin,TX,
10582,1505 E 38Th 1/2 St in,Austin,TX,
134195,7002 Providence Ave in,Austin,TX,
20350,2515 Pine Place in,Austin,TX,
81875,8806 Redfield Ln in,Austin,TX,
62570,2504 New York Dr in,Austin,TX,
58322,5307 Gregg Ln in,Manor,TX,
83695,8515 Spearman Dr in,Austin,TX,
126726,16209 Parkway Dr. in,Pflugerville,TX,
57684,18706 Blake Manor Rd in,Manor,TX,
22868,8800 North Ih 35 in,Austin,TX,
9825,9309 Marsh Dr in,Austin,TX,
87320,2505 Bridle Path in,Austin,TX,
38679,12004 Green Leaf Dr in,Austin,TX,
72034,6929 Airport Blvd in,Austin,TX,
139009,4419 Barrow Avenue in,Austin,TX,
87934,9128 Texas Sun Drive in,Austin,TX,
3509,6801 Citadel Cv in,Austin,TX,
91566,6900 North Mopac in,Austin,TX,
47875,6107 Carnation Terrace in,Austin,TX,
15029,3601 Bee Caves Road in Bee,Cave,TX,
48672,34Th St And Guadalupe St in,Austin,TX,
88673,1215 W Slaughter in,Austin,TX,
81115,12908 Vineyard Drive in,Travis,TX,
83424,3000 Tradewind Dr in,Travis,TX,
114938,3816 S Lamar in,Austin,TX,
100144,15829 Ih 35 North in,Pflugerville,TX,
46150,9608 Brown Ln in,Austin,TX,
78193,703 Fletcher in,Austin,TX,
122464,750 Yarsa Blvd in,Austin,TX,
44663,11408 Tickford in,Austin,TX,
104355,11900 Stonehollow Drive in,Austin,TX,
25903,12410 Alameda Trace in,Austin,TX,
110999,704 East 45Th St in,Austin,TX,
70667,1902 Robbins Pl #A in,Austin,TX,
111401,4110 Guadalipe St in,Austin,TX,
107443,2119 Trede in,Austin,TX,
72135,1406 Demaret St in,Pflugerville,TX,
4269,14850 Harris Ridge Blvd in,Pflugerville,TX,
36248,5118 Meadow Creek Dr in,Austin,TX,
37415,1626 And S 1St St in,Travis,TX,
111797,5307 Gregg Ln in,Travis,TX,
52031,508 E Howard #591 in,Travis,TX,
28157,1610 Thornridge Rd in,Austin,TX,
118742,9Th St And Embassy Dr in,Austin,TX,
2932,2609 Howellwood in,Austin,TX,
46502,3700 Convict Hill in,Austin,TX,
15618,6118 Fairway St Apt A104 in,Austin,TX,
130763,1016 Bird Creek in,Austin,TX,
70823,204 San Marcos in,Austin,TX,
72946,4210 S Congress in,Austin,TX,
105539,600 River St in,Austin,TX,
16194,6600 Elm Creek Dr #169 in,Austin,TX,
1556,13350 Old Kimbro Rd in,Travis,TX,
11949,1213 Justin Ln in,Austin,TX,
77297,6710 Arroyo Seco in,Austin,TX,
132106,225 The Ranch Road in,Travis,TX,
91806,2121 Burton Dr in,Austin,TX,
43806,1445 Norseman Terrace in,Austin,TX,
65476,1912 E William Cannon Dr in,Austin,TX,
11388,2500 Collins Cv in,Austin,TX,
77317,7201 Levander Loop/Born In Shelter in,Austin,TX,
111525,2707 S Ih 35 Frontage Rd in,Austin,TX,
120762,916 East Koenig Lane in,Austin,TX,
56859,8518 Cahill Dr in,Austin,TX,
126271,6102 Garden View Dr in,Austin,TX,
1557,4001 N Lamar Blvd in,Austin,TX,
24244,12217 Tyson Cove A in,Austin,TX,
11447,2910 Medical Arts Street in,Austin,TX,
137316,1110 Peggotty in,Austin,TX,
34624,6802 Aries Ln #B in,Austin,TX,
69988,8000 Decker Ln #1524 in,Travis,TX,
50900,1401 E Rundburg Ln #130 in,Austin,TX,
66755,11313 Briar Creek Loop in,Travis,TX,
50671,1908 Newning Ave in,Austin,TX,
88681,1910 Valley Hill Circle in,Austin,TX,
124744,1773 Wells Branch Parkway in,Austin,TX,
83792,6505 Alleyton Dr in,Austin,TX,
120606,1101 Stonehollow in,Austin,TX,
44616,4501 Dudmar in,Austin,TX,
72305,2100 Wickersham in,Austin,TX,
114905,2001 E Riverside Dr #3 in,Austin,TX,
5807,2001 West Howard Lane in,Austin,TX,
42219,100 Congress in,Austin,TX,
58767,2507 Walter St in,Austin,TX,
142394,5Th St And Lamar in,Austin,TX,
84227,2003 Kenneth Ave #B in,Austin,TX,
30943,739 W Wm Cannon in,Austin,TX,
51882,1306 Clifford Ave in,Austin,TX,
134993,704 W Monroe in,Austin,TX,
122251,11317 Doyle Overton in,Travis,TX,
38441,5505 Catsby Ct in,Austin,TX,
121545,2015 Cedar Bnd #1400 in,Austin,TX,
99,14901 Mossycup Ln in,Travis,TX,
62134,609 W Slaughter Ln in,Austin,TX,
92655,16700 Trevin Cv in,Manor,TX,
13501,9511 Woodvale Dr in,Austin,TX,
24369,5934 Hammermill Run in,Austin,TX,
33910,1201 W Live Oak in,Austin,TX,
125381,200 E. 6Th in,Austin,TX,
85079,6301 Tiner Trail in,Austin,TX,
72778,7111 Shannon in,Austin,TX,
114391,2220 Duval Rd in,Austin,TX,
123714,4903 Fm1327 in,Creedmoor,TX,
95453,3612 Tudor Blvd in,Austin,TX,
32175,3206 East 16Th in,Austin,TX,
30507,3209 S Ih 35 Ln in,Austin,TX,
37468,6800 St. Stephens Sch in,Austin,TX,
115826,5002 Nuckols Crossing Rd in,Austin,TX,
115457,1011 W 25 1/2 Th St in,Austin,TX,
67686,1406 W Braker Ln in,Austin,TX,
15182,40 S. Ih 35 #Pd4 in,Austin,TX,
46855,1502 Sage Brush in,Austin,TX,
96761,4905 Misty Slope Ln in,Austin,TX,
12203,13408 Anacapo Cove in,Austin,TX,
118457,1608 Peridot Rd in,Travis,TX,
10259,12407 Mossy Bark Tr in,Austin,TX,
18255,1412 Norseman Ter in,Austin,TX,
26000,7707 S Ih 35 Nb in,Austin,TX,
136568,21405 Lonesome Ct in,Leander,TX,
101699,1601 E. Slaughter Ln. #83 in,Travis,TX,
140455,13408 Anacapo Cv in,Austin,TX,
56441,2306 Wickersham Ln in,Austin,TX,
120493,16308 Edgemere Dr in,Pflugerville,TX,
21501,903 Fieldwood Dr B in,Austin,TX,
61971,1406 Smith Rd in,Austin,TX,
87628,3100 E 4Th St in,Austin,TX,
105549,84 Robert Martinez Jr St in,Austin,TX,
17091,301 W. Riverside in,Austin,TX,
53337,1804 Wildrose Dr in,Austin,TX,
76549,9707 Taylor Ln in,Travis,TX,
89570,1806 W Parmer Ln in,Austin,TX,
132503,1607 Cricket Hollow Dr in,Austin,TX,
94805,5003 Coffee Cup Cv in,Austin,TX,
60102,4001 Prairie Ln in,Austin,TX,
84466,400 Delmar Ave in,Austin,TX,
125043,13304 Wright Rd in,Travis,TX,
13714,1201 E 6Th St in,Austin,TX,
25856,5Th And Chicon in,Austin,TX,
96424,6301 W. Slaughter in,Austin,TX,
79141,13229 Coomes Dr in,Austin,TX,
51725,13229 Coomes Dr in Del,Valle,TX,
37405,600 E 53Rd St #101 in,Austin,TX,
56433,11605 Old Lockhart Rd in,Travis,TX,
5600,4211 Turnersville in,Travis,TX,
47004,401 E 23Rd St in,Austin,TX,
76771,7902 Linden Rd in,Austin,TX,
69271,4600 Mueller Blvd in,Austin,TX,
90471,12215 Tyson Cv in,Austin,TX,
113723,11911 Burnet Rd in,Austin,TX,
21582,9310 Spectrum Dr in,Austin,TX,
104327,11629 C Old Lockhart Rd in,Travis,TX,
72410,14513 Jacobson Rd in Del,Valle,TX,
142507,6304 Hillside Terrace Dr in,Austin,TX,
34859,8909 Burnet Rd in,Austin,TX,
23706,1304 Mckie Dr #110 in,Austin,TX,
62725,6310 Del Monte Rd in,Austin,TX,
19883,2510 Lehigh in,Austin,TX,
81934,5400 Ih 35 Svrd Sb in,Austin,TX,
65438,7709 Whitsun in,Austin,TX,
136851,5405 Jeffburn Cove in,Austin,TX,
23834,6001 Turnstone in,Austin,TX,
24575,17902 Austin Blvd in Lago,Vista,TX,
89948,1616 Royal Crest in,Austin,TX,
14882,2302 Bahama Rd in,Travis,TX,
23321,1505 New York Ave in,Austin,TX,
126984,100 Taylor Ranch Rd in,Austin,TX,
5855,1030 Atkinson in,Austin,TX,
23435,1015 E 10Th St in,Austin,TX,
65805,9600 Bilbrook Pl in,Austin,TX,
107243,6816 Williamette Dr in,Austin,TX,
110331,12700 Mystic Dr in,Travis,TX,
11632,2510 Lehigh Drive in,Austin,TX,
117877,4408 Jinx Ave in,Austin,TX,
105303,1119 Gunter St in,Austin,TX,
104547,5000 Spruce Circle in,Austin,TX,
59445,3622 Manchaca Rd in,Austin,TX,
56037,1223 Corona Dr in,Austin,TX,
54110,425 Sweeney Lane in,Austin,TX,
84103,1816 Adina St in,Austin,TX,
28023,1109 Wagon Trail in,Austin,TX,
112463,3401 West Parmer Lane in,Austin,TX,
100614,2602 Lehigh Dr in,Austin,TX,
17357,18309 Great Falls Dr in,Austin,TX,
26901,5412 Atascosa in,Austin,TX,
51659,6311 Waynesburg Cv in,Austin,TX,
24556,810 E Slaughter Ln 9102 in,Austin,TX,
116376,3601 Lawton Ave in,Austin,TX,
47362,4512 Caldwell in,Travis,TX,
108449,10107 Rescharch Blvd in,Austin,TX,
127211,2215 Town Lake Cir in,Austin,TX,
16679,8204 Sam Rayburn #1 in,Austin,TX,
47117,14506 Varrelman St in,Travis,TX,
84102,10229 Misselthrush in,Austin,TX,
120239,7707 Williamson Crk in,Austin,TX,
114496,7000 Comanche Trl in,Travis,TX,
86307,2302 Bahama Rd in,Austin,TX,
6783,1504 Man O War in Del,Valle,TX,
1563,18617 Ulysses S Grant in,Travis,TX,
101194,2510 Lehigh Dr in,Austin,TX,
81336,6010 East Riverside Drive in,Austin,TX,
33768,7113 Southbrook Drive in,Austin,TX,
139694,7205 East Meadow Bend in,Austin,TX,
84118,4328 Airport Blvd in,Austin,TX,
28355,28Th And West Salado in,Austin,TX,
14562,6803 Lucy Cove in,Austin,TX,
102769,7502 Carver in,Austin,TX,
130867,973 & 183 in,Travis,TX,
99018,10300 Brownie Dr in,Austin,TX,
56014,24404 Cottonwood Dr in,Travis,TX,
112713,8776 Research Blvd in,Austin,TX,
47693,12Th/ Airport in,Austin,TX,
133064,2633 Alcott Ln in,Austin,TX,
137647,7710 Cameron Rd in,Austin,TX,
85173,2601 Scofield Ridge Pkwy in,Austin,TX,
75988,1112 W Slaughter in,Austin,TX,
33549,701 E 11Th St in,Austin,TX,
63141,9707 Point Vista Dr #B in,Austin,TX,
101219,1914 Hearthside Dr in,Austin,TX,
106094,5408 Magdalena Dr in,Austin,TX,
26861,8200 Cameron Rd in,Austin,TX,
54392,9910 Stonelake in,Austin,TX,
84024,7000 Colony Loop in,Austin,TX,
85011,4704 Mesa Oaks in,Austin,TX,
7447,12425 Mellow Meadow in,Austin,TX,
141527,12800 Pearce Lane in Del,Valle,TX,
88489,1435 Salem Meadows Cir in,Austin,TX,
21051,14811 Bescott Dr in,Austin,TX,
86865,6500 Springdale Rd in,Austin,TX,
60447,2425 East Riverside Drive in,Austin,TX,
92195,9801 Clover Drive in,Austin,TX,
74732,5129 Comeron Rd in,Austin,TX,
94594,2705 Wilcrest Dr in,Austin,TX,
120056,845 N Meadows Dr #A in,Austin,TX,
5857,913 N Meadows in,Austin,TX,
76797,1201 S Capital Of Texas Hwy in,Austin,TX,
31323,3704 Kandy Dr in,Austin,TX,
19389,5305 Martin Ave in,Austin,TX,
21455,7005 Twin Crest in,Austin,TX,
21150,2220 Mission Hill #101 in,Austin,TX,
52777,3505 S Lamar in,Austin,TX,
92697,16804 High Noon in,Travis,TX,
40033,6008 Palm Circle in,Austin,TX,
3226,6600 Middle Fiskville Rd in,Austin,TX,
116877,2302 Bahama Road in,Austin,TX,
66449,2301 Lake Austin Blvd in,Austin,TX,
29324,1219 S Lamar Blvd in,Austin,TX,
35738,11601 N Lamar Blvd in,Austin,TX,
63688,12118 Walnut Park #828 in,Austin,TX,
106529,8721 Alum Rock in,Austin,TX,
117587,131 Stone Crest Blvd in,Travis,TX,
120854,7400 Thomas Springs Rd in,Travis,TX,
104525,11608 Oak Haven Cv in,Austin,TX,
7005,3702 Mims Cv in,Austin,TX,
78684,12901 N Ih-35 in,Austin,TX,
62800,13916 Maha Road in,Travis,TX,
132839,1845 Burton Drive in,Austin,TX,
23118,2316 Bahama Rd in,Austin,TX,
107103,5803 Bitterwood in,Austin,TX,
104341,3505 Lakeland Dr in,Austin,TX,
55762,101 Lakeway Drive in,Austin,TX,
34107,1723 Pine Knoll in,Austin,TX,
44781,8500 Blk Vantage Point Drive in,Austin,TX,
72421,6915 Shannon Dr in,Austin,TX,
112045,13625 Campesina Dr in,Austin,TX,
115016,2101 Arpdale St in,Austin,TX,
19640,1123 Ebert Ave in,Austin,TX,
65524,14815 Johnson Road Trl in,Travis,TX,
67858,2004 Conestoga Trl in,Austin,TX,
42268,14511 Sandy Side Drive in,Travis,TX,
120881,1105 Jewell St in,Austin,TX,
9726,11225 Slippery Elm Trl in,Austin,TX,
13627,512 Eberhart Ln in,Austin,TX,
14290,1208 Eleanor Drive in,Austin,TX,
31651,1421 Anise Drive in,Austin,TX,
54228,8607 Swanson Ln in,Austin,TX,
76351,1228 Eleanor St in,Austin,TX,
41649,2715 Santa Rosa in,Austin,TX,
9379,5757 Palo Blanco in,Austin,TX,
100375,18349 Basket Flower Bnd in,Travis,TX,
23047,71 & Presidential Blvd in,Austin,TX,
32100,4400 Meadow Dr in,Travis,TX,
58021,3815 Maplewood in,Austin,TX,
34299,2104 Rabb Rd in,Austin,TX,
26372,519 Academy Dr in,Austin,TX,
114884,8714 Fm 812 in,Travis,TX,
126409,14601 Reynero in,Travis,TX,
110477,2301 Bahama Rd in,Austin,TX,
42061,8989 N Research Blvd in,Austin,TX,
111772,2735 E 7Th St in,Austin,TX,
62137,1007 Rundberg Ln in,Austin,TX,
129876,6018 Ponca St in,Austin,TX,
89609,13813 Lampting Dr in,Pflugerville,TX,
38066,1904 Nueces St in,Austin,TX,
100192,7900 Persimmon Trl in,Austin,TX,
49512,1111 Montopolis Dr in,Austin,TX,
92607,10706 N Mopac Expy in,Austin,TX,
136054,9222 Burklund Farms Rd in Del,Valle,TX,
4043,1205 Oltorf in,Austin,TX,
45456,7333 Wolverine St. in,Austin,TX,
79756,5206 Joe Sayers Ave in,Austin,TX,
84697,807 Brazos St in,Austin,TX,
123275,53Rd And Duval in,Austin,TX,
48397,838 N Bend Dr in,Austin,TX,
117563,7710 Hidden View Cir in,Austin,TX,
121741,4511 Halliday in,Travis,TX,
59230,7633 Marble Ridge Dr in,Austin,TX,
141845,14533 Donald Dr in,Austin,TX,
80298,2311 Willow St in,Austin,TX,
43176,5309 Nuckols Crossing Rd in,Austin,TX,
11103,7900 Center Park Blvd in,Austin,TX,
5240,1006 Larch Ter in,Austin,TX,
42324,909 Navasota St in,Austin,TX,
45582,126 E Wild Senna Dr in,Pflugerville,TX,
128127,8515 S 35 Nb in,Austin,TX,
110515,8614 Fireside Dr in,Austin,TX,
45124,7102 Thannas Way in,Austin,TX,
70952,8401 Hathaway Dr in,Austin,TX,
19660,1410 Charolais Dr in,Austin,TX,
51408,2504 Huntwick #301 in,Austin,TX,
138856,13317 Coleto Creek Trl in,Austin,TX,
137014,2505 Fow Ln in,Austin,TX,
89328,6107 Idlewood in,Austin,TX,
87111,2716 Sweeney in,Austin,TX,
142042,210 Lee Barton St in,Austin,TX,
125445,7403 Bethune Ave in,Austin,TX,
79889,13812 Randalston Dr in,Travis,TX,
39319,4901 S. 1St Street in,Austin,TX,
125136,2816 E 12Th St in,Austin,TX,
106994,6120 Tiner Trl in,Austin,TX,
34716,9504 Manchaca Rd in,Austin,TX,
115122,2932 Ellon Rd in,Travis,TX,
67190,9905 Ivalenes Hope Dr in,Austin,TX,
34971,2209 Hancock Dr in,Austin,TX,
127531,18004 Majestic Elm in,Travis,TX,
140870,4501 Burleson in,Austin,TX,
133612,12017 Amherst Dr in,Austin,TX,
46111,8704 Neider Dr in,Austin,TX,
61663,900 N Lexington in,Travis,TX,
77380,7715 Burleson-Manor Rd in,Travis,TX,
98450,4Th & Broadway in,Austin,TX,
63986,12009 Buckingham Gate Rd in,Austin,TX,
40251,2605 Cranbrook Cv in,Austin,TX,
84360,4100 Westbank Dr in,Austin,TX,
24008,304 W Grady Dr in,Austin,TX,
112851,9315 Northgate Blvd #212 in,Austin,TX,
36622,2815 E Hwy 71 in,Travis,TX,
94027,1308 Dominique in,Austin,TX,
82460,3002 Burleson Rd in,Austin,TX,
18656,16504 Red Wagon in,Travis,TX,
34305,225 The Ranch Rd in,Travis,TX,
62735,12200 Metric Blvd in,Austin,TX,
126955,300 S Lamar in,Austin,TX,
40620,0000 South First in,Austin,TX,
49521,6911 Bryn Mawr in,Austin,TX,
96628,910 Red Cliff in,Austin,TX,
132947,600 Congress in,Austin,TX,
12158,7112 Apoloosa in,Travis,TX,
29801,8301 Bluff Springs in,Austin,TX,
37933,9910 Peterson Rd in,Travis,TX,
36465,8318 Burleson Manor Rd in,Manor,TX,
109342,14850 Harris Ridge Boulevard in,Travis,TX,
56772,1609 Larkwood Dr in,Austin,TX,
83703,8114 Bottlebrush Dr in,Austin,TX,
108844,7009 Ih 35 in,Austin,TX,
91268,1109 Brentwood St in,Austin,TX,
90191,9713 Aberdeen Way in,Austin,TX,
107534,1176 Oakgrove Avenue in,Austin,TX,
119128,1621 E Cesar Chavez St in,Austin,TX,
121450,4515 Merle Dr in,Austin,TX,
120413,8201 Colony Loop Drive in,Austin,TX,
94518,7205 E Meadow Bend in,Austin,TX,
4029,7325 Gaines Mill in,Austin,TX,
130731,6808 S Ih35 in,Austin,TX,
34017,2501 Saratoga Dr in,Austin,TX,
34644,14901 Bern Dr in Del,Valle,TX,
16251,15007 Mossycup Ln in,Travis,TX,
71230,5812 N Interstate Hwy 35 in,Austin,TX,
1358,8905 Wiley Way in,Austin,TX,
115889,1900 Ralph C Craig Ln in,Austin,TX,
89496,9001 S Ih 35 in,Austin,TX,
15863,1211 Oltorf in,Austin,TX,
107788,9345 East Highway 290 in,Austin,TX,
135842,6603 N Interstate 35 Frontage Rd in,Austin,TX,
73074,2000 E M Franklin in,Austin,TX,
12765,7301 Rhett Pl in,Austin,TX,
25477,6000 Middle Fiskville in,Austin,TX,
88033,12709 Palfrey Dr in,Austin,TX,
35355,4800 Placid Place in,Austin,TX,
56039,2202 Haskell in,Austin,TX,
112795,1322 Lamar Square Dr in,Austin,TX,
14633,5508 Catsby Ct in,Austin,TX,
98693,3707 W Howard in,Austin,TX,
52147,12900 Dessau Rd in,Austin,TX,
74814,9507 Nightstar Dr in Del,Valle,TX,
131149,9507 Night Star Dr in Del,Valle,TX,
76941,6121 Saddler Ln in,Austin,TX,
72293,5500 Camp Fire Trl in,Austin,TX,
28178,3608 Manchaca/Valley View in,Austin,TX,
102967,4505 Frontier Valley in,Austin,TX,
24767,5600 Blk Melody Dr in,Austin,TX,
128194,6803 Hanover Ln in,Austin,TX,
50850,5607 Melody Ln in,Austin,TX,
71027,1400 Cotton in,Austin,TX,
15499,7412 S. Glenn in,Austin,TX,
10190,1700 Hydro Dr in,Austin,TX,
95272,51St/ Duval in,Austin,TX,
7794,7720 Tx-71 in,Austin,TX,
18071,3704 Ebony Hollow Cv in,Austin,TX,
96972,5200 Bolm Rd in,Austin,TX,
94274,9036 N Lamar Blvd in,Austin,TX,
130588,6805 Loyola in,Austin,TX,
5278,1003 Justin Ln #1050 in,Austin,TX,
134773,12300 S 183 in,Travis,TX,
111142,509 Ramble Ln in,Austin,TX,
130985,8222 Sigrid Dr in,Manor,TX,
76012,8805 N Plaza #2227 in,Austin,TX,
7207,2304 Corta St in,Austin,TX,
143119,3101 Shoreline Rd in,Travis,TX,
102498,920 Water St in,Travis,TX,
135443,1015 N Meadows Drive in,Austin,TX,
136191,18100 Maxa Dr in,Manor,TX,
40189,15101 Fm 1825 in,Travis,TX,
28681,11707 Underwood Dr in,Travis,TX,
90121,1521 E 21St St in,Austin,TX,
85768,13431 Klaus Lane in,Travis,TX,
126472,2509 Cecil Dr in,Austin,TX,
121397,101 Lakeway Dr in,Austin,TX,
20506,5203 Bogey Ct in,Austin,TX,
142362,13913 Randalstone in,Travis,TX,
21556,4011 Gemstone in,Austin,TX,
90671,1923 Willow Creek Dr in,Austin,TX,
77886,1605 Grayford Dr in,Austin,TX,
13995,2801 Wells Branch Pkwy in,Travis,TX,
117944,34Th St & West Ave in,Austin,TX,
60008,4407 Belfield in,Travis,TX,
23467,409 E Ben White Blvd in,Austin,TX,
141506,9607 Research Blvd in,Austin,TX,
122022,401 Little Texas Ln #2820 in,Austin,TX,
91631,7500 Blessing Ave in,Austin,TX,
10315,3700 Southridge Dr in,Austin,TX,
20108,5606 Gloucester Lane in,Austin,TX,
138031,1000 Wagon Trl in,Austin,TX,
112673,5205 Evans Dr in,Austin,TX,
79277,600 W Caddo St in,Austin,TX,
68679,2501 Wickersham Ln Blg 1600 in,Austin,TX,
100138,6013 Pino in,Austin,TX,
50122,8919 Colony Creek Dr in,Austin,TX,
64308,3807 Arrow Dr in,Austin,TX,
97360,7201 Levander Looop in,Austin,TX,
48784,2401 S Lakeshore Blvd #11102 in,Austin,TX,
120386,4611 Raintree Blvd in,Austin,TX,
37564,4504 Duval in,Austin,TX,
4378,1322 Southport Dr in,Austin,TX,
38267,8501 Research Blvd in,Austin,TX,
104388,4003 Greenmountain Ln in,Austin,TX,
16431,1200 Turtle Rock Rd in,Austin,TX,
75358,51St @ Berkman in,Austin,TX,
107290,6305 Bexton Cir in,Austin,TX,
35159,2108 Barton Hills Dr in,Austin,TX,
67876,2010 Riverview St in,Austin,TX,
111524,5600 Samuel Huston Ave in,Austin,TX,
55884,3001 Harris Park Ave in,Austin,TX,
28629,4446 Bremner Dr in,Austin,TX,
67588,7800 Fm 969 in,Austin,TX,
107786,14500 Graef Rd in,Creedmoor,TX,
25844,6403 Tiner in,Austin,TX,
122702,6301 E Stassney in,Austin,TX,
126845,16008 Littig Rd in,Manor,TX,
6574,1145 Airport Blvd in,Austin,TX,
92877,12823 New Katy Ln in,Manor,TX,
59169,12151 Ih 35 Frontage in,Austin,TX,
65660,8830 Cainwood Ln in,Austin,TX,
59669,8108 Fm 973 in,Travis,TX,
130512,9202 Fm812 in,Austin,TX,
141368,3848 Airport Blvd in,Austin,TX,
116593,6502 Porter St in,Austin,TX,
100001,13810 Randall Stone Dr in,Pflugerville,TX,
19852,7701 Burleson Rd in,Austin,TX,
27928,10000 Old Lockhart Rd. in,Austin,TX,
41648,6218 Wagon Bend Trl in,Austin,TX,
73726,6752 Broad Brook Dr in,Austin,TX,
133594,2721 South Congress in,Austin,TX,
76394,16300 Summt Dr in,Travis,TX,
129948,12000 Dunfries in,Austin,TX,
55784,2205 Muroc in,Austin,TX,
28245,15709 812 in,Austin,TX,
70644,1602 Webberville in,Austin,TX,
69412,1906 Millhouse Dr in,Travis,TX,
141398,3351 Killingsworth Ln #379 in,Austin,TX,
13099,5905 Silver Screen Dr in,Austin,TX,
30350,14310 N Ih 35 in,Austin,TX,
3624,9608 North Creek Dr in,Austin,TX,
119262,405 Heartwood in,Austin,TX,
37649,2101 S Ih 35 in,Austin,TX,
84184,14517 Amy Francis St in,Austin,TX,
18595,6911 Ih 35 in,Austin,TX,
24830,3804 Cherrywood Rd in,Austin,TX,
99017,2015 Holly St in,Austin,TX,
98712,8408 Kearsarge Dr in,Austin,TX,
28806,7615 Eastcrest in,Austin,TX,
42377,1139 Ebert in,Austin,TX,
29544,9110 S Hwy 183 in,Austin,TX,
92132,7227 Us 290 E in,Austin,TX,
6611,6405 Jennings Dr in,Austin,TX,
56610,7425 Dee Gabriel Collins Rd in,Travis,TX,
66039,1408 E 2Nd St in,Austin,TX,
9134,1301 E 2Nd St in,Austin,TX,
85390,6007 Highlandale Dr in,Austin,TX,
78478,6514 Pevensey Drive in,Austin,TX,
1338,7712 Bellehaven in,Austin,TX,
68606,8616 Hillmoore Drive in,Austin,TX,
15708,10911 Maha Rd in,Austin,TX,
26913,7604 Lazy River in,Austin,TX,
140379,7801 Wykeham Dr in,Austin,TX,
76342,5425 Burnet Rd in,Austin,TX,
127847,2725 S Congress Ave in,Austin,TX,
12703,16 Lone Oak Trail in Sunset,Valley,TX,
129500,6009 Pino Ln in,Austin,TX,
70713,6513 Pevensey in,Austin,TX,
110140,1625 And Evelyn Rd in,Creedmoor,TX,
71923,3913 Todd Ln in,Austin,TX,
30892,3940 S Lamar Blvd in,Austin,TX,
74680,2100 Comal St in,Austin,TX,
35183,9601 Middle Fiskville Rd in,Austin,TX,
131481,10701 Marshita Way in,Austin,TX,
44320,105 W Covington Dr in,Austin,TX,
27493,1922 Wickersham Ln in,Austin,TX,
123748,4517 Rio Robles Dr in,Travis,TX,
136858,1400 Atterbury Ln in,Austin,TX,
56484,7104 Northeast in,Austin,TX,
115334,7300 Mitra Dr in,Austin,TX,
61720,7112 Appaloosa Ct in Mustang,Ridge,TX,
37335,11405 Murchison St in,Travis,TX,
7927,2300 Waterway in,Austin,TX,
28116,11504 Melstone Dr in,Manor,TX,
75806,10515 N Mopac in,Austin,TX,
12953,14320 Tandem Blvd in,Austin,TX,
27838,7602 Compass Dr in,Austin,TX,
92635,11157 Banham Ranch Rd in,Travis,TX,
131895,11717 Mcangus Rd Trl in Del,Valle,TX,
122947,1404 E Riverside Dr in,Austin,TX,
128904,5201 Dry Wells Rd in,Austin,TX,
65127,607 Woodward St in,Austin,TX,
140370,115 West Koenig Ln in,Austin,TX,
84602,2005 E 2Nd St in,Austin,TX,
67492,2603 Parker Ln in,Austin,TX,
117369,2308 Speidel Dr in,Travis,TX,
85454,14308 Fm 812 in Del,Valle,TX,
88839,3506 River Rd in,Austin,TX,
19062,6812 N Lamar Blvd in,Austin,TX,
104361,2809 Tradewind Dr in,Travis,TX,
50069,9110 Texas Sun Dr in,Austin,TX,
36458,165 Stony Creek Dr in Del,Valle,TX,
53584,7600 Burnet Rd in,Austin,TX,
10407,2000 Oak Motte Ln in,Austin,TX,
110212,5313 Martin Ave in,Austin,TX,
22623,8841 Francia Trail in,Austin,TX,
52505,108 W 16Th in,Austin,TX,
106506,7502 Chelsea Moor in,Austin,TX,
32227,2912 Pecan Springs Rd in,Austin,TX,
133134,8023 Coulver in,Austin,TX,
96819,1179 Oak Grove in,Austin,TX,
77250,15408 Quinley Rd in,Austin,TX,
130344,1205 Matthews Ln in,Austin,TX,
117413,2700 Twin Oaks Dr in,Austin,TX,
93090,405 Hackberry Ln in,Austin,TX,
69060,2347 Douglas #1103 in,Austin,TX,
79164,363 Fantail Loop in,Lakeway,TX,
25999,9210 Northgate Blvd #118 in,Austin,TX,
47248,3704 Speedway in,Austin,TX,
5287,5404 Spring Meadow in,Austin,TX,
34293,19967 Blake Manor in,Austin,TX,
76376,1826 Fm in,Travis,TX,
13989,301 Ramble Ln in,Austin,TX,
120905,7303 Kitty Ave in,Austin,TX,
8462,2503 E Oltorf in,Austin,TX,
43786,2400 Wickersham #183 in,Austin,TX,
131767,10214 Brownie Dr in,Austin,TX,
37086,3219 Darnell Dr in,Austin,TX,
21079,2008 Wagon Crossing Path in,Austin,TX,
138243,13810 Randalstone Dr in,Pflugerville,TX,
136906,9621 Sawyer Fay Ln in,Austin,TX,
63099,2309 Cocao Ln in,Austin,TX,
84036,5712 Arcadia in,Austin,TX,
96007,760 Airport in,Austin,TX,
43013,8900 Ih 35 #1127 in,Austin,TX,
8518,13021 Dessau Rd in,Travis,TX,
34347,12201 Sky Harbor in,Austin,TX,
96155,9800 Plover Dr in,Austin,TX,
39535,3651 S Ih 35 in,Austin,TX,
59041,7920 Mullen Dr in,Austin,TX,
103033,836 Airport Blvd in,Austin,TX,
42992,13113 Boomer Ln in,Austin,TX,
79852,8909 Little Walnut Pkwy in,Austin,TX,
102711,2307 E 4Th St in,Austin,TX,
1326,20706 Postoak Parkway in,Manor,TX,
74104,4311 Springdale Rd in,Austin,TX,
50408,4801 S Ih35 in,Austin,TX,
48097,3528 River Rd in Cedar,Park,TX,
131330,4908 Barkbridge Trail in,Austin,TX,
143031,19221 Lockwood in,Manor,TX,
108350,9500 South Ih-35 in,Austin,TX,
70411,1508 Estrellas Dr in Del,Valle,TX,
56040,1156 Hargrave in,Austin,TX,
62291,15300 Brenda St in,Travis,TX,
94191,13013 Blackeyed Susan Trail in,Travis,TX,
105248,17944 Majestic Elm Ln in,Travis,TX,
5340,506 W Grady Dr in,Austin,TX,
71981,802 Yarbers in,Travis,TX,
64699,8201 N Fm 620 in,Austin,TX,
129696,1813 Whittard Of Chelsea in,Pflugerville,TX,
120291,7501 Bluff Springs Rd in,Austin,TX,
142262,2020 Dry Season Trl in,Austin,TX,
13590,1421 Braes Ridge Dr in,Austin,TX,
55379,2005 Matthews Ln in,Austin,TX,
6427,6412 S Interstate 35 in,Austin,TX,
74082,5826 Saticoy Dr in,Austin,TX,
95067,21 Drifting Wind Dr in,Travis,TX,
81556,2109 Maxwell Lane in,Austin,TX,
35441,2505 Homedale Dr in,Austin,TX,
65238,3528 River Rd in,Travis,TX,
141748,2989 E 51St in,Austin,TX,
96452,12034 Research Blvd #8 in,Austin,TX,
110826,4709 Delores Ave in,Austin,TX,
51261,1521 E 12Th St in,Austin,TX,
133701,1115 Briargate Dr in,Austin,TX,
24980,15134 Sarah'S Creek in,Pflugerville,TX,
43444,4100 Avenue C in,Austin,TX,
22754,8804 Texas Oaks Dr in,Austin,TX,
45759,2408 Leon St in,Austin,TX,
99607,117 Reflection Bay Court in,Travis,TX,
97858,5404 Brompton Cir in,Austin,TX,
35972,6301 Huntleigh Way in,Austin,TX,
2529,9900 Mc Neil Dr in,Austin,TX,
63008,18681 Fm 1431 in,Jonestown,TX,
138263,15134 Sarah'S Creek in,Austin,TX,
101168,12221 N. Mopac in,Austin,TX,
127054,10808 Clubhouse Turn in,Austin,TX,
95373,119 Bolles in,Austin,TX,
99047,4701 Castle Dr in,Austin,TX,
59121,1510 E Mlk Blvd in,Austin,TX,
142713,4605 Button Bend in,Austin,TX,
78020,6701 La Concha in,Austin,TX,
56103,4703 Eilers Avenue in,Austin,TX,
892,12138 N. Lamar Blvd in,Austin,TX,
109826,6616 Orchard Hill Drive in,Austin,TX,
26010,1907 W 37Th St in,Austin,TX,
46663,7800 Thaxton Rd in,Austin,TX,
70505,8403 Furness Ave in,Austin,TX,
45188,11308 Hornsbee in,Austin,TX,
25904,8704 Neider Drive in,Austin,TX,
106106,1155 Brookswood Avenue in,Austin,TX,
4591,15500 Sun Light in,Austin,TX,
177,6301 Linda Ln in,Austin,TX,
95418,600 E 5Th St in,Austin,TX,
11059,7700 W Parmer in,Austin,TX,
18634,7112 Ed Bluestein in,Austin,TX,
94881,11100 Metric in,Austin,TX,
38084,38 1/2 & Harmon Ave in,Austin,TX,
46169,202 Pickle Rd in,Austin,TX,
104919,11439 Ptarmigan Dr in,Austin,TX,
5665,5601 Manchaca in,Austin,TX,
36367,1806 Parkside Rd in,Austin,TX,
83326,1457 W Pecan St in,Pflugerville,TX,
107489,7101 W Sh 71 in,Austin,TX,
98974,2220 Barton Springs in,Austin,TX,
3656,7708 Lohman Ford in Lago,Vista,TX,
131152,4905 Misty Slope Ln in,Austin,TX,
19241,183 / Payton Gin in,Austin,TX,
123433,502 W William Cannon Dr in,Austin,TX,
35956,620/ El Salito in,Travis,TX,
136717,5509 Apple Orchard in,Austin,TX,
30211,300 East Parsons in,Manor,TX,
126545,811 W Slaughter Ln in,Austin,TX,
38321,19000 Limestone Commercial Dr in,Pflugerville,TX,
46138,17809 Aleppo Pine Trail in,Travis,TX,
25389,929 Acorn Oaks Drive in,Austin,TX,
113997,5055 Hwy 71 E in Del,Valle,TX,
82019,1402 Springdale Rd in,Austin,TX,
93202,1180 Oakgrove Avr in,Austin,TX,
16104,14611 Burnet Rd in,Travis,TX,
127894,1040 N Ih 35 in,Austin,TX,
99448,9315 Northgate Blvd in,Austin,TX,
136809,3131 Hwy S 183/Mc Call Rd in,Austin,TX,
120807,1313 Madison Ave in,Austin,TX,
30113,7655 Ranch Rd 620 N in,Austin,TX,
107182,3602 Oak Springs Dr in,Austin,TX,
91604,6402 Starcrest Ln in,Austin,TX,
98695,917 Sirocco Dr in,Austin,TX,
57729,4602 Sherwyn in,Austin,TX,
126877,3704 Apple Vista Cir in,Pflugerville,TX,
53537,5105 Parell Path in,Austin,TX,
96542,9300 Texas Oaks Dr in,Austin,TX,
21719,2222 And Burnet Rd in,Austin,TX,
49388,500 S Lamar in,Austin,TX,
2219,8220 Hwy 71 West #315 in,Austin,TX,
77583,15008A Fm 812 in Del,Valle,TX,
19201,1525 Grand Avenue Pkwy in,Travis,TX,
32143,5713 Fence Row in,Austin,TX,
95283,1407 E Rundberg Ln in,Austin,TX,
25282,10001 Richard Moya Park in,Austin,TX,
20248,7224 White Panda Run in Del,Valle,TX,
83908,6375 E Highway 290 in,Austin,TX,
1766,7605 Compass Dr in,Austin,TX,
79561,412 E Wm Cannon in,Austin,TX,
80078,3404 American Dr in Lago,Vista,TX,
20890,2304 Tower Dr in,Austin,TX,
141012,1815 E 4Th in,Austin,TX,
62542,12120 Kilmartin in,Austin,TX,
97949,1607 Ulit in,Austin,TX,
9468,2900 Bee Caves Rd in,Austin,TX,
98479,1104 Vargas in,Austin,TX,
80629,634 Ledge Stone Drive in,Austin,TX,
120644,12303 Bainbridge Ln in,Austin,TX,
13369,112134 County Line Road in,Travis,TX,
111733,5300 S Mopac in,Austin,TX,
40902,3220 Rasberry Road in,Austin,TX,
142962,9100 Lockwood Springs in,Austin,TX,
135219,13000 Briarcreek Loop in,Austin,TX,
140816,11705 Hornsby St in,Austin,TX,
44224,13127 Elmgrove Road in,Travis,TX,
8169,3000 Fort Worth St in,Austin,TX,
104635,1927 Willow Creek Dr in,Austin,TX,
45802,11808 Plains Valley Dr in Del,Valle,TX,
65764,13355 N Highway 183 in,Austin,TX,
129016,2204 Leona St in,Austin,TX,
73461,19913 Wearyall Hill Ln in,Pflugerville,TX,
52456,5604 Valiant Cv in,Austin,TX,
30826,8900 Meridian Oak Lane in,Austin,TX,
59183,2700 Jorwoods Dr in,Austin,TX,
69178,305 Chaparral Dr in,Austin,TX,
67568,4707 Franklin Park Dr in,Austin,TX,
94008,8902 Briardale Dr in,Austin,TX,
114201,3407 W Wells Branch Pkwy in,Austin,TX,
48756,500 E Chicon Dr in,Austin,TX,
71089,18701 Blake Manor Rd in,Manor,TX,
48285,9301 Hog Eye Rd in,Austin,TX,
73359,913 East Cesar Chavez in,Austin,TX,
86362,8410 Riverstone in,Austin,TX,
141066,4504 Mellow Hollow in,Austin,TX,
128655,4011 Ayala Dr in,Austin,TX,
114721,1904 Cannonwood Ln in,Austin,TX,
141669,7201 Levander Lp in,Austin,TX,
16594,1830 W Rundberg Ln in,Austin,TX,
102071,12300 Harris Branch in,Manor,TX,
76338,6108 Begonia Cir in,Austin,TX,
47238,7405 West Gate in,Austin,TX,
79021,7607 Blessing in,Austin,TX,
74184,2227 E Stassney in,Austin,TX,
66020,8212 Barton Club Dr in,Austin,TX,
72595,4017 Victory in,Austin,TX,
107921,12003 Bobcat Trail in,Austin,TX,
77876,4402 Dove Wood Dr in,Austin,TX,
106604,3621 W Slaughter Ln in,Austin,TX,
89458,6400 Panadero Cv in,Austin,TX,
53142,8102 Taza Trl in,Austin,TX,
44756,2702 Crest Ave in,Austin,TX,
139847,10306 Leaning Willow Dr in,Austin,TX,
75984,10105 S Ih 35 in,Austin,TX,
97142,1924 Whittard Of Chelsea in,Pflugerville,TX,
66981,7306 Meadowood Dr in,Austin,TX,
43681,11719 Spotted Horse in,Austin,TX,
4410,4743 Castleman Dr in,Austin,TX,
96184,9201 Circuit Of Americas Blvd in,Travis,TX,
4320,613 Ladin Ln in,Austin,TX,
104955,9415 Rowlands Sayle Rd in,Austin,TX,
16800,8702 Leo St in,Austin,TX,
100051,1610 Garden Street in,Austin,TX,
92724,12117 Emerald Oaks Dr in,Austin,TX,
118008,5702 Honeybee Bend in,Austin,TX,
4832,1647 Rutland Dr#132 in,Austin,TX,
139250,12528 Esplanade Street in,Austin,TX,
22410,2507 Burleson Road in,Austin,TX,
117247,12900 N Ih35 in,Austin,TX,
90696,2505 Rosewood Avenue in,Austin,TX,
41118,4410 E Riverside in,Austin,TX,
121361,1457 W Pecan in,Pflugerville,TX,
91490,3101 Guadalupe St in,Austin,TX,
49310,1202 Southport in,Austin,TX,
40988,1312 Coronation Way in,Travis,TX,
26756,10505 South Ih-35 in,Austin,TX,
141101,8700 Pandero Drive in,Austin,TX,
90094,3003 Cedarlawn Cir in,Austin,TX,
11445,2220 E Stassney Ln in,Austin,TX,
39762,5341 Sendero Hills Parkway in,Austin,TX,
18627,6505 Virgo Ln in,Austin,TX,
85428,1601 East Slaughter in,Austin,TX,
28487,4902 Mendoza Dr in,Austin,TX,
27966,20409 Rita Blanca Cir in,Travis,TX,
134932,6813 Bryn Mawr Dr in,Austin,TX,
142881,13300 William Harrison in,Travis,TX,
142502,1605 Kinney Ave in,Austin,TX,
135383,1140 Poquito in,Austin,TX,
41291,126 Bolles Cir A in,Austin,TX,
137300,8312 N Interstate Hwy 35 in,Austin,TX,
127407,6300 E Stassney in,Austin,TX,
18197,4605 Kind Way in,Austin,TX,
8795,5252 Mission Cir in,Travis,TX,
53375,10900 Research Blvd in,Austin,TX,
40287,2705 Hoeke Ln in,Austin,TX,
8091,7011 Bethune in,Austin,TX,
2986,2315 Southern Oaks Dr in,Austin,TX,
71730,3511 Alpine Cir in,Austin,TX,
33724,2511 Sol Wilson Ave in,Austin,TX,
90103,1200 Fm 969 in,Travis,TX,
9371,1901 Woodward in,Austin,TX,
139488,1709 Rundberg in,Austin,TX,
13919,7900 Fm 1826 in,Austin,TX,
123921,3101 River Rd in,Austin,TX,
30287,9817 Circle Dr in,Austin,TX,
10210,2605 Hidden Oaks Dr in,Austin,TX,
137105,18018 Fm 969 in,Manor,TX,
99669,6800 Galindo St in,Austin,TX,
86326,4303 Banister Ln in,Austin,TX,
102590,1601 E 38Th 1/2 in,Austin,TX,
58253,2113 Pennsylvania in,Austin,TX,
51979,5407 Westminster Drive in,Austin,TX,
17530,2107 Brackenridge Street in,Austin,TX,
47461,7604 Melville Cove in,Austin,TX,
26503,1616 Royal Crest Dr in,Austin,TX,
43412,6216 Palm Circle in,Austin,TX,
137272,8802 Thunderbird Rd in,Austin,TX,
106628,10705 Lanshire in,Austin,TX,
98171,4000 N Lamar in,Austin,TX,
3632,13100 Greenbury Dr in,Manor,TX,
83364,9500 Carson Creek Blvd in Del,Valle,TX,
49994,900 E Leslie Cir in,Austin,TX,
115168,6200 Blue Stem Trl in,Austin,TX,
68021,5677 Oak Blvd in,Austin,TX,
80050,18809 Littig in,Travis,TX,
136668,1723 Pine Knoll Dr in,Austin,TX,
28092,1505 Green Pastures Dr in,Austin,TX,
86447,4700 Whirlaway in,Travis,TX,
38111,7303 Langston Dr in,Austin,TX,
130417,102 E Wonsley Dr in,Austin,TX,
71214,5817 Maciver Dr in,Austin,TX,
79317,14437 Robert I Walker Blvd in,Austin,TX,
105669,1100 Thurgood Cir in,Austin,TX,
139220,11910 Highland Oaks Trl in,Austin,TX,
134972,9017 Wellesley Dr in,Travis,TX,
117564,4601 Manzanillo Dr in,Austin,TX,
106163,14774 Merrilltown Dr in,Austin,TX,
46484,7004 Wind in,Austin,TX,
78172,4358 S Congress Ave in,Austin,TX,
88705,7581 Chevy Chase in,Austin,TX,
97551,12400 N Lamar in,Austin,TX,
33058,25007 Water Well Lane in,Austin,TX,
90032,11301 Bristle Oak Trail in,Austin,TX,
20041,1304 Cometa St in,Austin,TX,
92379,905 Salem Ln in,Austin,TX,
134397,1216 Quail Field Cir in,Austin,TX,
111449,1118 Linden St in,Austin,TX,
23024,2000 Pequeno St in,Austin,TX,
68690,9005 Collinfield Dr in,Austin,TX,
51875,1800 Thornberry Rd in Del,Valle,TX,
54184,5736 Signal Point in,Austin,TX,
47447,6903 Bethune in,Austin,TX,
57221,10304 Yellowstone Dr in,Austin,TX,
47541,3002 Ellon in,Austin,TX,
13445,1221 N Mopac Expressway in,Austin,TX,
135867,9721 Sunflower in,Austin,TX,
55887,6007 Melody Ln in,Travis,TX,
64011,6211 Thurgood in,Austin,TX,
142248,7002 Hillcroft Dr in,Austin,TX,
65652,6400 Carson Ridge in,Austin,TX,
73523,7200 Lysander Court in,Austin,TX,
110630,7005 Gabion Dr in,Austin,TX,
107192,4611 Franklin Park in,Austin,TX,
75760,6512 Starstreak Dr in,Austin,TX,
140860,102 W Powell Ln in,Austin,TX,
104468,1900 Rainy Meadows Dr in,Austin,TX,
62325,10501 Taylor Ln in,Travis,TX,
133238,9101 Sansom Rd in,Travis,TX,
89444,933 E Rungberg in,Austin,TX,
130469,2202 Speidel Dr in,Pflugerville,TX,
132183,6603 Santos St in,Austin,TX,
77959,1137 Saucedo St in,Austin,TX,
139817,10505 Macmora Rd in,Austin,TX,
141700,14001 Golden Flax Trl in,Pflugerville,TX,
11438,13800 Hokanson Rd in,Travis,TX,
143025,1811 Grove Blvd in,Austin,TX,
60329,1601 E Slaughter Ln #508 in,Austin,TX,
115466,3002 Ellon Road in Del,Valle,TX,
57563,2222 And 620 in,Austin,TX,
79217,1831 Wells Branch Parkway in,Austin,TX,
106577,12707 Pond Woods Rd in,Austin,TX,
54337,7005 Hillcroft Dr in,Austin,TX,
16406,1809 E 3Rd St in,Austin,TX,
41816,5104 S Pleasant Valley in,Austin,TX,
133662,968 Springdale in,Austin,TX,
44478,12410 Alameda Trace Circle in,Austin,TX,
132209,5935 Cherry Loop in,Austin,TX,
14594,2107 Nightview Dr in,Pflugerville,TX,
74611,9111 Jollyville Road in,Austin,TX,
121801,6309 Dooley Trail in,Austin,TX,
3882,2101 E. St Elmo in,Austin,TX,
23531,2100 Airole Way in,Austin,TX,
109363,1630 Fm 620 in,Austin,TX,
130968,1700 Corona Dr in,Austin,TX,
83589,18508 Sandy Bottom Dr in,Austin,TX,
85249,19400 Melwas Way in,Travis,TX,
45958,5717 Katydid Ln in,Austin,TX,
78481,5200 S Pleasant Valley Rd in,Austin,TX,
37908,5712 Honeybee Bend in,Austin,TX,
93391,7310 Onion Creek Dr in,Austin,TX,
54039,7426 Onion Creek in,Austin,TX,
35286,7317 Onion Creek Dr in,Austin,TX,
86241,7700 Katydid Dr in,Austin,TX,
102205,5721Honeybee Bend in,Austin,TX,
33079,5721 Honeybee Bend in,Austin,TX,
28176,1900 Citation in,Travis,TX,
42646,1119 Gunter #A in,Austin,TX,
82335,4617 Blue Meadow in,Austin,TX,
69059,9706 Hansford in,Austin,TX,
101812,7301 Glenhill Rd in,Austin,TX,
99608,2102 Vanderbilt Ln in,Austin,TX,
9020,12138 North Lamar in,Austin,TX,
66486,7201 Manchaca Rd # B in,Austin,TX,
104247,16801 Brayton Park Drive in,Austin,TX,
8584,5129 Cameron R in,Austin,TX,
13605,2001 Chicon in,Austin,TX,
100132,3816 Leafield Drive in,Austin,TX,
54671,5619 Katydid in,Austin,TX,
25722,7608 Marble Crest in,Austin,TX,
53834,700 Woodward St in,Austin,TX,
33047,711 Patterson in,Austin,TX,
3020,11906 Broad Leaf Cv in,Austin,TX,
31120,10515 Robinwood Dr in,Austin,TX,
21038,1604 Nightview Drive in,Pflugerville,TX,
60111,3900 Deer Ln in,Austin,TX,
105869,4624 Esper Ln in,Travis,TX,
99475,11110 Renel Dr in,Austin,TX,
5731,1310 W Howard Ln in,Austin,TX,
130614,12330 N Ih 35 in,Austin,TX,
55574,1505 Southport Dr. in,Austin,TX,
64777,500 Block Jan Ct. in,Austin,TX,
120321,7427 Onion Creek in,Austin,TX,
29012,1700 W Oltorf in,Austin,TX,
127651,4410 Hayride Ln in,Austin,TX,
84748,800 Cesar Chavez St in,Austin,TX,
22685,9220 Ovalla Drive in,Austin,TX,
105221,14900 Mossycup Ln in,Austin,TX,
77654,3400 Andtree Blvd in,Austin,TX,
79928,4501 E St Elmo in,Austin,TX,
44008,1128 Spur Street in,Austin,TX,
70077,2800 E. Riverside in,Austin,TX,
53020,8824 Stanbourne in,Austin,TX,
113735,3401 Redbud Trail in,Austin,TX,
119708,6601 Goodnight Lane in,Austin,TX,
139323,5502 Darlington Ln in,Austin,TX,
123072,6500 Sunstrip Dr in,Austin,TX,
27189,2005 Boyds Way in,Austin,TX,
68521,4501 Tucker Hill Ln in,Travis,TX,
18250,1626 And Johnson Lane in,Travis,TX,
2369,12800 Pearce Ln in,Austin,TX,
30454,12211 Us 290 in,Manor,TX,
106371,8905 Panadero Dr in,Austin,TX,
130411,11717 Mc Angus #A in,Austin,TX,
42711,1208 E. Rundberg in,Austin,TX,
26844,8300 Old Bee Caves Rd in,Austin,TX,
103821,1817 E Oltorf St in,Austin,TX,
115822,609 Turley Dr in,Travis,TX,
92832,12213 Branston in,Austin,TX,
113378,2500 Blk Turnerville Rd in,Travis,TX,
73840,11305 County Down in,Austin,TX,
58829,21205 W Highway 71 in,Travis,TX,
90646,15503 Scarlet St in,Austin,TX,
1401,4808 Scarsdale Ln in,Austin,TX,
128234,11915 Nene Dr in,Austin,TX,
102556,10520 N Lamar Blvd in,Austin,TX,
112645,6104 Caddie St in,Austin,TX,
48226,6911 Shannon Dr in,Austin,TX,
72849,11066 Fm 812 in Del,Valle,TX,
64861,1704 Rutland Dr in,Austin,TX,
123022,4803 Brushy Ridge in,Austin,TX,
53869,1404 W 13Th St in,Austin,TX,
131659,12041 Dessau Rd in,Austin,TX,
54901,6902 Deep Circle #A in,Austin,TX,
92493,6403 Santos St in,Austin,TX,
120579,5524 Bitterwood in,Austin,TX,
121854,4819 Tucker Hill in,Travis,TX,
96476,15005 Us 290 in,Austin,TX,
30340,5305 King Charles Dr in,Austin,TX,
73539,16571 Cameron Rd in,Travis,TX,
39118,78200 Duval St in,Austin,TX,
131160,401 Congress Ave in,Austin,TX,
125599,4100 Block Of River Road in,Travis,TX,
21791,4904 Merrict Cir in,Austin,TX,
57093,1401 Grove Blvd in,Austin,TX,
89029,13349 Indian Oak in,Manor,TX,
46435,1143 1/2 Airport Blvd in,Austin,TX,
89697,2001 Cheshire Dr in,Austin,TX,
118058,2811 Aftonshire in,Austin,TX,
38821,3304 Goodwin Ave in,Austin,TX,
35038,13001 Center Lake Dr in,Austin,TX,
66704,1801 E 51St St in,Austin,TX,
34878,5Th St And Mary in,Austin,TX,
41838,4915 Manchester Cir in,Austin,TX,
10002,1170 Perry Rd in,Austin,TX,
135611,1201 Barbara Jordan Boulevard in,Austin,TX,
126593,1100 Crown Ridge Path in,Austin,TX,
122752,7503 Whistlestop Drive in,Austin,TX,
47607,15200 Fm 812 in Del,Valle,TX,
29395,5407 Harvest Ln in,Austin,TX,
139725,8509 Parkfield in,Austin,TX,
88032,6601 Manchaca in,Austin,TX,
76451,13414 Harrisglenn Dr in,Austin,TX,
73064,1329 Green Pastures in,Austin,TX,
28782,1107 Rio Grande St in,Austin,TX,
119929,10500 Ponder Ln in,Travis,TX,
11993,4506 Chiappero Trl in,Austin,TX,
130529,4905 Prock in,Austin,TX,
139150,920 Coronation Way in,Pflugerville,TX,
85379,4502 Glade Line Dr in,Austin,TX,
133552,6813 Lunar Dr in,Austin,TX,
6113,8202 Furness Cv in,Austin,TX,
6157,1100 Block Of Tinnin Ford in,Austin,TX,
21819,4712 Blueberry Trl in,Austin,TX,
106948,2105 Wheless Ln #B in,Austin,TX,
23585,10411 N Lamar in,Austin,TX,
84031,2905 Feathercrest Dr in,Austin,TX,
28852,9106 Sedgemoor Trail in,Austin,TX,
23629,10500 El Salido Pkwy in,Austin,TX,
86252,2919 Manchaca Rd #100 in,Austin,TX,
64888,1012 Arthur Stiles in,Austin,TX,
126093,8666 Spicewoods Springs Rd in,Austin,TX,
32520,1109 Stoneoak in,Austin,TX,
75560,4703 Whirlaway Dr in,Austin,TX,
89893,501 E 32Nd in,Austin,TX,
135349,5401 W Parmer Ln in,Austin,TX,
62630,2305 Cheyenne Cir in,Austin,TX,
17046,9701 Beck Cir in,Austin,TX,
24292,7801 Kincheon in,Austin,TX,
78322,8411 Rockwood Ln in,Austin,TX,
12540,6801 Crestone in,Austin,TX,
17260,6709 Adair Dr in,Austin,TX,
51647,3556 Rr 2222 in,Austin,TX,
12293,3908 Mocha Trl in,Austin,TX,
104818,2600 Delorio in,Manor,TX,
71325,8416 Sassman Rd in,Austin,TX,
63418,1200 E Parmer Ln in,Austin,TX,
96133,201 W Ben White Blvd in,Austin,TX,
88717,7249 Creekside Dr in,Austin,TX,
30043,2101 Tillery St in,Austin,TX,
59429,11717 Mc Angus in Del,Valle,TX,
67773,508 Tamworth Ave in,Austin,TX,
78641,8071 N Lamar in,Austin,TX,
57470,206 S Cougar Ave in,Austin,TX,
98173,22325 Rocking A Trl in,Travis,TX,
114174,705 E 43Rd St in,Austin,TX,
6409,5506 Chadwyck Dr in,Austin,TX,
67300,183 And Anderson Ln in,Austin,TX,
113313,5600 Decker Creek Cv in,Travis,TX,
81926,9802 Chukar in,Austin,TX,
23985,5304 Great Divide Dr in Bee,Cave,TX,
43861,18613 Great Falls in,Austin,TX,
47563,411 Lightsey Rd in,Austin,TX,
133501,5211 Joe Sayers in,Austin,TX,
64374,4315 Guadalupe Dr in,Austin,TX,
42731,1400 E Rundberg Ln in,Austin,TX,
19107,12330 Metric in,Austin,TX,
125826,4201 Ed Blustein in,Austin,TX,
19322,11001 Pinehurst Dr in,Austin,TX,
85573,808 Montopolis Dr in,Austin,TX,
112226,1506 Thorneridge Road in,Austin,TX,
35722,2937 Ellon Rd in Del,Valle,TX,
111563,2000 Blue Meadow in,Austin,TX,
14627,9634 Newfoundland Circle in,Austin,TX,
50934,10206 North Intersate Ih-35 in,Austin,TX,
10637,11717 Mcangus in,Austin,TX,
84287,2405 Mozelle in,Austin,TX,
130774,9800 Zion Way in,Austin,TX,
65264,2010 East Stassney Lane in,Austin,TX,
7420,5801 Satacoy Drive in,Austin,TX,
115487,91 Rainey St in,Austin,TX,
6652,1401 S Pleasant Valley Rd in,Austin,TX,
102213,11441 N Ih35 in,Austin,TX,
13468,8407 Coulver Rd in,Austin,TX,
139238,117 Lightsey Rd in,Austin,TX,
115294,5400 Ross Rd. in,Austin,TX,
74791,7005 Colony Park Dr in,Austin,TX,
60973,1500 W William Cannon Dr in,Austin,TX,
124309,2020 Dry Seasons Trail in,Austin,TX,
75526,821 Gunter St in,Austin,TX,
104226,8419 Fathom Circle in,Austin,TX,
112520,1906 Ulrich in,Austin,TX,
96225,15000 Hamilton Pool Rd in Bee,Cave,TX,
39205,7500 South Ih-35 in,Austin,TX,
989,1354 Old Lockhart Hwy in,Travis,TX,
18824,11600 Maybach Dr in,Austin,TX,
129526,6528 Circulo St in,Austin,TX,
34030,0000 Bolm Rd in,Austin,TX,
46343,1806 Quanah Parker in,Travis,TX,
79663,2512 E 17Th St in,Austin,TX,
45050,1718 E Woodward in,Austin,TX,
82831,6208 Blue Stem Trail in,Austin,TX,
12817,1841 River Crossing Circle in,Austin,TX,
46547,3110 Alice Ave in,Austin,TX,
7862,13517 Briarcreek Loop in,Travis,TX,
122414,12425 Lamplight Village in,Austin,TX,
123398,5725 Toscana Ave in,Austin,TX,
119492,5900 Richard Carlton Blvd in,Austin,TX,
85166,306 W Grady Dr in,Austin,TX,
51171,7709 E Ben White in,Austin,TX,
55060,6208 Carnation Ter in,Austin,TX,
83038,1700 Wickersham Ln in,Austin,TX,
26050,1541 W Cesar Chavez St in,Austin,TX,
107537,6200 Burleson Rd in,Austin,TX,
31100,12505 Pearce Ln in Del,Valle,TX,
1416,201 Chicon in,Austin,TX,
31057,2702 La Mesa in,Austin,TX,
29943,6407 Moonglow Dr in,Austin,TX,
127122,8803 Wiley Way in,Austin,TX,
36274,7050 Village Center in,Austin,TX,
84848,15222 Fm 1825 in,Travis,TX,
115061,6203 Garden View Dr in,Austin,TX,
114732,2931 East 12Th in,Austin,TX,
34647,9515 Manchaca Road in,Austin,TX,
143229,9004 Tall Sky Trace in,Austin,TX,
61835,6200 Sandshof in,Austin,TX,
49044,1324 Robert Browning St in,Austin,TX,
24662,3300 Werner Avenue in,Austin,TX,
97489,3409 Endless Shore Ln in,Austin,TX,
95777,1103 Speer Ln in,Austin,TX,
80529,7910 Gault St in,Austin,TX,
108034,614 S 1St St #240 in,Austin,TX,
21005,7107 E Hwy 290 in,Austin,TX,
36411,112 S Webberwood Way in,Travis,TX,
143197,115 Faro Dr in,Austin,TX,
73087,730 Pedernales in,Austin,TX,
9032,4531 Southwest Dr in,Austin,TX,
62397,12116 Research Blvd in,Austin,TX,
42439,701 E Stassney Ln in,Austin,TX,
92818,14938 Swiss Dr in,Travis,TX,
98178,6514 Ross Road in Del,Valle,TX,
79531,1009 E 46Th St in,Austin,TX,
26120,11000 Middle Fiskville Rd in,Austin,TX,
86778,14300 Tandem Blvd #184 in,Austin,TX,
124916,1636 Maize Bend Dr in,Austin,TX,
114939,4603 Nuckols Crossing Dr in,Austin,TX,
85179,14707 Reynero Ln in,Travis,TX,
134725,5913 La Crosse Ave in,Austin,TX,
106908,3198 Ed Bluestein Dr in,Austin,TX,
82866,7715 E Ben White in,Austin,TX,
95279,3412 S Congress in,Austin,TX,
79552,7401 Nez Perce Trace in,Manor,TX,
6327,1103 Speer Lane in,Austin,TX,
26752,5519 East Ben White in,Austin,TX,
131738,9219 Anderson Mill in,Austin,TX,
72097,4108 Lewis Ln in,Austin,TX,
40359,4621 Kind Way in,Austin,TX,
19117,5307 Navarro Creek in,Travis,TX,
128640,10606 Etta Ln in,Austin,TX,
91795,10325 1625 Rd in,Travis,TX,
31750,14429 Cummins Ways in,Manor,TX,
135774,11910 Hornsby in,Austin,TX,
102059,13817 Klaus Ln in,Travis,TX,
91663,9001 N. Ih 35 in,Austin,TX,
44975,5800 Sweeney Cir # 103 in,Austin,TX,
95648,5201 Ross Rd//Del Valle High School in,Austin,TX,
25187,5604 Fm 1327//Creedmoor Elem in,Austin,TX,
125551,11606 N Lamar Blvd in,Austin,TX,
102176,3413 Lynridge in,Austin,TX,
125484,8415 N Lamar in,Austin,TX,
44806,1704 Nelms Dr #2324 in,Austin,TX,
76332,14201 Gilford in,Travis,TX,
60306,112 W Live Oak in,Austin,TX,
89129,7001 Circle S Rd in,Austin,TX,
71986,4001 Highland Dr in,Austin,TX,
68317,13215 Perconte Dr in,Austin,TX,
68390,2918 Ranch Road 620N in,Austin,TX,
122155,9603 Brown Ln in,Austin,TX,
60234,5502 Shreveport Dr in,Austin,TX,
109549,1200 Dessau Rd in,Austin,TX,
112595,1200 Shadowglen in,Travis,TX,
120536,12304 Elm Valley Dr in,Travis,TX,
32241,13405 Jacobson Rd in,Travis,TX,
35795,17317 Manish Dr in,Pflugerville,TX,
39855,15001 Us-290 in,Manor,TX,
124367,3909 Tattershall in,Austin,TX,
61349,900 Ruth Ave in,Austin,TX,
128875,2806 Manchaca/Lightsey in,Austin,TX,
5555,12317 Palm Harbor Way in,Travis,TX,
108332,9110 Bluff Springs Rd in,Austin,TX,
2180,8500 N Lamar in,Austin,TX,
111634,11729 Lime Creek Road in,Travis,TX,
115043,11729 Lime Creek Road in,Leander,TX,
118433,1720 Woodward Street in,Austin,TX,
52389,6700 Middle Fiskville Rd in,Austin,TX,
28792,6500 Springdale in,Austin,TX,
35181,900.3 Parkfeild in,Austin,TX,
11523,2400 Mission Hill #103 in,Austin,TX,
938,6403 Johnny Morris Rd in,Austin,TX,
85628,6912 Colony Loop in,Austin,TX,
139924,1711 E Oltorf in,Austin,TX,
97309,1900 Dittmar Rd in,Austin,TX,
35047,1401 Kramer Ln in,Austin,TX,
56027,10006 Wildflower Dr in,Austin,TX,
123245,13116 Maidenhair Trl in,Travis,TX,
135727,1111 E 6Th St in,Austin,TX,
124434,910 Hillside Oaks Dr in,Austin,TX,
82029,13802 Hokanson Rd in,Travis,TX,
120024,8136 Huddleston Ln in,Austin,TX,
58791,15140 Eilers Rd in,Austin,TX,
142234,8307 Grayledge in,Austin,TX,
91034,9309 La Puente in,Austin,TX,
36115,6900 Brodie Ln in,Austin,TX,
87968,2800 Yandall in,Austin,TX,
119843,700 Ed Bluestein in,Austin,TX,
114227,6409 Springdale Road in,Austin,TX,
35832,20906 Delorio St in,Travis,TX,
132593,799 W Riverside in,Austin,TX,
49229,4700 N Capital Of Texas Hwy in,Austin,TX,
21255,14008 Briarcreek Loop in,Travis,TX,
87326,8100 N Mopac Expy in,Austin,TX,
116095,6000 Shephard Mountain Cove in,Austin,TX,
38277,6608 Brody Ln in,Austin,TX,
47532,1500 W William Cannon in,Austin,TX,
26716,8834 Circle Dr in,Austin,TX,
12443,2000 Cedar Bend #921 in,Austin,TX,
13114,4700 Staggerbrush Rd in,Austin,TX,
111587,11008 N Lamar Blvd in,Austin,TX,
7145,5406 Pecan Brook Dr in,Austin,TX,
96243,901 E. Ben White in,Austin,TX,
109871,3000 Rexford Dr in,Austin,TX,
9343,807 Kevin Taylor Dr in,Austin,TX,
45069,6100 Thames Dr in,Austin,TX,
44191,4535 Tx-71 in Del,Valle,TX,
49811,1702 Ullrich Ave in,Austin,TX,
140337,13202 Kenswick Dr in,Austin,TX,
52045,14620 North Ih 35 in,Austin,TX,
6709,9900 S Ih 35 Bldg U in,Austin,TX,
120296,6914 Colony Loopo Dr in,Austin,TX,
84758,2103 Ohlen Rd in,Austin,TX,
138929,8615 Rockwood in,Austin,TX,
87303,2000 Cedar Bend in,Austin,TX,
116185,1607 Colony Creek Dr in,Austin,TX,
132742,801 E William Cannon Dr #135 in,Austin,TX,
110393,4901 South 1St St in,Austin,TX,
109473,7227 E 290 Hwy in,Austin,TX,
99723,5708 Bolm Rd in,Austin,TX,
66646,2809 S 1St St in,Austin,TX,
81211,12836 Us-290 in,Manor,TX,
81042,5701 W Slaughter Ln in,Austin,TX,
129195,4800 Steiner Ranch Blvd in,Austin,TX,
52856,10826 Research Blvd in,Austin,TX,
12846,9604 Bock Rd in Mustang,Ridge,TX,
103908,10535 Boyer Blvd in,Austin,TX,
138130,1109 S Pleasant Valley Rd in,Austin,TX,
55992,6809 Greycloud in,Austin,TX,
76567,13510 West Highway 290 in,Austin,TX,
76416,7217 Alegre Pass in,Austin,TX,
122026,14605 Pima Trail in,Austin,TX,
98779,2601 Pleasant Valley Rd in,Austin,TX,
129510,13912 Tophill Cir in,Travis,TX,
3772,7304 Quicksilver Cir in,Austin,TX,
63537,1474 Braker Ln in,Austin,TX,
14717,11202 Balcones Woods Cove in,Austin,TX,
102445,4602 Pleasant Valley in,Austin,TX,
69540,601 Mairo St in,Austin,TX,
19665,2005 Willow Creek in,Austin,TX,
64060,4701 Monterey Oaks in,Austin,TX,
114420,2210 Dove Springs in,Austin,TX,
108013,7337 Manchaca Rd #37 in,Austin,TX,
117686,2705 Hoeke Lane in,Austin,TX,
35706,11800 Pinto Circle in,Travis,TX,
31206,5620 War Admiral Dr in,Austin,TX,
82991,1825 Kramer Ln in,Austin,TX,
71887,3400 Shoreline Dr in,Austin,TX,
46975,817 W Fm1626 in,Austin,TX,
56483,2906 E Mlk Blvd #2109 in,Austin,TX,
101176,2874 Shoal Crest Ave in,Austin,TX,
38933,10409 Golden Meadow in,Austin,TX,
137042,14417 Jacobson Rd in,Travis,TX,
69542,1525 Grand Avenue Pkwy in,Austin,TX,
47610,4401 Ashley Way in,Austin,TX,
37746,7608 Loganberry Dr in,Austin,TX,
58473,3729 Bronco Bend Loop in,Austin,TX,
140652,7807 Linden Rd in,Travis,TX,
99814,15100 Stave Oak Ln in,Travis,TX,
111459,6801 Circle S Rd in,Austin,TX,
23546,8648 Old Beecaves Rd in,Austin,TX,
139562,8210 Washita Dr in,Austin,TX,
31517,11612 Morning View Dr in,Travis,TX,
103612,11613 Railton Dr in,Travis,TX,
47608,5833 Westminster Dr in,Austin,TX,
6883,8709 Brookfield Dr in,Austin,TX,
84225,5202 Buffalo Pass in,Austin,TX,
114268,9207 Gallant Fox Rd in,Austin,TX,
27641,5510 Prock Ln in,Austin,TX,
131024,8316 Summer Wood in,Austin,TX,
105763,833 Fairfield Dr in,Austin,TX,
124923,8000 Research Blvd in,Austin,TX,
13476,2225 E Oltorf St in,Austin,TX,
9333,7332 Muffin Dr in,Austin,TX,
68805,4606 San Simeon Dr in,Austin,TX,
122780,1182 Almo St in,Austin,TX,
69154,1910 W Braker Ln in,Austin,TX,
86467,4509 E Saint Elmo Rd in,Austin,TX,
124474,8106 Parmer Ln in,Manor,TX,
134055,4700 Onion Creek in,Austin,TX,
30369,1908 Wooten Dr in,Austin,TX,
94984,921 E 49 1/2 St in,Austin,TX,
95317,1204 E St Johns Ave in,Austin,TX,
140501,9052 Galewood Dr #121 in,Austin,TX,
22559,14709 Reynero in,Austin,TX,
85457,146 Keller Rd Smithville Tx in,Austin,TX,
46117,5106 Village Square///School in,Austin,TX,
48845,2109 Montopolis in,Austin,TX,
127351,13009 Crane Rd in,Travis,TX,
125113,9345 E Hwy 290 E in,Austin,TX,
54092,4707 Timber Creek in,Austin,TX,
117439,9600 S Ih 35 Rd in,Austin,TX,
59009,800 W Riverside Dr in,Austin,TX,
124390,705 West Stassney Lane in,Austin,TX,
85543,5106 Par Cv in,Austin,TX,
131343,305 Ferguson in,Austin,TX,
111396,8703 Parkfield in,Austin,TX,
23911,200 Mockingbird in,Austin,TX,
126161,9502 S Chisholm Tr in,Austin,TX,
47210,1430 Frontier Valley #73 in,Austin,TX,
10713,2122 Park Bend Drive in,Austin,TX,
139635,2001 Quanah Parker Trail in,Austin,TX,
138325,14511 Pima Trl in,Austin,TX,
47458,4604 Duval Rd in,Austin,TX,
105285,1844 Teri Rd in,Austin,TX,
108869,4312 Duval St in,Austin,TX,
113919,183 N Frontage Rd & Purnell Dr (Ahs) in,Austin,TX,
51462,9104 Swanson Lane in,Austin,TX,
28628,7207 Tumbleweed Dr #A in,Austin,TX,
7280,103 Bolm Rd in,Austin,TX,
48152,4025 S Capital Of Texas Hwy in,Austin,TX,
27093,6311 Oleander Trail in,Austin,TX,
127308,715 W Slaughter in,Austin,TX,
103753,2903 Del Curto Rd in,Austin,TX,
38105,3813 Aspen Creek Pkwy in,Austin,TX,
18509,11607 Old Lockhart Rd in,Travis,TX,
3345,2315 Dovehill in,Austin,TX,
95811,2315 Dovehill Dr in,Austin,TX,
9549,2208 Sorret Tree in,Austin,TX,
110360,1112 Speer Ln in,Austin,TX,
4919,3400 Cambridge Court in,Austin,TX,
33923,12152 Loma Vista Cir in,Travis,TX,
138375,3115 S 1St St in,Austin,TX,
5522,3806 Island Way in,Austin,TX,
93406,6915 Ponsdale Ln in,Austin,TX,
86348,1007 E Rundberg Ln in,Austin,TX,
53480,6500 Manor Rd in,Austin,TX,
49543,9121 N Ih 35 in,Austin,TX,
97606,12032 Von Quintus Rd in,Austin,TX,
125555,2510 S Pleasent Valley in,Austin,TX,
56612,7426 Onion Creek Dr in,Austin,TX,
5607,5509 Paseo Nuevo Circle in Del,Valle,TX,
120703,9501 Oriole Dr in,Austin,TX,
105642,5704 Bitterwood in,Austin,TX,
73344,3014 W William Cannon Dr in,Austin,TX,
117376,2900 Slaughter Ln in,Austin,TX,
10801,14308 Dewberry Dr in,Travis,TX,
97947,3809 Avenue H in,Austin,TX,
17614,13201 Legendary Dr in,Austin,TX,
84601,1112 Airport Blvd in,Austin,TX,
113631,6301 Caroline Ln in,Travis,TX,
82692,12130 Fm 973 N in,Manor,TX,
50896,12031 Von Quintas in,Austin,TX,
42972,4936 Irvine in,Austin,TX,
105936,1809 Berkley Ave in,Austin,TX,
56895,11800 N Lamar Blvd in,Austin,TX,
8043,1615 Westmoor Dr in,Austin,TX,
142038,1205 Begonia Terr in,Austin,TX,
8857,620 And Williamson in,Austin,TX,
20688,106 Algarita Dr in Del,Valle,TX,
37380,11801 North Oaks Dr in,Austin,TX,
75215,166 Dry Creek Rd in,Austin,TX,
92830,1626 Kramer Ln in,Austin,TX,
57419,125 Bolles Cir in,Austin,TX,
108378,2501 Anken Dr in,Austin,TX,
115638,6800 Doyal Dr in,Austin,TX,
96046,4501 E Riverside in,Austin,TX,
59077,8209 S Red Oak Cir in,Austin,TX,
103905,405 Nelray Blvd in,Austin,TX,
89330,6409 Creedmoor Rd in,Austin,TX,
11328,3100 Esperanza Crossing in,Austin,TX,
81163,412 William Cannon in,Austin,TX,
81956,1931 E Oltorf St in,Austin,TX,
3370,9402 Crownspoint in,Austin,TX,
38677,17944 Majestic in,Travis,TX,
56594,2806 Crownspoint in,Austin,TX,
117693,7700 W Parmer Ln in,Austin,TX,
90145,1604 Lohnman Crossing in,Austin,TX,
135185,7413 Muffin Dr in,Austin,TX,
53756,1402 Weatherford Dr in,Austin,TX,
130934,910 Walter in,Austin,TX,
9835,400 Linda Ln. in,Austin,TX,
26993,1607 Pennsylvania in,Austin,TX,
119392,17816 Powder Creek Dr in,Travis,TX,
29809,1411 Brazos St in,Austin,TX,
75079,5425 Falling Leaf Ln in,Austin,TX,
96776,1011 Smith Rd in,Austin,TX,
138980,9715 Dallum Dr in,Austin,TX,
88108,1603 Gracy Farms Ln in,Austin,TX,
128602,10500 Becker in,Austin,TX,
89450,3902 Run Of The Oaks Dr in,Austin,TX,
24517,10616 Mellow Meadow Dr in,Austin,TX,
92355,6201 Bolm Rd in,Austin,TX,
17714,11900 Buckinghamd Rd in,Austin,TX,
48904,3628 Manchaca Rd in,Austin,TX,
89466,2735 E 7Th Street in,Austin,TX,
100146,8907 Capitol Dr in,Austin,TX,
43112,7976 Research Blvd in,Austin,TX,
120636,13433 Wagon Way in Cedar,Park,TX,
140368,3120 Prado St in,Austin,TX,
12797,1078 Mearns Meadow Blvd in,Austin,TX,
32562,51St/ Waterbrook in,Austin,TX,
111390,13101 Thome Valley Dr in,Austin,TX,
55142,7232 White Panda Run in,Travis,TX,
17197,8004 Forbsdale in,Austin,TX,
143062,6302 Craigwood Circle in,Austin,TX,
136902,1319 Mckie Cove in,Austin,TX,
142946,601 E Riverside in,Austin,TX,
90071,1306 Mckie Cove in,Austin,TX,
70422,11900 Plain Valley Dr in Del,Valle,TX,
140667,454 Bastrop Hwy in,Austin,TX,
95070,11101 Decker Lake Rd in,Austin,TX,
97192,5105 Par Cove in,Austin,TX,
115055,624 N Pleasant Valley Rd in,Austin,TX,
89486,2015 Cedar Bend Building #1 in,Austin,TX,
87788,7404 Onion Crossing Dr in,Austin,TX,
24844,2706 Mulford in,Austin,TX,
77069,9605 Bear Paw Trl in Del,Valle,TX,
97726,2818 San Gabriel Drive in,Austin,TX,
140978,1823 Airport Blvd in,Austin,TX,
56334,7206 Inspiration in,Austin,TX,
128010,1221 Algarita Ave #202 in,Austin,TX,
95003,452 Bastrop Highway in,Austin,TX,
54695,0 in,Austin,TX,
45842,8202 Furness Cove in,Austin,TX,
121389,1037 Wisteria Trail in,Austin,TX,
46510,8120 E Riverside Dr in,Austin,TX,
75402,1720 Grande Ave Pkwy in,Travis,TX,
52991,805 Ramble Ln in,Austin,TX,
142757,1602 Travis Heights Blvd in,Austin,TX,
130589,6201 Berkman Dr in,Austin,TX,
33719,835 W Rundberg Ln in,Austin,TX,
26283,2800 S. Lakeline Blvd in,Austin,TX,
17646,183 And Manor Rd in,Austin,TX,
40469,2300 Santa Rita St in,Austin,TX,
53897,9100 Mountain Ridge Dr in,Austin,TX,
95983,7207 Twin Crest Dr in,Austin,TX,
2120,1008 Valdez in,Austin,TX,
43330,5203 Stonegate in,Austin,TX,
133298,3701 Tower View Ct in,Austin,TX,
94827,1136 Poquito St #101 in,Austin,TX,
60002,8601 Vertex in,Austin,TX,
11221,8103 Burnet Rd in,Austin,TX,
95148,15003 Swiss in,Travis,TX,
37685,511 Wolverton Dr in,Austin,TX,
133338,1910 Braker Ln in,Austin,TX,
11400,7404 Crepe Myrtle Dr in,Austin,TX,
65742,5401 Hudson Bend Dr in,Austin,TX,
12172,6104 Oleander Trail in,Austin,TX,
85802,6305 Emory in,Austin,TX,
11813,0000 Wickersham in,Austin,TX,
129143,11402 Bruce Jenner Ln in,Austin,TX,
20431,13610 Long Meadow Dr in,Travis,TX,
101284,2515 Allred in,Austin,TX,
65771,4806 Scarsdale Dr in,Austin,TX,
39211,1406 Click Cove in,Austin,TX,
38181,5108 Pleasant Valley Rd in,Austin,TX,
11712,13812 Lazyridge Dr in,Pflugerville,TX,
105558,11505 Melstone Dr in,Austin,TX,
117422,1308 Thornberry Rd in,Austin,TX,
64231,7125 Dee Gabriel Collins in,Travis,TX,
139469,6706 Roseborough in,Austin,TX,
68483,2207 S 5Th in,Austin,TX,
99374,8800 S 1St in,Austin,TX,
119800,5811 Conventry in,Austin,TX,
120029,5606 Apple Orchard Ln in,Austin,TX,
20716,7003 Trendal Ln in,Austin,TX,
85329,5605 Nuckols Crossing in,Austin,TX,
107100,11216 Chatum Berry Ln in,Austin,TX,
42725,307 Red Bird in,Austin,TX,
68893,8868 Research Blvd in,Austin,TX,
11886,2704 Carnarvon Dr in,Austin,TX,
84523,421 W Parsons St in,Manor,TX,
92953,8507 Apache Springs Cir in,Austin,TX,
550,11717 Schriber Rd in,Travis,TX,
5892,2311 S 5Th St in,Austin,TX,
27290,10404 Premier Park St in,Austin,TX,
126491,11603 Richland Rd in,Travis,TX,
78650,5907 Thames in,Austin,TX,
134371,51St And Lamar Ln in,Austin,TX,
22753,11709 Pearce Ln in,Travis,TX,
101782,13917 Greinert Dr in,Travis,TX,
73808,38Th St And Lamar in,Austin,TX,
127774,4900 Nesting Way in,Austin,TX,
125526,14510 Deaf Smith Blvd in,Austin,TX,
9187,5700 Steven Creek Way in,Austin,TX,
27747,2536 Lavendale Ct in,Austin,TX,
16851,1834 Ferguson Lane in,Austin,TX,
27099,2402 Parker in,Austin,TX,
38043,609 River Oaks Dr in,Austin,TX,
74862,900 Plaza Dr. in,Austin,TX,
73852,11505 Oak View Dr in,Austin,TX,
74963,60 S Pleasant Valley Rd in,Austin,TX,
69202,1102 Prospect Ave in,Austin,TX,
116400,8109 Huddleston Ln in,Austin,TX,
15121,2509 E 11Th St in,Austin,TX,
91530,17805 Aleppo Pine Trl in,Travis,TX,
26858,2201 E Ben White Blvd in,Austin,TX,
57840,5313 Serene Hills Dr in,Lakeway,TX,
50042,7201 Breezy Pass Cv in,Austin,TX,
121212,405 Twin Creek in,Travis,TX,
56703,600 E 53Rd in,Austin,TX,
27658,3102 Windsor Rd in,Austin,TX,
136903,8512 Deja Ave in,Austin,TX,
97099,1603 S Congress Ave in,Austin,TX,
112664,801 E. William Cannon in,Austin,TX,
120334,5805 Wellington in,Austin,TX,
27406,4803 Flicker Cv. in,Austin,TX,
75110,9410 Hunters Trace in,Austin,TX,
62470,401 Hackberry in,Austin,TX,
8923,11402 Cecil Rose in,Travis,TX,
63225,1817 W Braker Ln in,Austin,TX,
6165,1905 Wittard Of Chelsea in,Pflugerville,TX,
71098,6501 W William Cannon in,Austin,TX,
22846,8700 Westgate Blvd in,Austin,TX,
121086,3205 Jones Rd in Sunset,Valley,TX,
105327,6316 Perlita Dr. in,Austin,TX,
105654,1604 Creek Hollow Drive in,Austin,TX,
124898,2203 S L Davis Ave in,Austin,TX,
37457,6112 Turnersville Rd in,Creedmoor,TX,
1512,905 W Village in,Austin,TX,
86179,7204 Lazycreek in,Austin,TX,
26730,11837 Shropshire Blvd in,Austin,TX,
5123,9717 E. Us Highway 290 in,Austin,TX,
2791,10609 Garbacz Dr in,Austin,TX,
17017,7704 Whispering Winds Dr in,Austin,TX,
50049,2600 Scoffield Rd in,Austin,TX,
71692,9470 U.S. 290 in,Austin,TX,
2463,1601 Haskell in,Austin,TX,
77609,3321 Dalton St in,Austin,TX,
54820,4417 Mattie St in,Austin,TX,
7571,5700 Garden Oaks Dr in,Austin,TX,
58264,6318 Del Monte in,Austin,TX,
28014,12400 Limerick in,Austin,TX,
6491,9405 Dallum Dr in,Austin,TX,
63901,401 Eberhart Ln in,Austin,TX,
7568,2101 Burton Dr Apt 2003 in,Austin,TX,
28638,29 Hull Cir in,Austin,TX,
8771,2500 Burleson Road in,Austin,TX,
138341,908 Floradale Dr in,Austin,TX,
17079,2400 Blue Meadow in,Austin,TX,
33038,12724 Casting Dr in,Manor,TX,
62132,18440 Great Valley in,Manor,TX,
51404,2400 E Mlk Dr in,Austin,TX,
113172,13466 Us 183 in,Austin,TX,
89258,3419 W Slaughter Ln in,Austin,TX,
81902,1434 W. Wells Branch Pkwy in,Travis,TX,
140630,12905 Sago Palm Trl. in,Travis,TX,
12766,6803 Blue Dawn in,Austin,TX,
17361,8504 Red Willow in,Austin,TX,
119603,2815 Inridge Dr in,Austin,TX,
124417,5020 Manor Rd in,Austin,TX,
18414,10205 N Lamar in,Austin,TX,
86583,6601 Fm 1327 in Mustang,Ridge,TX,
45611,3400 S. Congress in,Austin,TX,
78378,8201 Riverstone Dr Side A in,Austin,TX,
133984,2520 Elmont in,Austin,TX,
132918,2706 Princeton Dr in,Austin,TX,
124529,801 Peyton Gin Rd in,Austin,TX,
99763,2011 Riverview Street in,Austin,TX,
43603,3907 South Industrial Dr in,Austin,TX,
10861,4419 Silverstone Dr in,Austin,TX,
132517,1101 Rutland Dr in,Austin,TX,
96914,5407 Spring Meadow in,Austin,TX,
17375,1701 Greenock St in,Austin,TX,
53580,3400 Shoreline Dr. in,Austin,TX,
110416,4713 Oak Cliff Dr in,Austin,TX,
104614,5501 Tessa Cv in Del,Valle,TX,
49706,4401 Leslie Ave in,Austin,TX,
9526,9707 Brodie Ln in,Austin,TX,
41267,500 S Pleasant Valley in,Austin,TX,
82778,1201 Rutland Dr in,Austin,TX,
34988,2817 Prado St in,Austin,TX,
51160,3600 Bratton Heights Dr in,Austin,TX,
133638,11511 Hidden Quail Dr in,Austin,TX,
51811,625 E Stassney Ln in,Austin,TX,
88265,4404 Imperial Dr in,Austin,TX,
52705,1616 Webberville Rd in,Austin,TX,
41747,7100 N Interstate Hwy 3 in,Austin,TX,
130084,52Nd St And Lancaster Rd in,Austin,TX,
83224,211 E 7Th St in,Austin,TX,
74167,1800 Cherry Orchard in,Austin,TX,
55239,2201 Andrew Zilker in,Austin,TX,
14990,7105 Bluff Springs Road in,Austin,TX,
10171,21902 Coldspring Dr in,Leander,TX,
46668,6201 Club Ter in,Austin,TX,
98489,7317 Shadywood Drive in,Austin,TX,
121091,9800 Aberdeen in,Austin,TX,
50096,10111 N Lamar Blvd in,Austin,TX,
13547,12607 Wright Road in,Creedmoor,TX,
90772,13602 Farm To Market Rd 812 in Del,Valle,TX,
96136,6702 Meadow Lake Blvd in,Austin,TX,
21734,801 W William Cannon Dr in,Austin,TX,
92678,4802 Brook Creek in,Austin,TX,
11839,905 Fm 969 in,Austin,TX,
48813,3801 Burkman Dr in,Austin,TX,
11073,10020 Epic Knoll Dr in,Austin,TX,
30310,1215 Chappell Ln in,Austin,TX,
87051,6900 William Wallace Way in,Austin,TX,
134078,8000 Seminary Ridge Dr in,Austin,TX,
14333,1901 Sunny Brook in,Austin,TX,
122478,12312 Paloma Blanca Way in,Austin,TX,
6212,8413 Danville Dr in,Austin,TX,
118098,8413 Taylor Ln in,Travis,TX,
86387,7Th St And Sabine St in,Austin,TX,
29934,11602 Poplar Cove in,Austin,TX,
135314,12501 W Cowpath in,Austin,TX,
75581,107 Bedrock Dr in,Travis,TX,
74530,1425 Wells Branch in,Austin,TX,
114168,1425 Wells Branch in,Austin,TX,
42391,4660 Priem in,Pflugerville,TX,
98991,1102 Estes in,Austin,TX,
56548,1902 Arthur Lane in,Austin,TX,
31349,71 And Old Bee Caves Rd in,Austin,TX,
57377,18247 Blake Manor Rn in,Travis,TX,
134026,290 And Springdale in,Austin,TX,
82543,14360 Falcon Head Drive in,Travis,TX,
33560,12500 Amherst Dr in,Austin,TX,
82953,2205 Palmera Cv in,Austin,TX,
82844,1606 Northridge Dr in,Austin,TX,
136493,1611 W 5Th in,Austin,TX,
116614,919 3 32Nd St in,Austin,TX,
8620,600 W William Cannon in,Austin,TX,
63836,8722 Showers Rd in,Travis,TX,
132772,5078 Ranch Road in,Austin,TX,
134120,5000 Westgate Blvd in,Austin,TX,
50887,1808 E 14Th St in,Austin,TX,
78564,21820 Ann Showers in,Travis,TX,
82202,4905 Fontenay Dr in,Austin,TX,
5474,12201 Prairie Glen Ct in Del,Valle,TX,
119320,300 Brentwood St in,Austin,TX,
51421,8Th And Red River in,Austin,TX,
1489,1803 Broadmoor Dr in,Austin,TX,
5527,913 N Meadows Dr in,Austin,TX,
99388,10420 Metric Blvd in,Austin,TX,
27163,412 E William Cannon Dr in,Austin,TX,
104378,3706 S 1St in,Austin,TX,
91563,310 E Croslin Rd Apt 202 in,Austin,TX,
53446,5300 Village Trl in,Austin,TX,
12549,6715 S Ih 35 in,Austin,TX,
54480,1107 Farm To Market 1626 in,Travis,TX,
122837,2401 Longview in,Austin,TX,
22228,12704 Quirin in,Travis,TX,
72839,8605 High Valley Rd in,Travis,TX,
115994,3601 Cherry Lane in,Austin,TX,
115703,1701 Riverview in,Austin,TX,
98351,3839 Dry Creek Dr in,Austin,TX,
16363,744 William Cannon in,Austin,TX,
92232,7700 North Cross Dr in,Austin,TX,
131812,6302 Wolf Ln in,Travis,TX,
65478,5500 Manor Rd in,Austin,TX,
38996,15104 Bullace St in,Austin,TX,
46115,1903 Sl Davis in,Austin,TX,
1791,14500 Deaf Smith in,Travis,TX,
124054,6911 Wentworth Dr #D in,Austin,TX,
121330,11727 Reata Dr in,Travis,TX,
83304,8800 Stambourne Street in,Austin,TX,
27094,7201 Shanon Dr in,Austin,TX,
70118,1185 Mockingbird Ln in,Austin,TX,
114677,11403 B Ptarmigan Dr in,Austin,TX,
120126,3Rd St And Bowie St in,Austin,TX,
89915,12712 Rush Creek Lane in,Travis,TX,
82061,7001 Ross Rd in,Travis,TX,
113657,1300 E Riverside Dr in,Austin,TX,
98842,301 Laurelwood in,Travis,TX,
45581,15307 Delahunty Ln in,Travis,TX,
84442,14229 Anita Marie in,Travis,TX,
62949,13252 George Bush St in,Travis,TX,
71312,4504 Kitty in,Austin,TX,
94030,1200 E Parmer in,Austin,TX,
45494,3308 Hycreek in,Austin,TX,
107784,2402 Windsor Rd in,Austin,TX,
90942,18052 Tartar Way in,Austin,TX,
108444,6405 Crowley Trl in,Austin,TX,
23610,12700 Mystic Drive in,Travis,TX,
37032,12707 N Mopac Expy in,Austin,TX,
18521,8507 Georgian Dr #B in,Austin,TX,
125802,14704 Highsmith in,Austin,TX,
33050,2309 Berkley Ave in,Austin,TX,
41062,"290 And I 35, Tx in",Austin,TX,
13901,12505 La Paz in,Austin,TX,
26712,2609 Bliss Spliar Rd in,Travis,TX,
72583,6012 Kidneywood in,Austin,TX,
98886,5400 Downs Dr in,Austin,TX,
117082,21302 Wipple Tree Cv in,Austin,TX,
27926,6911 Thistle Hill Way in,Austin,TX,
74578,38Th St And Cherrywood in,Austin,TX,
43004,1900 Westridge in,Austin,TX,
28009,5001 Freidrich in,Austin,TX,
78945,120 W Oltorf in,Austin,TX,
133370,6607 S Ih 35 Frontage Rd in,Austin,TX,
3296,7706 Northcross Blvd in,Austin,TX,
116388,7414 Johnny Morrios in,Austin,TX,
23608,2000 E 8Th St in,Austin,TX,
37647,1720 Woodward in,Austin,TX,
53391,1148 Mansell Ave in,Austin,TX,
70487,1412 Orange Spice Ct in,Travis,TX,
40006,1408 Parker Ln in,Austin,TX,
6552,5100 Pecan Brook Drive in,Austin,TX,
106731,619 W Powell Ln in,Austin,TX,
103195,6000 Cimarron Trail in,Austin,TX,
2745,5325 Gooding in,Austin,TX,
78260,2211 Daisy Dr in,Austin,TX,
40544,973 And Platt Ln in,Austin,TX,
63466,7601 Barkdale in,Austin,TX,
10350,400 W. Anderson Ln in,Austin,TX,
44789,12034 Research ( Goodsam Refused To Give Address) in,Austin,TX,
28119,2814 Gonzales Street in,Austin,TX,
125855,13021 Legendary Dr in,Austin,TX,
128896,615 St. Johns in,Austin,TX,
35932,3421 William Cannon in,Austin,TX,
95470,8000 Decker Lane in,Austin,TX,
59820,7500 Blessing in,Austin,TX,
118381,6115 Oliver Loving Trl in,Austin,TX,
143284,7005 Colony Park Drive in,Austin,TX,
115218,5300 Wooland Oaks Ct in,Austin,TX,
125158,1830 Elroy Rd in,Travis,TX,
105239,11712 Lindeman Loop in,Travis,TX,
90028,1620 E Riverside Rd #3040 in,Austin,TX,
26497,13000 N Interstate Hwy 35 in,Austin,TX,
31970,5220 Hudson Bend in,Travis,TX,
84968,5807 Wellington Dr in,Austin,TX,
129240,5511 Blue Bluff Rd in,Travis,TX,
87384,1181 Airport Blvd in,Austin,TX,
138339,18324 Lydia Springs in,Travis,TX,
8243,12449 Fm 812 in Del,Valle,TX,
32693,301 E. Longspur Blvd. in,Austin,TX,
70616,12301 Patron Drive in,Austin,TX,
38650,5708 Cedardale in,Austin,TX,
87228,2905 Locke Ln in,Austin,TX,
71632,12805 Rampart St in,Austin,TX,
126304,6806 Breezy Hill Dr in,Travis,TX,
105822,1308 Canterberry in,Austin,TX,
19082,2801 W Wells Branch in,Austin,TX,
137741,15008A Fm 812 in,Austin,TX,
103848,4601 St Elmo St in,Austin,TX,
25691,16101 White River Blvd in,Pflugerville,TX,
63348,8312 N Ih 35 Hwy in,Austin,TX,
23284,15700 Anderson Mill Rd in,Travis,TX,
115300,8400 Peaceful Hill Ln in,Austin,TX,
4289,10555 U.S 290 in,Manor,TX,
128172,3309 Goodwine Ave in,Austin,TX,
132254,7704 Fenton Cv in,Austin,TX,
74579,13676 Bee Cave Pkwy in Bee,Cave,TX,
47958,6933 Felipe Dr in,Austin,TX,
41868,501 Post Rd in,Austin,TX,
110758,12610 Riata Trace Pkwy in,Austin,TX,
113312,14200 Varrelman in,Austin,TX,
50743,2400 S Congress in,Austin,TX,
119857,8418 Fathom Cir in,Austin,TX,
107957,6600 Plains Crest Dr in Del,Valle,TX,
31954,7500 W Hwy 71 in,Austin,TX,
42070,9307 N Lamar in,Austin,TX,
97225,15401 Ozone Pl. in,Austin,TX,
16403,8413 S Fm 973 in,Austin,TX,
5825,6801 Citadel Cove in,Austin,TX,
70562,11403 Clear Springs in,Travis,TX,
137230,2237 E Riverside Dr in,Austin,TX,
137397,3600 Interstate 35 South in,Austin,TX,
128817,4701 Stagerbrush Rd in,Austin,TX,
10338,11900 Stonehollow in,Austin,TX,
19702,2901 Lagerway Cove in,Austin,TX,
30429,7802 A Brodie Ln in,Austin,TX,
79169,6915 Bennett in,Austin,TX,
53527,16700 Jaron Dr in,Manor,TX,
57737,12621 Hymeadow Drive in,Austin,TX,
99578,1305 Citation Circle in Del,Valle,TX,
24977,1701 Directory Blvd in,Austin,TX,
58750,13050 Pond Springs Rd in,Austin,TX,
121715,15000 Arizona Oak in,Travis,TX,
68437,1301 W. Banister Lane in,Austin,TX,
114953,4600 Monterey Oaks in,Austin,TX,
84871,14103 Lazyridge Dr in,Austin,TX,
34279,12900 Gregg Manor Rd in,Manor,TX,
118245,1401 E 12Th in,Austin,TX,
88982,1603 East Oltorf Blvd/La Quinta in,Austin,TX,
140711,4814 Misty Slope Ln in,Austin,TX,
119782,4413 Nixon Dr in,Austin,TX,
95825,32Nd St And Grand View in,Austin,TX,
120811,11724 Research in,Austin,TX,
2784,8519 Cah Hill Dr in,Austin,TX,
104873,5801 West Highway 290 in,Austin,TX,
27879,1416 Sweet Leaf Ln in,Pflugerville,TX,
67070,4404 East Oltorf in,Austin,TX,
126847,9308 Fm 969 in,Travis,TX,
107397,6507 Clubway Ln in,Austin,TX,
68382,2501 South Ih 35 in,Austin,TX,
11519,406 Circle C in,Austin,TX,
88377,2207 Riverside Farms Rd in,Austin,TX,
18370,1826 And 290 in,Austin,TX,
38825,515 N. Pleasant Valley in,Austin,TX,
71913,14912 Fagerquist Rd in,Austin,TX,
15339,10611 Scotland Well Dr in,Austin,TX,
50003,12501 Tech Ridge in,Austin,TX,
25495,5010 South Congress in,Austin,TX,
74273,5900 Wideleaf in,Austin,TX,
124420,3407 Wellls Branch Pkwy in,Austin,TX,
113676,6306 E Riverside Dr in,Austin,TX,
23517,1928 Newning Ave in,Austin,TX,
51670,15500 Connie in,Austin,TX,
136440,4700 Imperial Dr. in,Austin,TX,
13354,1100 Emerald Forest Cv in,Austin,TX,
23991,6707 S Ih 35 Frontage Rd in,Austin,TX,
96919,9001 Granada Hills Dr in,Austin,TX,
2193,7706 Eastcrest in,Austin,TX,
124800,12330 Little Emily Way in,Austin,TX,
101445,6500 E. William Cannon in,Austin,TX,
81103,13400 Capadocia Cv in,Austin,TX,
53268,183 Gessner in,Austin,TX,
87478,2222 And Joe Sayers in,Austin,TX,
4822,1705 Crossing Pl in,Austin,TX,
132119,2828 Rio Grande St in,Austin,TX,
94278,8002 Sonnet Ave in,Austin,TX,
81982,4434 Frontier Trl { No Address Left By Goodsam} in,Austin,TX,
127439,4434 Frontier Trl( Goodsam Didnt Leave Found Address in,Austin,TX,
96663,2404 Marcus Abrams Blvd in,Austin,TX,
126913,11819 Edward St in,Travis,TX,
126368,11300 Doyle Overton in,Travis,TX,
44646,7304 South Glenn St in,Austin,TX,
134820,290 And Cameron Rd in,Austin,TX,
58840,7905 Briarton Dr in,Austin,TX,
11896,10111 N Lamar in,Austin,TX,
93866,1901 E. Anderson Lane in,Austin,TX,
119398,11Th St And Prospect in,Austin,TX,
121840,8000 Thaxton Dr in,Austin,TX,
121830,11900 Buckingham Rd in,Austin,TX,
47326,2800 Collins Creek #3001 in,Austin,TX,
67483,603 Barton Springs Rd in,Austin,TX,
123829,4000 E 12Th Street in,Austin,TX,
10891,8201 Coulver Rd in,Travis,TX,
7018,10701 S 1St St in,Austin,TX,
87566,3709 Quick Hill Drive in,Austin,TX,
7477,10004 Old Lockhart Rd in,Travis,TX,
16331,6403 S Pleasant Valley in,Austin,TX,
123118,7928 Tee Dr in,Austin,TX,
103812,11312 Canterbury Tales Lane in,Austin,TX,
138594,4913 Barclay Heights Ct in,Austin,TX,
25767,11210 Renel Dr in,Austin,TX,
8656,11412 Pyreneese Dr in,Austin,TX,
19080,453 Tiffany Trl in,Austin,TX,
120319,1720 Grand Ave Parkway in,Travis,TX,
133025,3501 Andtree in,Travis,TX,
9016,1703 Ranch Rd 620 S in,Travis,TX,
132191,12509 N Lamar in,Austin,TX,
6559,10700 Legends Ln in,Austin,TX,
125746,10710 Moore Rd in,Travis,TX,
99453,1810 Springdale Rd in,Austin,TX,
64963,727 Airport Blvd in,Austin,TX,
47930,3407 Wells Branch Pkwy in,Austin,TX,
36287,911 Silcantu Dr in,Austin,TX,
104543,6802 Mini Cir in,Austin,TX,
104669,915 Bodgers Dr in,Austin,TX,
118401,5503 Manor Rd in,Austin,TX,
48741,8800 Us-290 in,Travis,TX,
35177,2101 Elara in,Travis,TX,
107171,12224 Margo Dr in,Travis,TX,
108936,1128 Gardner in,Austin,TX,
51152,2702 Rae Dell Ave in,Austin,TX,
12818,15108 Mimebark in,Travis,TX,
1245,1920 E Riverside Dr in,Austin,TX,
63427,2020 Petrified Forest Drive in,Austin,TX,
28482,4906 Sara Dr in,Austin,TX,
106791,300 E Rundberg Ln in,Austin,TX,
99664,1404 Dwyce Dr in,Austin,TX,
93016,1002 Eason St in,Austin,TX,
95235,2607 Sol Wilson Ave in,Austin,TX,
127965,4710 Bandera Rd in,Austin,TX,
10656,5900 Signal Pt in,Austin,TX,
109091,8200 Flaxen Dr in,Austin,TX,
108758,2001 Bastrop Hwy in,Austin,TX,
22414,1327 Ih 35 in,Austin,TX,
93191,2013 Holly St in,Austin,TX,
45953,3501 Larchmont Cove in,Austin,TX,
75177,1323 W Ben White Blvd in,Austin,TX,
128672,8914 Fm812 in,Travis,TX,
5144,8101 Fm 969 in,Austin,TX,
1567,8708 Coastal Dr in,Austin,TX,
30794,6917 Bethune Avenue in,Austin,TX,
65443,183 And Fathom Cir in,Austin,TX,
101152,1705 Crossing Place #145 in,Austin,TX,
110153,290 And Ih 35 in,Austin,TX,
125662,2012 Wagon Crossing in,Austin,TX,
15894,13924 Marcella in,Travis,TX,
68440,2606 Signal Pt in,Austin,TX,
141683,8421 Elroy Rd in,Travis,TX,
35238,6516 Ross Rd in,Travis,TX,
134880,6800 Berkman Dr in,Austin,TX,
9421,22300 Nameless Rd. in,Travis,TX,
8809,5907 Curlington Ct in,Austin,TX,
127896,200 Blk E 6Th St in,Austin,TX,
140813,969 And Decker Ln in,Austin,TX,
127425,1717 Toomey Rd in,Austin,TX,
81154,2124 Burton Dr in,Austin,TX,
85872,13911 Long Hollow Loop in,Travis,TX,
71791,1412 S Congress in,Austin,TX,
41866,820 Fm 1626 in,Austin,TX,
108673,85 Trinity in,Austin,TX,
99172,7701 Pitter Pat Ln in,Austin,TX,
57433,183 And Mlk in,Austin,TX,
73504,8125 Huddleston Ln in,Austin,TX,
115738,4904 Edge Creek Dr in,Austin,TX,
15772,13017 Emma Lee in,Austin,TX,
70803,300 Lavaca in,Austin,TX,
82425,7403 S Pleasant Valley in,Austin,TX,
110162,4605 Glade Run in,Austin,TX,
33994,7609 Meador Ave in,Austin,TX,
118806,11806 Tanglebriar Trl in,Austin,TX,
50707,2404 E Stassney Ln in,Austin,TX,
36329,2308 Devonshire in,Austin,TX,
68345,7631 W Hwy 290 in,Austin,TX,
48402,2200 South Pleasant Valley in,Austin,TX,
125550,13450 Anderson Mill Rd in,Austin,TX,
73304,16312 Leopold Trl in,Austin,TX,
48167,2603 Rae Dell Ave in,Austin,TX,
43732,2003 Mestina Trail in,Austin,TX,
128488,13420 Lyndhurst St in,Austin,TX,
90608,500 Bramble Dr in,Austin,TX,
27873,1010 Valdez St in,Austin,TX,
36757,8300 N Lamar in,Austin,TX,
124573,19304 Blake Manor in,Travis,TX,
71665,12207 Deane Rd in,Travis,TX,
130434,1808 Future Dr in,Austin,TX,
90411,19304 Blake Manor Road in,Travis,TX,
35852,3210 Esperanza Xing in,Austin,TX,
54892,2425 Village Walk in,Austin,TX,
67160,2901 Capital Of Texas in,Austin,TX,
69444,8220 W. 71 in,Austin,TX,
56780,21701 Highclimb Ct in,Travis,TX,
28382,5503 Spring Meadow Rd in,Austin,TX,
67514,1206 Fairfield Dr in,Austin,TX,
107503,3615 Oak Springs Rd in,Austin,TX,
42509,24712 Fawn Dr in,Travis,TX,
112086,4803 Pewter in,Austin,TX,
74571,6018 Marigold in,Austin,TX,
135345,1012 Clermont Avenue in,Austin,TX,
57150,4305 Red River in,Austin,TX,
138099,16604 Deckers Creek in,Austin,TX,
112554,16604 Decker Creek Dr in,Austin,TX,
31465,3407 Dolphin Dr in,Austin,TX,
43785,5118 Maulding Pass in,Austin,TX,
133731,2504 Huntwick in,Austin,TX,
20212,4703 Crest Oak Rd in,Austin,TX,
3235,6503 Shadow Valley Dr in,Austin,TX,
3576,7100 Whispering Winds Dr in,Austin,TX,
82501,12920 John Adams in,Austin,TX,
95540,12705 Sky Harbor Dr in Del,Valle,TX,
122195,7807 Broken Lance in,Austin,TX,
3298,2304 Perry Ave in,Austin,TX,
37308,8501 Davis Oaks in,Austin,TX,
23889,2808 Palomino Trl in,Austin,TX,
125824,5107 Acorn in,Austin,TX,
87753,7005 Colony Loop in,Austin,TX,
28912,20901 Windmill Ridge St in,Pflugerville,TX,
112844,9410 Hansford Dr in,Austin,TX,
136610,1300 Duepree St in,Austin,TX,
101233,1620 E 10Th in,Austin,TX,
96866,973 And Thyone in,Travis,TX,
93529,3404 Hwy 183 in,Austin,TX,
10877,1513 Vanilla Bean in,Travis,TX,
105389,21413 Webber Oaks Cv in,Travis,TX,
124912,5508 Ponciana Dr in,Austin,TX,
5599,3012 S 4Th St #B in,Austin,TX,
35350,4721 Fallenash in,Travis,TX,
73564,7807 Broken Lance Ln in,Austin,TX,
25094,13327 Black Canyon Dr in,Austin,TX,
29366,4114 Adelphi Ln in,Austin,TX,
102055,913 Milford Way # A in,Austin,TX,
136013,6704 Sand Shorf in,Austin,TX,
21276,7201 South Congress Avenue in,Austin,TX,
76891,9710 Bock Rd in,Travis,TX,
63975,16604 Easybend in,Travis,TX,
29823,5801 Sendero Hills Pkwy in,Austin,TX,
135149,6911 Woodhue Dr in,Austin,TX,
112929,6614 Blue Bluff Road in,Austin,TX,
49606,2600 Pecos St in,Austin,TX,
53110,9010 Galewood in,Austin,TX,
44739,1500 Turtle Creek in,Austin,TX,
17592,10222 Missel Thrush in,Austin,TX,
129843,11316 Jollyville Rd in,Austin,TX,
75935,9Th 1/2 And Shelly in,Austin,TX,
23890,8106 Brodie Ln #102 in,Austin,TX,
64599,7905 Marble Ridge Dr in,Austin,TX,
122307,9705 Burnet Rd in,Austin,TX,
5876,3663 Bee Cave Rd in,Austin,TX,
1797,114 Terry Dr in,Austin,TX,
23718,71 Strandtman in,Austin,TX,
107594,1705 Frontier Valley Dr in,Austin,TX,
82502,200 Pedernales St in,Austin,TX,
134688,8419 Old Lockhart Rd in,Travis,TX,
99456,8504 Linden Loop in Del,Valle,TX,
105850,1014 S Meadows Dr in,Austin,TX,
56989,2911 W Slaughter Ln in,Austin,TX,
46310,6425 Kedington St in,Austin,TX,
25583,2714 E 2Nd St in,Austin,TX,
27300,4904 Brassiewood Dr in,Austin,TX,
90733,3105 Locke Ln in,Austin,TX,
137533,10515 N. Mopac Hwy in,Austin,TX,
35099,10909 Caffey in,Travis,TX,
18214,2200 Big Horn in,Travis,TX,
58918,1716 Woodward St Unit 212 in,Austin,TX,
108913,3104 Brinwood in,Austin,TX,
91421,912 S Hwy 183 in,Austin,TX,
16838,6103 Manor Rd #143 in,Austin,TX,
117081,9212 Decker in,Travis,TX,
106651,8000 Colton Bluff Bsprings Rd in,Travis,TX,
128586,5911 Johnny Morris Rd in,Austin,TX,
81135,8306 Riverstone Dr in,Austin,TX,
8148,322 Explorer in,Travis,TX,
46821,1100 East Oltorf St in,Austin,TX,
35640,2511 E 6Th St in,Austin,TX,
19573,5102 Hedgewood Dr in,Austin,TX,
25160,7306 Kirkham Dr in,Austin,TX,
42747,7007 Gunsmoke Court in,Travis,TX,
139918,6909 Isabella Dr in,Austin,TX,
91716,205 Sheffield in,Austin,TX,
35646,1603 Fairplay Ct in,Austin,TX,
42861,1508 Montopolis in,Austin,TX,
128013,2217 Christoff Loop in,Austin,TX,
80517,9306 B Carson Creek Blvd in Del,Valle,TX,
34900,2504 New York in,Austin,TX,
27286,900 Blackson Ave in Cedar,Park,TX,
63210,5509 Avenue F in,Austin,TX,
129011,1014 S Meadows in,Austin,TX,
2987,6505 Lynch in,Austin,TX,
2788,1034 Clayton in,Austin,TX,
43916,2450 Wickersham in,Austin,TX,
58984,4604 Wally in,Austin,TX,
11178,2308 Barton Village Cir in,Austin,TX,
72565,1406 Brighton in,Austin,TX,
46361,12802 Esplanade St in,Austin,TX,
79541,7301 N Fm 620 in,Austin,TX,
136037,3501 Ed Bluestein Blvd in,Austin,TX,
135645,3401 Touchstone St in,Austin,TX,
27460,11707 Maha Loop in,Travis,TX,
82885,816 E. 49Th in,Austin,TX,
123007,11529 Main St in,Jonestown,TX,
59709,5406 Sugar Maple Ct in,Austin,TX,
3544,6804 Ferrystone Pass in Del,Valle,TX,
104710,1230 E 38Th 1/2 St in,Austin,TX,
106088,7201 Leavander Loop in,Austin,TX,
2047,2717 E 2Nd St in,Austin,TX,
132304,607 Thrasher Ln in,Austin,TX,
79023,7Th St And San Jacinto in,Austin,TX,
105525,7920 San Felipe in,Austin,TX,
11267,13912 Maha Rd in,Travis,TX,
131423,7240 Northeast in,Austin,TX,
16084,7905 Persimmon Trail in,Austin,TX,
129466,5153 Albert Brown in Del,Valle,TX,
16660,10611 Ponder Lane in,Austin,TX,
140404,5001 in,Austin,TX,
19401,10204 Lava in,Austin,TX,
115034,130 Edgerock Dr in Del,Valle,TX,
79029,2900 E 51St in,Austin,TX,
43559,12202 Old Stage Trl in,Austin,TX,
132850,1703 Mearns Meadow Dr in,Austin,TX,
72290,1915 Deer Run in,Austin,TX,
71588,6604 Cruz St in,Austin,TX,
77815,1114 Christie Dr in,Austin,TX,
129425,201 W St. Elmo Dr in,Austin,TX,
142649,5605 Tula Ln in,Austin,TX,
1808,9700 Research Blvd in,Austin,TX,
50458,1000 Valdez St in,Austin,TX,
39906,1909 Melissa Oaks in,Austin,TX,
46868,6100 Cougar in,Austin,TX,
142576,1719 Mearns Meadow in,Austin,TX,
101377,16901 Hayride in Del,Valle,TX,
25089,10301 N Ih 35 in,Austin,TX,
118277,183 And 71 Hwy in,Austin,TX,
135376,11525 Glen Knoll Dr in,Travis,TX,
12666,3101 Centrum Drive in,Austin,TX,
76484,16901 Hayride Circle in,Austin,TX,
107514,6916 Campina Crossing in,Travis,TX,
95563,9408 Manchaca Rd in,Austin,TX,
82370,2937 W Anderson Ln in,Austin,TX,
27105,10800 Harrisglenn in,Austin,TX,
81753,2903 Locke Ln in,Austin,TX,
21354,9910 Slaughter Creek in,Austin,TX,
64468,1201 Peyton Gin Rd in,Austin,TX,
5985,2500 Dove Dr in,Austin,TX,
47572,8804 Dittmar Oaks Dr in,Austin,TX,
43248,13119 Broughton Way in,Austin,TX,
28639,3304 E 12Th in,Austin,TX,
88019,11900 Hamilton Point Cir in,Austin,TX,
94863,11215 Research Blvd #2080 in,Austin,TX,
112635,12Th St And Castle Hill St in,Austin,TX,
117383,9603 Mckinney in,Austin,TX,
126449,12529 Sky Harbor in Del,Valle,TX,
56329,517 Lightsey in,Austin,TX,
12422,1709 Colony Creek Dr in,Austin,TX,
112674,1205 Sheldon Cove in,Austin,TX,
17699,51 And Overbrook in,Austin,TX,
121731,8701 Shoal Creek in,Austin,TX,
53829,8201 Sam Rayburn Dr in,Austin,TX,
7237,10701 N Ih-35 in,Austin,TX,
22469,5212 St Georges Green in,Austin,TX,
73529,2006 S 6Th St in,Austin,TX,
100751,1412 Ransom St in,Travis,TX,
13532,900 Barton Springs Rd in,Austin,TX,
9400,7100 Apperson St in,Austin,TX,
4042,9512 China Rose in,Austin,TX,
89952,9039 El Roy Rd in Del,Valle,TX,
68767,6010 Waycross Dr in,Austin,TX,
64748,9322 Fm 812 in,Austin,TX,
5249,8927 Elroy in,Travis,TX,
13998,9345 E 290 in,Austin,TX,
2654,12008 Shropshire Blvd in,Austin,TX,
55520,5504 Hudston in,Austin,TX,
80605,2102 Donahue Ln in,Austin,TX,
8879,1416 S 1St St in,Austin,TX,
133444,501 South Highway 183 in,Austin,TX,
102584,10500 San Jose Ave in,Travis,TX,
112362,17821 Floribundas in,Austin,TX,
130401,1405 Radam Circle in,Austin,TX,
106052,6803 Woodhue Dr in,Austin,TX,
19769,4811 Alta Loma in,Austin,TX,
16789,1314 Southport Drive in,Austin,TX,
25940,2611 Maria Anna Rd in,Austin,TX,
77041,12928 Ceder in,Travis,TX,
80109,10221 Anahuac Trail in,Austin,TX,
18016,2002 E 13Th St in,Austin,TX,
26979,3001 Lake Austin Blvd in,Austin,TX,
76895,77 Rainey St in,Austin,TX,
94652,5901 Levander Loop in,Austin,TX,
125705,2009 Monteclaire St in,Austin,TX,
117804,6608 Johnny Morris Cv in,Austin,TX,
28085,2502 E Oltorf St in,Austin,TX,
70517,400 E. Anderson Ln in,Austin,TX,
32211,13401 Elm Grove/Buda in,Travis,TX,
126137,2401 Marcus Abrams in,Austin,TX,
7134,6011 Pino Ln in,Austin,TX,
67630,3701 Quickhill Rd in,Austin,TX,
117750,8701 Piney Point Dr in,Austin,TX,
59136,1036 Liberty Park Dr in,Austin,TX,
50283,969 And Johnny Morris Rd in,Austin,TX,
104519,1709 Woodland Ln in,Austin,TX,
95908,14000 Westall in,Travis,TX,
67312,2009 Montclaire St in,Austin,TX,
104116,5504 Hudson St in,Austin,TX,
36118,4418 Gillis St in,Austin,TX,
59547,7609 Marl Ct in,Austin,TX,
61083,1011 Charlotte St in,Austin,TX,
115374,2012 Thrasher in,Austin,TX,
30980,15405 Spring Hill in,Travis,TX,
11257,8410 Fathom Cir in,Austin,TX,
34421,2900 Sunridge Drive Bldg 13 in,Austin,TX,
26735,18028 Morrow St in,Travis,TX,
9219,200 Corral Ln in,Austin,TX,
40027,806 Philco Dr in,Austin,TX,
84663,3901 Norwood Ln in,Travis,TX,
84125,1402 E St Johns Ave in,Austin,TX,
6203,5609 Honey Bee Bnd in,Austin,TX,
141,8126 Elroy in Del,Valle,TX,
79712,1908 W Ben White Blvd in,Austin,TX,
26221,6301 Berkman Dr Unit 205 in,Austin,TX,
58074,6812 Felipe Dr in,Austin,TX,
63974,5800 Airport Blvd in,Austin,TX,
101700,2128 Barton Hills Dr in,Austin,TX,
109336,302 Blueberry Hill in,Austin,TX,
133153,12000 Us Hwy 290 in,Manor,TX,
85340,11016 Hard Rock Rd in,Austin,TX,
85284,6007 Wagon Bend in,Austin,TX,
14698,2306 Wickersham Ln Bldg 14 in,Austin,TX,
95504,1801 Westlake Dr in West Lake,Hills,TX,
136905,820 Old Bastrop in,Austin,TX,
78579,4600 Saloma Pl in,Austin,TX,
105894,5908 Pinon Vista Dr in,Austin,TX,
124598,12531 Tx-71 in Bee,Cave,TX,
87497,8121 Research Blvd in,Austin,TX,
6453,4408 Burnet Rd in,Austin,TX,
68172,14Th And Cedar in,Austin,TX,
33794,14605 Pima Trl in,Austin,TX,
84799,5832 Zachary Scott St in,Austin,TX,
8522,1910 Travis Heights in,Austin,TX,
83222,5Th And Oltorf in,Austin,TX,
79301,6402 Mcneil Drive in,Austin,TX,
133939,9500 Dessau Rd Bldg 3 in,Austin,TX,
35990,3501 Touchstone St in,Austin,TX,
105792,6301 W Slaughter Ln in,Austin,TX,
110901,2005 Bouldin in,Austin,TX,
117400,5101 Acron Cv in,Austin,TX,
17295,11420 Runnel Ridge Rd in,Travis,TX,
1524,1106 Colony North Dr in,Austin,TX,
87086,8505 Lucinda Dr in,Travis,TX,
34789,17Th St And Colorado St in,Austin,TX,
102922,5207 Pryor in,Travis,TX,
90945,12000 Hwy 290 E in,Austin,TX,
69783,2800 Vernon Ave in,Austin,TX,
41162,5809 Wellington Dr in,Austin,TX,
45513,3202 Hemphill Park in,Austin,TX,
68786,14901 Earl Grey Ln in,Pflugerville,TX,
39895,795 N Pleasant Valley Rd in,Austin,TX,
25654,2614 E 7Th St in,Austin,TX,
130273,2404 Burleson Ct in,Austin,TX,
60957,3120 Garwood St in,Austin,TX,
73200,1601 E Slaughter in,Travis,TX,
86298,3001 Esperanza Crossing Unit 4027 in,Austin,TX,
102240,6018 Marigold Ter in,Austin,TX,
50171,4600 Nuckols Xing in,Austin,TX,
59889,6112 Bridlington Cir in,Austin,TX,
23132,1613 E M Franklin St in,Austin,TX,
70503,7512 Compass Dr in,Austin,TX,
89052,18261 Fm 1431 in,Jonestown,TX,
114007,6203 Saddler Ln in,Austin,TX,
125915,4514 Ben White Blvd in,Austin,TX,
107346,7717 Hidden View Circle in,Austin,TX,
44726,1170 Poquito St in,Austin,TX,
98431,12510 Timber Arch in,Manor,TX,
105160,4604 Burnet Rd in,Austin,TX,
32610,13500 W Hwy 290 in,Austin,TX,
21782,2309 Ventura in,Austin,TX,
83107,6209 Purita Dr in,Austin,TX,
589,14300 Fm 969 in,Webberville,TX,
64956,9606 N Mopac Expy #300 in,Austin,TX,
123102,1504 Estrellas Dr in Del,Valle,TX,
118157,11401 Brenham St in,Manor,TX,
10426,6017 Open Range Trl in,Austin,TX,
85386,3459 Greystone Dr in,Austin,TX,
138035,15104 Bowling Ln in,Travis,TX,
53963,6412 Starstreak Dr in,Austin,TX,
130261,8000 Brown Cemetery Rd in,Travis,TX,
64134,2124 E St Elmo Rd in,Austin,TX,
128902,7610 Thomas Spring Rd. in,Travis,TX,
40511,9905 Colfax in,Travis,TX,
11072,6209 Smith Oak Trl in,Austin,TX,
117480,11111 Bending Bough Trl in,Austin,TX,
126331,1801 Morrow St in,Austin,TX,
63740,6404 Bradsher Drive in,Austin,TX,
36649,17317 Zola Ln in Round,Rock,TX,
59558,1105 W 22 1/2 St in,Austin,TX,
98197,7205 Tumbleweed Dr in,Austin,TX,
84255,812 And The Circuit Of The Americas Blvd in,Travis,TX,
12984,1300 Dobie Dr in,Austin,TX,
85034,6017 Perlita in,Austin,TX,
35480,6502 S 1St St in,Austin,TX,
53263,9504 Parkfield Dr in,Austin,TX,
103437,11817 Tedford St in,Austin,TX,
103872,7103 Cannonleague Dr #B in,Austin,TX,
77608,6005 Turtle Dove Dr in,Austin,TX,
51343,1907 E 21St St in,Austin,TX,
132281,5Th St And Brushy St in,Austin,TX,
107499,6205 Saddle Ln in,Austin,TX,
21421,3215 Northeast in,Austin,TX,
19931,183 & 969 in,Austin,TX,
116101,1900 E Oltorf in,Austin,TX,
121129,183 And Hw 71 in,Austin,TX,
118398,305 E Yager Ln in,Austin,TX,
52075,6Th St And Red River St in,Austin,TX,
27977,11615 Lindeman Loop in,Travis,TX,
139927,2504 Dowd Ln in,Austin,TX,
41345,3104 Northeast Dr in,Austin,TX,
15242,17944 Majestic Elm in,Travis,TX,
25845,2608 Collins Creek Dr #A in,Austin,TX,
21203,5808 Burnet Rd in,Austin,TX,
9091,500 E Cesar Chavez in,Austin,TX,
32332,4301 Greystone Dr in,Austin,TX,
16120,820 E Anderson Ln in,Austin,TX,
32021,8204 Loralinda Dr in,Austin,TX,
20305,34Th St And Oakmont in,Austin,TX,
13202,7400 Blk Elk Pass Dr in,Austin,TX,
139387,1405 Mearns Meadow Blvd in,Austin,TX,
18580,9110 Nuckols Crossing in,Austin,TX,
109204,5253 Mission Circle in Del,Valle,TX,
69267,1515 Royal Crest Drive in,Austin,TX,
129834,1881 Grove St in,Austin,TX,
130116,4300 Manor Rd in,Austin,TX,
113243,6201 Davis Lane in,Austin,TX,
129783,3211 Kay in,Austin,TX,
32260,5109 Lott Ave in,Austin,TX,
624,1St St N And Main St in,Pflugerville,TX,
16389,6506 Decker Ln in,Austin,TX,
19398,8612 Fathom Cir # 703 in,Austin,TX,
44133,2304 Peach Ct in,Austin,TX,
85815,607 N Loop in,Austin,TX,
24954,5816 Rodd Rd in,Travis,TX,
103903,3623 N 620 in,Travis,TX,
38823,1024 E Anderson Ln in,Austin,TX,
85777,5400 Ross Rd in Del,Valle,TX,
83425,6502 Virgo Lane in,Austin,TX,
98377,3001 S 1St St in,Austin,TX,
116117,2514 Elara Dr in,Travis,TX,
63648,4932 Bee Creek Road in,Travis,TX,
84971,9545 N Ih 35 in,Austin,TX,
97347,15104 Sabal Palm in,Travis,TX,
49603,2906 E Martin Luther King in,Austin,TX,
53349,1614 Chippeway Ln in,Austin,TX,
104024,9100 Decker Lake in,Austin,TX,
13950,148000 Fagerquist Rd in Del,Valle,TX,
8403,12853 White House in,Austin,TX,
72364,8600 Brodie in,Austin,TX,
41221,5207 Pine Pl in,Austin,TX,
57400,11501 Staked Plains Drive in,Austin,TX,
40322,5811 Melody Ln in,Travis,TX,
14898,501 East Stassney Lane in,Austin,TX,
42360,4500 Steiner Ranch Blvd in,Austin,TX,
136119,1010 Fiesta St in,Austin,TX,
128118,5400 Friedrich Ln in,Austin,TX,
36747,3904 Hyridge in,Austin,TX,
92403,5400 Freidrich Lane in,Austin,TX,
78562,2206 Blue Meadow in,Austin,TX,
87666,2751 Tx Hwy 71 East in,Austin,TX,
129994,9309 Ashton Ridge in,Austin,TX,
48982,4106 North Lamar Blvd in,Austin,TX,
84547,2224 E Stassney Ln in,Austin,TX,
105527,7601 Compass in,Austin,TX,
41928,8412 Garcreek Circle in,Austin,TX,
119897,1422 Broadmoor Dr in,Austin,TX,
60625,2006 Malvern Hill in,Austin,TX,
128838,360 Loop And 2222 in,Austin,TX,
112431,2800 B Burleson Rd in,Austin,TX,
67930,12405 Altamira St in,Austin,TX,
107846,1179 Oak Grove Ave in,Austin,TX,
86645,9000 Manchaca Rd in,Austin,TX,
73995,13101 Lubbock Ln in,Austin,TX,
78923,6600 Baythorne in,Austin,TX,
68173,2400 Whitehorse Trail in,Austin,TX,
88146,4800 Sh 130 in,Travis,TX,
96492,11717 Mc Angus Rd in,Travis,TX,
89966,4300 Manchaca in,Austin,TX,
33785,10801 Manchaca Rd in,Austin,TX,
40130,5006 Lark Creek Cv in,Austin,TX,
37211,6000 Wier Hills Rd in,Austin,TX,
131176,7020 Grand Canyon in,Austin,TX,
37675,305 Middle Ln in,Austin,TX,
88311,6800 Blk Shaw Rd in,Travis,TX,
141581,805 Wolf Ln in Del,Valle,TX,
128138,2110 Thrasher Ln #5 in,Austin,TX,
33266,5301 Ross Rd in Del,Valle,TX,
136051,4477 S Lamar Blvd Suite 600 in,Austin,TX,
117370,11350 Four Points Dr in,Austin,TX,
19255,1200 E Rundberg in,Austin,TX,
126215,2208 S 5Th St in,Austin,TX,
34817,307 W Eaggleton St in,Manor,TX,
119703,6713 Piedras Blanco Drive in,Austin,TX,
62347,7102 Astro View in,Austin,TX,
44594,2300 E 2Nd in,Austin,TX,
38243,7414 Johnny Morris Rd in,Austin,TX,
70951,207 Oak Plaza in,Austin,TX,
94752,3001 Glen Rae St in,Austin,TX,
140923,5700 N Pace Bend in,Travis,TX,
93275,11600 Poplar Cv in,Austin,TX,
32401,1108 Gunter St in,Austin,TX,
128220,1820 W Stassney Ln in,Austin,TX,
27179,2301 Wagon Crossing in,Austin,TX,
68942,16010 Mueurer Ln in Del,Valle,TX,
76962,4201 S Congress in,Austin,TX,
12867,1432 Massengale St in,Austin,TX,
73774,1902 Willow Creek Dr in,Austin,TX,
77956,5201 Berkman Dr in,Austin,TX,
9277,3309 Crownover St in,Austin,TX,
105617,1500 E 51St St in,Austin,TX,
102153,9505 Quail Ct in,Austin,TX,
6419,10409 Crescendo Ln in,Austin,TX,
137111,7313 Colony Park in,Austin,TX,
40042,910 Gullett St in,Austin,TX,
73492,15805 Panorama Court in,Travis,TX,
140513,7025 Crestone Road in,Austin,TX,
71893,6600 Baythorne Dr in,Austin,TX,
47488,9411 Mountain Quail Rd in,Austin,TX,
38450,1511 Mearns Meadow in,Austin,TX,
88155,1135 Don Ann St in,Austin,TX,
7888,1420 E Anderson Ln in,Austin,TX,
39402,10727 Old Lockhart Road in,Travis,TX,
73339,5700 Emerald Forest in,Austin,TX,
78432,8000 Valleyfield Dr in,Austin,TX,
30333,104 Windcrest Cv in Round,Rock,TX,
5130,2702 Zaragosa St in,Austin,TX,
85938,7809 E Ben White in,Austin,TX,
38001,11202 Clearview Dr in,Travis,TX,
16241,4224 Lost Oasis Holw in,Travis,TX,
139088,11909 Oak Trl in,Austin,TX,
64872,1705 Cricket Hollow in,Austin,TX,
25467,1908 Kramer Ln in,Austin,TX,
90199,11951 Sunhillow Bnd in,Austin,TX,
84234,6109 Magnus in,Austin,TX,
63004,5524 W. Us 290 in,Austin,TX,
37676,16700 Trevin Cv in,Travis,TX,
46916,8801 S 1St St in,Austin,TX,
108527,5496 Tx-71 in,Travis,TX,
25702,1831 W Wells Branch Pkwy in,Austin,TX,
41167,1302 Singleton Ave in,Austin,TX,
94305,5701 Cameron Rd in,Austin,TX,
96838,17701 Cameron Rd in,Pflugerville,TX,
81396,1221 Mopac Expy in,Austin,TX,
88753,23300 Windy Valley Dr in,Leander,TX,
822,5305 Park At Woodlands in,Austin,TX,
109027,14312 Staked Plains Loop in,Austin,TX,
40974,1017 Fieldwood Dr in,Austin,TX,
139703,1818 Heatherglen Ln in,Austin,TX,
24132,5451 N Interstate 35 Frontage Rd in,Austin,TX,
103826,7001 Onion Creek in,Austin,TX,
117891,6200 E. Ben White Blvd in,Austin,TX,
45454,13000 Research Blvd in,Austin,TX,
140517,6108 Calmar Cove Unit B in,Austin,TX,
67113,2600 Pecos in,Austin,TX,
100602,7410 Bethune in,Austin,TX,
115499,3816 Bronco Bend Lp in,Austin,TX,
2843,919 East 32Nd St in,Austin,TX,
121090,5709 Pecanwood in,Austin,TX,
98372,7820 Elkhorn Mountain Trl in,Austin,TX,
66053,1020 Bird Creek in,Austin,TX,
10967,7500 South Interstate 35 in,Austin,TX,
7769,2512 Diaz in,Austin,TX,
39805,12908 Water Mill Cove in,Austin,TX,
26417,10515 N Mopac Expwy in,Austin,TX,
61291,7Th And Comal St in,Austin,TX,
16791,905 Bird Creek Dr in,Austin,TX,
38183,2300 Wirtz Ave in,Austin,TX,
65431,3901 Norwood Lane in Del,Valle,TX,
73397,2901 Flen Rae St in,Austin,TX,
31605,1900 South Of Capital Texas Highway in,Austin,TX,
95219,12301 N Lamar Blvd in,Austin,TX,
84828,1309 Deloney in,Austin,TX,
53272,14016 Denny Ln in,Travis,TX,
48357,2914 Castro St in,Austin,TX,
99561,1407 Warrior in,Travis,TX,
64266,1901 Karen Ave in,Austin,TX,
12389,12811 Broughton Way in,Austin,TX,
88414,4706 Santa Ana in,Austin,TX,
32428,183 Thompson Ln in,Austin,TX,
52085,2241 S Ih 35 in,Austin,TX,
118716,10625 N Lamar Blvd in,Austin,TX,
2359,12104 Lima Dr in,Travis,TX,
74649,9204 Quail Rock Cir in,Austin,TX,
42319,471 Spicewood Springs Rd in,Austin,TX,
30559,8700 Research Blvd in,Austin,TX,
17458,3014 Fontana Dr in,Austin,TX,
72649,4600 Tanney in,Austin,TX,
99441,11500 Murchison St in,Manor,TX,
4762,3445 Executive Center Dr in,Austin,TX,
73561,8908 Norwich Castle Dr in,Austin,TX,
36550,8225 Fm 620 in,Austin,TX,
11420,14409 Briarcreek Loop in,Manor,TX,
70352,12323 Patron in,Austin,TX,
20680,12151 N I-H-35 in,Austin,TX,
27135,10710 Moore Rd in,Austin,TX,
27889,804 Colonial Park in,Austin,TX,
51281,1205 Fort Branch in,Austin,TX,
36428,205 Brazos St in,Austin,TX,
106703,10100 S Mary Moore Searight Dr in,Austin,TX,
78185,5329 Hutchinson in,Austin,TX,
70190,1630 Wells Branch Rd in,Austin,TX,
91790,711 West Monroe in,Austin,TX,
121812,7502 Compass Drive in,Austin,TX,
39853,6001 Turnstone Court in,Austin,TX,
100450,6001 Turstone in,Austin,TX,
14535,3305 French Pl in,Austin,TX,
81404,6001 Turnstone Ct in,Austin,TX,
41277,4732 Interlachen Ln in,Austin,TX,
11370,80 Red River in,Austin,TX,
80714,14501 N Ih 35 in,Austin,TX,
122964,11514 Powder Mill Trail in,Austin,TX,
106526,12191 Running Bird Lane in,Austin,TX,
93759,13355 N Us 183 in,Austin,TX,
78697,9010 Glenn Ln in,Austin,TX,
40073,18400 Lake Oaks in,Jonestown,TX,
49845,5412 Atascosa Dr in,Austin,TX,
76414,4301 Rosedale Ave in,Austin,TX,
93437,14307 Larkdale Ln in,Travis,TX,
2074,4201 Mueller Park in,Austin,TX,
44371,8621 Damita Jo Dr in,Travis,TX,
130544,141 Segovia Way in,Pflugerville,TX,
55984,9308 S 1St St in,Austin,TX,
73316,9807 Capitol View in,Travis,TX,
98797,10005 Hermes Dr in,Travis,TX,
136909,9409 Solana Vista Loop #B in,Austin,TX,
30492,2204 Allred Dr in,Austin,TX,
96814,502 Delmar Ave in,Austin,TX,
120079,15425 N 973 in,Travis,TX,
83963,3542 Greystone Dr in,Austin,TX,
135659,7006 Creedmoor in,Austin,TX,
101125,1515 Royal Crest in,Austin,TX,
62905,5713 Melody Ln in,Austin,TX,
47629,5819 Encinal Cv in,Austin,TX,
63561,1000 E 41St in,Austin,TX,
65242,311 Bowie St in,Austin,TX,
57169,6812 Bryn Mawr in,Austin,TX,
96310,2300 Park Lane in,Travis,TX,
130432,10528 Chanel Island in,Austin,TX,
87035,5307 Link Avenue in,Austin,TX,
43572,1912 Riverview in,Austin,TX,
130491,6610 Stoneleigh Place in,Austin,TX,
80166,6201 Levander Loop in,Austin,TX,
66895,7491 Circle S Road in,Austin,TX,
106284,1717 Canterbury St in,Austin,TX,
28711,1800 Basin Ledge in West Lake,Hills,TX,
134799,1803 Belford Dr in,Austin,TX,
96199,1411 Gracy Farms Ln in,Austin,TX,
80523,12901 Beltex Dr in,Travis,TX,
90327,307 Swanee Dr in,Austin,TX,
11468,1618 Cattle Trl in,Austin,TX,
2224,2700 Citations Dr in,Austin,TX,
17892,6905 Bitteroot Trail in,Austin,TX,
102426,10148 Doyle Rd in,Travis,TX,
66729,10806 N Lamar Blvd in,Austin,TX,
64697,2404 Bucks Run in,Austin,TX,
103120,6760 Broad Brook in,Austin,TX,
79943,1810 Fletcher Drive in,Austin,TX,
96622,3601 Govalle Ave in,Austin,TX,
94765,101 East Rundberg in,Austin,TX,
29814,324 Camperdown Dr in,Austin,TX,
28543,14111 Cypress Dr in,Pflugerville,TX,
94387,12621 Sky Harbor Dr in Del,Valle,TX,
99851,1900 E Mlk in,Austin,TX,
11256,12314 Dellray Drive in,Austin,TX,
26972,8300 Hergotz Ln in,Austin,TX,
46429,14909 Lucerne Dr in,Travis,TX,
66682,12916 Marimba Trail in,Austin,TX,
9933,2120 Nogales St in,Austin,TX,
42277,6802 Bissel Cir in,Austin,TX,
41909,21325 Ponciana in,Austin,TX,
14114,731 Decker Prairie Dr in,Austin,TX,
75388,5900 Sandshof Dr in,Austin,TX,
103142,2005 Rosewood in,Austin,TX,
15990,5508 Duval St in,Austin,TX,
61651,5705 Claystone Cv in,Austin,TX,
9302,11014 Hamann Ln in,Travis,TX,
25336,4704 Mellow Hollow in,Austin,TX,
67270,1438 Corona Hills Dr in,Austin,TX,
55590,2303 Blue Meadow Dr in,Austin,TX,
38585,2101 Elmont Dr in,Austin,TX,
119369,6600 Elmcreek Dr Trailer 69 in,Austin,TX,
130407,1902 Hearthstone Dr in,Austin,TX,
62058,1304 Harriet Ct in,Austin,TX,
77370,4504 Sojourner St in,Austin,TX,
44803,1301 Fairbanks Dr in,Austin,TX,
279,7807 Linden Road in,Travis,TX,
14755,2825 Locke Ln in,Austin,TX,
59916,15500 Goforth Road in,Creedmoor,TX,
28402,3901 S. Lamar in,Austin,TX,
27675,2818 Palomino Trail in,Austin,TX,
52164,4302 Norwood Lane in,Austin,TX,
103222,6715 Bluff Springs Rd in,Austin,TX,
86272,1071 Clayton Lane Unit 307 in,Austin,TX,
12113,6204 Kasper St in,Austin,TX,
127614,7725 Colton Bluff Springs Rd in,Travis,TX,
24617,183 And Burleson Rd in,Austin,TX,
13619,4701 N Ih 35 in,Austin,TX,
125481,6809 Shannon Dr in,Austin,TX,
137420,2001 Lou Neff Rd in,Austin,TX,
130964,15500 Goforth Lane in,Creedmoor,TX,
109550,5706 Nancy Drive in,Austin,TX,
106986,7413 Crepe Myrtle Dr in,Austin,TX,
119334,7516 Tumbleweed Dr in,Austin,TX,
81464,1409 S Redondo Dr in,Austin,TX,
34707,10104 Bock in,Travis,TX,
118904,3410 River Rd in,Travis,TX,
56688,10414 Old San Antonio in,Austin,TX,
75877,10600 Burleson in,Travis,TX,
97245,6Th St And in,Austin,TX,
25037,6008 Blythewood Drive in,Austin,TX,
16143,6912 Wentworth in,Austin,TX,
98567,7308 Thannas Way in,Austin,TX,
6526,13812 Lazy Ridge Dr in,Austin,TX,
17738,7703 Whitsun Drive in,Austin,TX,
55258,5810 Whitebrook in,Austin,TX,
58450,12898 Bloor Rd in,Manor,TX,
16579,1809 Suter St in,Austin,TX,
74507,6901 Hyland Cir in,Austin,TX,
16453,12636 Research in,Austin,TX,
135615,10801 Thicket Trl in,Austin,TX,
40819,7900 Elroy Rd in Del,Valle,TX,
114725,14201 Highsmith St in,Austin,TX,
13961,4302 Norwood in,Travis,TX,
114237,16912 Broomweed Cv in,Travis,TX,
115779,2202 S L Davis Ave in,Austin,TX,
32621,1410 Sanchez Street in,Austin,TX,
65990,5701 Steven Creek Way in,Austin,TX,
21987,11068 Lapoya in,Travis,TX,
47059,4215 Caldwell in Del,Valle,TX,
11689,5100 Glen Hollow in,Austin,TX,
42299,1345 Philomena St in,Austin,TX,
16834,2953 Bridekirk Drive in Round,Rock,TX,
96689,912 W Monroe St in,Austin,TX,
112101,4209 Smith School Rd in,Austin,TX,
46388,804 Dawlish Drive in,Pflugerville,TX,
2202,9858 Childress Dr in,Austin,TX,
113654,7502 Berkman in,Austin,TX,
36001,11150 Research in,Austin,TX,
35969,3015 E Hwy 71 in Del,Valle,TX,
97901,9308 Carson Creek Blvd in Del,Valle,TX,
107554,706 Beaver in,Austin,TX,
82207,9400 West Palmer Lane in,Austin,TX,
5569,607 West Odell in,Austin,TX,
144,10636 Marshitahs in,Austin,TX,
102654,1936 Miles Ave in,Austin,TX,
56384,1107 N Cuernavaca Dr in,Travis,TX,
17113,2425 E Riverside Drive in,Austin,TX,
32038,11675 Jollyville Rd in,Austin,TX,
1722,12600 Claremont Cir in Del,Valle,TX,
24193,7200 Levander Loop in,Austin,TX,
14808,7806 Tisdale Dr in,Austin,TX,
17608,9201 S Hwy 183 in,Austin,TX,
120940,1804 St Albans Blvd in,Austin,TX,
138926,6400 E William Cannon in,Austin,TX,
62175,935 La Posada in,Austin,TX,
16777,807 B Sirocco Dr in,Austin,TX,
120719,3515 E 12Th St in,Austin,TX,
49401,2312 E 10Th St in,Austin,TX,
44304,9230 Neils Thompson in,Austin,TX,
65283,5403 Regency Dr in,Austin,TX,
31976,5617 Abilene Trl in,Austin,TX,
23022,8721 El Roy Road in Del,Valle,TX,
118481,7601 St Amant Pl in,Austin,TX,
42130,1407 E 3Rd St in,Austin,TX,
26449,8208 Kearsarge Dr in,Austin,TX,
4067,7900 Research Blvd in,Austin,TX,
141571,411 Teal St in,Travis,TX,
34735,2107 Courtney St in,Austin,TX,
109219,5710 Link Ave in,Austin,TX,
128258,12737 Magnolia Mound Trl in,Austin,TX,
20194,12812 Thomas Jefferson St in,Travis,TX,
38083,4510 Richmond Ave in,Austin,TX,
116694,4411 Dovewood in,Austin,TX,
62120,7601 Dixie Drive in,Austin,TX,
67304,18200 Lund - Carlson Rd in,Travis,TX,
8135,8705 Stillwood Ln in,Austin,TX,
96760,1133 1/2 Poquito St in,Austin,TX,
119693,909 W 22Nd St in,Austin,TX,
130856,103 Fraklin Blvd in,Austin,TX,
47209,510 W 18Th St #101 in,Austin,TX,
66015,5701 Springdale in,Austin,TX,
134115,2923 Terry Ln in Del,Valle,TX,
21075,13652 Jacobson Rd in,Travis,TX,
37762,17712 Cutback Dr in,Travis,TX,
119260,1413 W William Cannon in,Austin,TX,
104464,1431 Manford Hill Dr in,Austin,TX,
4092,1408 Darjeeling Dr in,Pflugerville,TX,
9993,10901 Lakeline Mall Dr in,Austin,TX,
39462,1300 Clara Martin in,Travis,TX,
73136,3403 Ambleside Dr in,Austin,TX,
83357,1301 Webberville Rd in,Austin,TX,
1098,4702 Rocking Chair Rd in,Austin,TX,
93714,4416 Garnett in,Austin,TX,
23602,5621 N I H 35 in,Austin,TX,
62242,7748 Highway 290 West in,Austin,TX,
92805,11606 Oak Haven Cv in,Austin,TX,
17551,739 W William Cannon in,Austin,TX,
118652,2107 Courtney Street in,Austin,TX,
5795,2243 W Braker Ln in,Austin,TX,
25971,8805 Georgian Dr in,Austin,TX,
54657,300 Kemp St in,Austin,TX,
53171,7002 Hillcroft Drive in,Austin,TX,
101391,739 W William Cannon Dr in,Austin,TX,
42952,1900 E Martin Luther King Jr Blvd in,Austin,TX,
82483,4305 Rum Runner Rd in,Travis,TX,
109713,12881 Pond Springs Rd in,Austin,TX,
92633,1123 Terry Rd in,Austin,TX,
98239,12208 Briarcreek Loop in,Manor,TX,
87221,8401 Ardash Ln in,Austin,TX,
83269,5512 Tessa Cv in,Austin,TX,
4031,8707 Lindell Ln in,Austin,TX,
97274,10615 Beckwood Drive in,Austin,TX,
82171,2401 Manchaca Rd in,Austin,TX,
112415,360 Loop And Hw 183 in,Austin,TX,
142392,5804 Eureka Drive in,Austin,TX,
133490,2104 Coats Cv in,Austin,TX,
52315,8707 Lindell in,Austin,TX,
94365,10001 South 1St Street in,Austin,TX,
108701,5909 Nuckols Crossing in,Austin,TX,
130542,7310 E Ben White in,Austin,TX,
63593,8884 Honeysuckle in,Austin,TX,
78929,2005 Ouida Dr in,Austin,TX,
33366,3508 Westminester in,Austin,TX,
116739,7724 Trailside Estate in,Travis,TX,
112998,6409 Burns St in,Austin,TX,
90024,6003 Marigold Terrace in,Austin,TX,
99713,9704 Carson Creek Blvd in Del,Valle,TX,
135694,2510 Leon St in,Austin,TX,
87003,2616 Salado St in,Austin,TX,
80374,7905 San Felipe in,Austin,TX,
14530,2200 New York Ave in,Austin,TX,
49333,15519 Belafonte Blvd in,Austin,TX,
44600,15310 Fagerquist Rd in Del,Valle,TX,
20428,1202 Dessau Rd in,Austin,TX,
24646,620 W O'Dell in,Austin,TX,
15457,5312 Pappertree in,Austin,TX,
74415,3448 Willow Rund in,Austin,TX,
64226,4402 Nixon Ln in,Austin,TX,
57339,9822 Thaxton Rd in,Austin,TX,
28634,3901 Red River St in,Austin,TX,
46991,2307 Ventura Dr in,Austin,TX,
3204,6101 Airport Blvd in,Austin,TX,
128252,2823 San Pedro St in,Austin,TX,
116591,1130 Airport Blvd in,Austin,TX,
132210,10613 1625 Rd in,Travis,TX,
9107,8100 Bluff Springs Road in,Austin,TX,
33505,6009 Constellation in,Austin,TX,
8838,4616 Edge Creek/ Barkdale in,Austin,TX,
8943,11613 N Ranch To Market 620 in,Austin,TX,
11800,7536 Compass Dr in,Austin,TX,
99296,5900 Clementine Ln in,Austin,TX,
100866,7613 Bethune Ave in,Austin,TX,
113852,100 Sky Loop in,Austin,TX,
12438,5309 Westminster Dr in,Austin,TX,
3004,2504 Tydings Cove in,Austin,TX,
91741,5304 Downs Dr in,Austin,TX,
121712,3000 Pescadero in,Travis,TX,
105255,42 Lost Meadow Trail in,Travis,TX,
2885,5911 Wideleaf Dr in,Austin,TX,
90250,3000 Gonzales in,Austin,TX,
5012,2315 Cocao Ln in,Austin,TX,
98943,10722 N Platt River Rd in,Austin,TX,
75217,4703 Preakness Dr in,Travis,TX,
108399,8900 N Highway 35 in,Austin,TX,
20996,4529 Tx 130 in,Travis,TX,
31276,5213 Viewpoint Dr in,Austin,TX,
94690,12440 La Guardia Ln in Del,Valle,TX,
138830,502 Chaparral Rd in,Austin,TX,
13810,11410 Century Oaks Terrace in,Austin,TX,
52434,5201 Bogey Ct in,Austin,TX,
59898,9200 North Plaza in,Austin,TX,
45786,5313 Serene Hills Dr in,Austin,TX,
113014,116 Inner Campus Drive in,Austin,TX,
62798,1720 Rockbridge Ter in,Austin,TX,
35301,46Th St And Avenue A in,Austin,TX,
29458,15302 Mimebark Way in,Austin,TX,
50591,6205 Emerald Forest Dr in,Austin,TX,
75194,4505 Sojourner St in,Austin,TX,
125962,8700 Fm 969 in,Austin,TX,
86201,10302 Old Manchaca Rd in,Austin,TX,
72753,8715 W Hwy 71 in,Austin,TX,
69431,4815 Duval St in,Austin,TX,
99702,2706 Montopolis Dr in,Austin,TX,
128400,6807 Starcrest Lane in,Travis,TX,
62492,9100 South Ih 35 in,Austin,TX,
49709,5401 Bahan Dr in Del,Valle,TX,
57881,5908 Manor Rd in,Austin,TX,
47681,5233 Mathra Dr in,Austin,TX,
137468,7332 Colony Park Dr in,Austin,TX,
27885,8800 Us-290 in,Austin,TX,
103458,13908 Tx-71 in,Austin,TX,
54845,4501 Franklin Park Dr in,Austin,TX,
58757,14936 Swiss Dr in,Travis,TX,
124394,6605 Tara Dr in,Austin,TX,
61475,1212 West Ben White in,Austin,TX,
75821,7600 Marble Ridge Drive in,Austin,TX,
13324,3421 W William Cannon Dr in,Austin,TX,
42383,2749 Citation Dr in Del,Valle,TX,
69953,2222 Rosewood Ave in,Austin,TX,
17760,15524 N Ih35 in,Austin,TX,
133951,1704 E 6Th St in,Austin,TX,
8900,4915 Hudson Bend Rd in,Austin,TX,
24313,1013 Red Cliff Dr in,Austin,TX,
100578,5910 Caroline Lane in,Austin,TX,
26998,7202 Lysander in,Austin,TX,
81983,8817 Slayton in,Austin,TX,
27255,1003 Lipan Trail in,Austin,TX,
55971,926 Palos Verdes in,Leander,TX,
51229,1605 Berene Avenue in,Austin,TX,
65250,5604 Wellington in,Austin,TX,
54780,1000 Forest View in,Austin,TX,
12089,7017 Twin Crest Dr in,Austin,TX,
111005,111 Ramble Ln in,Austin,TX,
38647,2909 Oak Ridge Dr in,Travis,TX,
113875,8225 N Fm 620 in,Austin,TX,
20753,909 Sircocco in,Austin,TX,
130016,2204 Woodland Ave in,Austin,TX,
121639,5507 Purple Sage Dr. in,Austin,TX,
106545,2509 Winchell Lane in,Austin,TX,
126567,6700 Shannon Dr in,Austin,TX,
116308,1400 Montopolis Drive in,Austin,TX,
8098,2501 in,Austin,TX,
27449,19501 Per Lange Pass in,Austin,TX,
130233,8500 Research Blvd in,Austin,TX,
78458,6906 Bethune Ave in,Austin,TX,
121604,13720 Harris Ridge Blvd in,Austin,TX,
141633,902 Philco Dr in,Austin,TX,
4999,1035 Nile in,Austin,TX,
127254,502 Chaparral Drive in,Austin,TX,
93649,1525 Grand Ave Pkwy in,Pflugerville,TX,
100700,6300 Us Highway 290 East in,Austin,TX,
5536,5800 Clementine in,Austin,TX,
93640,10416 Bilbrook Place in,Austin,TX,
141685,12315 Dessau Rd in,Austin,TX,
22794,3709 Apple Vista in,Travis,TX,
139610,10805 Topperwein Dr in,Austin,TX,
88196,5769 Airport Blvd in,Austin,TX,
95370,10601 N Lamar Blvd in,Austin,TX,
64050,3220 Duval in,Austin,TX,
87813,4000 Shaw in,Travis,TX,
7013,15104 Pocmont Trail in,Travis,TX,
29360,7806 Clock Tower in,Austin,TX,
107827,209 Caney St in,Austin,TX,
21418,100 Block Of East Murray in,Manor,TX,
73389,11501 March Dr in,Austin,TX,
91863,12015 Mustang Mesa in,Travis,TX,
15767,8110 Two Coves in,Austin,TX,
132128,3001 Glen Rae in,Austin,TX,
24887,14105 Lazy Bridge in,Pflugerville,TX,
99589,8418 Riverstone in,Austin,TX,
91011,11900 Block S Bastrop Street in,Manor,TX,
136624,5004 Emerald Forest Circle in,Austin,TX,
134516,6503 Bluff Spings in,Austin,TX,
62061,13021 Legendary Drive in,Austin,TX,
128676,8701 N Lamar Blvd in,Austin,TX,
53771,16019 Milo Road in,Austin,TX,
52138,7312 South Hwy 183 in,Austin,TX,
63174,9100 Cameron Road in,Austin,TX,
93680,13087 Research Blvd in,Austin,TX,
133907,20412 Ed Acklin Rd in,Manor,TX,
65558,8071 North Lamar in,Austin,TX,
1716,4801 Monterey Oaks Blvd in,Austin,TX,
23998,904 Bird Creek Dr #A in,Austin,TX,
90153,412 Blue Valley Dr in,Austin,TX,
7657,304 W. 35Th in,Austin,TX,
101653,5010 W Hwy 290 in,Austin,TX,
137072,404 Denson Dr in,Austin,TX,
28539,3715 Aspendale Cove in,Austin,TX,
81554,3300 Laguna Dr in,Austin,TX,
43979,14325 S Turnersville in,Austin,TX,
123493,2410 E Riverside Dr in,Austin,TX,
13563,14219 Littig in,Travis,TX,
11940,8203 Us-183 in,Austin,TX,
142560,1514 Bluebonnet in,Austin,TX,
111057,6706 Deatonhill Dr in,Austin,TX,
32301,9300 W 290 Service Rd in,Austin,TX,
88431,5800 Cherry Park in,Austin,TX,
71810,3200 Caldwell Ln in,Travis,TX,
73407,9603 Night Star Dr in Del,Valle,TX,
130550,10400 Blake Manor Rd in,Austin,TX,
40011,5055 Hwy 71 in Del,Valle,TX,
122759,11904 N Interstate 35 Frontage Rd in,Austin,TX,
45408,6904 Branchwood Drive in,Austin,TX,
96923,6607 S Iih 35 Frontage Rd in,Austin,TX,
127196,505 Bowery Ln in,Austin,TX,
77668,8910 Hunters Trc in,Austin,TX,
5881,9216 Edmundsbury Drive in,Austin,TX,
39344,1411 Valleyridge Dr in,Austin,TX,
104429,1332 Lamar Square in,Austin,TX,
32236,4800 S Congress Avenue in,Austin,TX,
129590,14501 N Ih 35 in,Pflugerville,TX,
72361,715 W Slaughter Lane Unit 910 in,Austin,TX,
62880,3307 Clawson Dr in,Austin,TX,
125482,510 Bramble Dr in,Austin,TX,
86631,1302 May Dr in,Austin,TX,
6354,6106 Randleman in,Austin,TX,
142043,10413 Margra Ln in,Austin,TX,
73365,3682 Lost Creek Boulevard in,Austin,TX,
26018,5300 Tx-71 in Del,Valle,TX,
135965,5300 Tx 71 in Del,Valle,TX,
26550,6600 Elm Creek #81 in,Austin,TX,
72099,1508 Southport Drive in,Austin,TX,
107407,5104 Cloverdale Ln in,Austin,TX,
71357,3101 Presidential Blvd in,Austin,TX,
137711,2206 Towbridge Cir in,Austin,TX,
2721,1401 E Rundburg Ln in,Austin,TX,
104305,5426 Manchaca Rd in,Austin,TX,
32526,8936 Milton Lease in,Austin,TX,
66090,4408 Airport Blvd in,Austin,TX,
9145,7101 Ed Bluestein Blvd in,Austin,TX,
20347,20636 Cameron in,Travis,TX,
140041,305 Chippendale Ave in,Austin,TX,
6038,900 King Albert in,Austin,TX,
113569,4313 Hudson Bend Rd in,Austin,TX,
76424,2710 Burleson Road in,Austin,TX,
135428,731 Decker Praire in,Austin,TX,
49851,1211 Milford Way in,Austin,TX,
117358,1800 Briar Hill in,Austin,TX,
102177,2204 Vandervielt Ln in,Austin,TX,
96037,603 Sparkle Rd in,Travis,TX,
2758,9600 S Chisholm Trl in,Austin,TX,
14904,21007 Hog Eye Rd in,Manor,TX,
86566,2201 Deadwood Dr in,Austin,TX,
114417,1313 Quail Park Dr in,Austin,TX,
117516,1709 Cheetah Cv in Round,Rock,TX,
102703,8552 Steamline Cir in,Austin,TX,
11411,12435 N 620 Rd 915 in,Austin,TX,
142557,6712 Cruz St in,Austin,TX,
140014,1720 Grand Avenue Pkwy in,Travis,TX,
139302,25202 Lakeview Dr in,Travis,TX,
44139,4522 Felicity Ln in,Austin,TX,
56355,5521 Alomar Dr in,Austin,TX,
15471,20751 Hwy 969 in,Travis,TX,
90135,9308 Pioneer Forest Drive in,Austin,TX,
86282,125 Stork Rd in,Austin,TX,
26995,7405 Cooper Ln in,Austin,TX,
3990,1403 Citation Cir in Del,Valle,TX,
106442,1605 Future in,Austin,TX,
60287,10701 S Ih 35 Frontage Rd in,Austin,TX,
50374,13712 Old Hwy 20 in,Manor,TX,
108279,1306 Crestwood Dr. in,Austin,TX,
43774,5001 Convict Hill Rd. #1018 in,Austin,TX,
11919,11806 Oak Trl in,Austin,TX,
122501,403 Buttercup Creek in Cedar,Park,TX,
16582,1306 E 3Rd St in,Austin,TX,
22539,3416 River Rd in,Travis,TX,
12466,6702 Hondo Bnd in,Travis,TX,
102820,3003 Hillview Rd in,Austin,TX,
23491,3522 River Rd in,Travis,TX,
6922,11208 Jordan Ln in,Austin,TX,
120009,14301 Varrelman St in,Austin,TX,
97801,1206 Woodfield Dr in,Austin,TX,
137822,6414 Bridgewater Dr in,Austin,TX,
54936,1106 Crown Oaks Dr in,Austin,TX,
66399,10501 San Jose Ave in Del,Valle,TX,
47670,4913 Hudson Bend Rd in,Austin,TX,
140585,5703 Katydid Ln in,Austin,TX,
96431,7021 Hillcroft Dr in,Austin,TX,
19306,1200 Eleanor St in,Austin,TX,
134843,7420 Thannas Way in,Austin,TX,
1486,2503 E Oltorf St in,Austin,TX,
128732,13120 Lofton Cliff in,Austin,TX,
114961,8927 Elroy Rd in,Austin,TX,
121509,606 Thrasher in,Austin,TX,
96448,6704 Ripple Run in,Austin,TX,
84595,2905 Wickham Ln in,Austin,TX,
6809,1007 Echo Ln in,Austin,TX,
56676,979 Springdale Rd in,Austin,TX,
31145,2201 B Deadwood Dr in,Austin,TX,
23603,2105 Kemper Cove in,Austin,TX,
42915,4803 Loyola in,Austin,TX,
16361,600 W St Elmo Rd in,Austin,TX,
97444,15207 Killdeer St in,Travis,TX,
73153,2005 Williow Creek Dr in,Austin,TX,
60740,12401 Willow Wild Dr in,Austin,TX,
14304,10510 Wendts Way in,Austin,TX,
123892,4700 Ru Le Fleur in,Austin,TX,
1665,203 Winchester Ct in,Austin,TX,
106297,10920 Lakeline Mall Dr in,Austin,TX,
107604,6813 Thorncliffe Drive in,Austin,TX,
46617,715 Hidden View Circle in,Austin,TX,
36469,1407 Newton St in,Austin,TX,
45820,1710 Eastside Dr in,Austin,TX,
143074,4409 Pack Saddle Pass in,Austin,TX,
40645,8802 Clearbrook Trl in,Austin,TX,
119769,9801 Colfax Dr in,Travis,TX,
9313,604 Vargas in,Austin,TX,
140402,16103 Pearce Ln in,Travis,TX,
132993,4700 Turnstone Drive in,Austin,TX,
76508,2108 Holly St in,Austin,TX,
12056,2And And Attayca in,Austin,TX,
2722,5006 Sara Drive in,Austin,TX,
88279,1811 Collier in,Austin,TX,
102259,5200 E William Cannon Dr in,Austin,TX,
107989,7601 Ingrid in,Austin,TX,
129092,10013 N Hwy 620 in,Austin,TX,
72896,9707 Anderson Mill Rd in,Austin,TX,
15715,4611 Candletree Ln in,Austin,TX,
19495,14300 Anita Marie Ln in,Austin,TX,
76268,12046 Lincolnshire Dr in,Austin,TX,
2797,10300 Georgian in,Austin,TX,
73460,10550 Maha Cir in,Travis,TX,
86859,10555#B Maha Cir in,Travis,TX,
8786,7912 Jester Blvd in,Austin,TX,
74994,7016 Boyle in,Austin,TX,
71015,4715 Blueberry Trl in,Austin,TX,
37603,148 Martin Crossing in,Travis,TX,
13684,701 W 10Th St in,Austin,TX,
123659,1707 Meander Dr in,Austin,TX,
45058,1150 Brookswood Ave in,Austin,TX,
57587,5528 Liberton in,Austin,TX,
124401,613 Industrial Blvd in,Austin,TX,
40679,7207 Barnsdale Way in,Austin,TX,
110974,4406 Russell Dr in,Austin,TX,
137917,11604 Mayback Dr in Del,Valle,TX,
98318,5001 Dove Springs Dr in,Austin,TX,
143210,15611 Wells Road in,Manor,TX,
9290,3213 Walnut in,Austin,TX,
133277,13332 Elm Grove Rd in,Travis,TX,
30952,4900 Mckinney Falls Parkway in,Austin,TX,
118211,2110 Slaughter Ln in,Austin,TX,
113459,7809 Nairn Dr in,Austin,TX,
80505,2807 Geronimo Trl in,Austin,TX,
95910,9858 Childress in,Austin,TX,
58341,2012 Champions Corner Drive in,Travis,TX,
125004,139 Bolles Cicrle in,Austin,TX,
80288,1601 Navasota St in,Austin,TX,
85989,205 W Eggleston St in,Manor,TX,
68923,1312 Blackeney Ln in,Austin,TX,
123411,7006 Old Lockhart Hwy in,Travis,TX,
109978,2930 E 12Th St in,Austin,TX,
61570,1604 Strickland Dr in,Austin,TX,
93595,9219 Hunters Chase in,Austin,TX,
40337,7906 Keneshaw Dr in,Austin,TX,
119991,1515 Wichkersham Ln in,Austin,TX,
95938,10015 Old Lockhart Hwy in,Austin,TX,
32537,13100 Tamar Court in,Austin,TX,
4873,11907A Oak Knoll Dr in,Austin,TX,
44387,618 W Powell Ln in,Austin,TX,
81375,2900 Northeast Dr in,Austin,TX,
63162,2929 Wickersham in,Austin,TX,
90375,506 Delmar B in,Austin,TX,
36885,6701 Lakewood Dr in,Austin,TX,
40037,1301 W Oltorf St in,Austin,TX,
104057,8711 Johnny Morris Road in,Austin,TX,
29030,5729 Zachary Scott St in,Austin,TX,
102470,12004 Tanglebriar Trl in,Austin,TX,
11755,1703 J.J. Seabrook in,Austin,TX,
51747,1406 Dale Dr in,Austin,TX,
3513,10108 Oak Hollow Dr in,Austin,TX,
78343,605 Wilmes Dr in,Austin,TX,
17688,1St And William Cannon in,Austin,TX,
73343,4721 Loyola Ln in,Austin,TX,
96292,2817 E Cesar Chavez St in,Austin,TX,
140411,5407 Buffalo Pass in,Austin,TX,
78290,4539 Guadlupe St in,Austin,TX,
87295,310 Robert T Martinez in,Austin,TX,
92321,12500 Research Blvd in,Austin,TX,
122907,11903 Dove Haven Dr in,Austin,TX,
42685,4714 Louis Ave in,Austin,TX,
98198,1418 W Braker Ln in,Austin,TX,
139676,1425 Manchaca Rd in,Austin,TX,
134852,4717 Nuckols Crossing Rd in,Austin,TX,
92998,5704 Cedardale Dr in,Austin,TX,
123543,6009 Wideleaf Dr in,Austin,TX,
112654,10013 North Fm 620 in,Austin,TX,
56958,12408 Elm Valley in,Travis,TX,
33468,113 W Johanna St in,Austin,TX,
111126,9515 N Lamar Blvd in,Austin,TX,
12790,3005 Charlwood Dr in,Austin,TX,
132409,4908 Irvine Ln in Del,Valle,TX,
106777,13208 Lipton Loop in Del,Valle,TX,
142367,2433 S Pleasant Valley Rd in,Austin,TX,
128775,501 E Conan in,Austin,TX,
85533,11232 Kirkland Hills Path in,Austin,TX,
104099,6103 Mountainclimb in,Austin,TX,
28723,2405 Willow in,Austin,TX,
123267,700 Northwestern in,Austin,TX,
95879,6401 Felix Ave in,Austin,TX,
129212,12607 Wright Rd in,Creedmoor,TX,
131985,14912 Hyson Crs in,Austin,TX,
7220,5338 Thundercreek in,Austin,TX,
109447,8528 Coulver Rd in,Austin,TX,
4436,6906 Villita Cv in,Austin,TX,
83156,6314 El Mirando Street in,Austin,TX,
41733,9102 Shephard Dr in,Austin,TX,
69146,12800 Pierce Ln in,Austin,TX,
87745,9115 Evelyn in,Travis,TX,
129351,6600 Elm Creek Dr # 65 in,Austin,TX,
24835,290 And 183 in,Austin,TX,
27299,8701 Fm 812 in,Travis,TX,
11444,1501 S 1St St in,Austin,TX,
41135,12409 Turtle Rock Rd in,Austin,TX,
6118,1100 W. 49Th St. in,Austin,TX,
96123,7108 Creekside Dr in,Austin,TX,
6615,12751 Webberville Rd in,Travis,TX,
60037,3449 Willowrun Dr in,Austin,TX,
14376,1403 Brandt Dr in,Austin,TX,
56056,1801 Wells Branch Pkwy Apt 903 in,Austin,TX,
76463,19304 Blake Manor Rd in,Travis,TX,
139652,12200 Athens in,Manor,TX,
76881,620/ Hwy 183 in,Austin,TX,
53601,10929 Maha Loop Rd in,Travis,TX,
135665,11304 Dessau Rd in,Austin,TX,
67664,1400 E 51St in,Austin,TX,
95869,6700 Sabrina Dr in,Austin,TX,
60806,1105 Tillery St in,Austin,TX,
69462,15107 Sabal Palm Road in,Travis,TX,
105253,17311 Lakewood Cir in,Travis,TX,
108839,6809 Ali Cv in,Austin,TX,
15797,7500 Meador Dr in,Austin,TX,
20530,2205 New York Ave in,Austin,TX,
37512,1508 E 4Th St in,Austin,TX,
3334,1709 E Hwy 71 in,Austin,TX,
38923,3001 Onslow Dr in,Austin,TX,
50416,4604 Fallenash Dr in,Travis,TX,
2093,2815 E Sh 71 in,Travis,TX,
53180,2603 S Congress in,Austin,TX,
87667,1908 Woodland in,Austin,TX,
66884,1313 Radam Circle in,Austin,TX,
13060,5201 Ross Road in Del,Valle,TX,
143399,2601 Alcott Lane in,Austin,TX,
46533,4913 Hudson in,Austin,TX,
111682,11111 Renel St in,Austin,TX,
134054,2010 Conestoga Trail #A in,Austin,TX,
6601,3403 Santa Fe in,Austin,TX,
90272,12545 Riata Vista Cir in,Austin,TX,
14590,"707 E Cesar, in",Austin,TX,
17227,801 Tillery St in,Austin,TX,
67956,306 W Rundberg in,Austin,TX,
138967,1503 Fairfield Drive in,Austin,TX,
122140,11702 Easy St in,Austin,TX,
39206,6908 Bennett Ave in,Austin,TX,
100896,8028 Elroy Rd in,Travis,TX,
108848,3306 Hycreel Dr in,Austin,TX,
50711,1914 Gracy Farms Ln B in,Austin,TX,
19543,812 & Elroy Rd in,Travis,TX,
102493,6411 Wolf Ln in,Travis,TX,
61684,4807 Putters in,Austin,TX,
83089,705 Minturn Lane in,Austin,TX,
79005,6900 Nortre Dame Dr in,Austin,TX,
95864,1127 Christie in,Austin,TX,
88640,15008 Boquillas Canyon in,Austin,TX,
45016,5601 Manchaca Road in,Austin,TX,
80051,10111 Golden Meadow in,Austin,TX,
9784,7601 Beinville Cv in,Austin,TX,
22027,902 Webberwood Way in,Travis,TX,
40856,601 Errol Dr in,Travis,TX,
93967,5507 Ameswood Dr in,Austin,TX,
104657,12151 North I35 in,Austin,TX,
47832,7913 Hudson Bend Rd in,Austin,TX,
70317,1801 J J Seabrook Dr in,Austin,TX,
129960,19020 Keeli Lane in,Pflugerville,TX,
18855,1700 Mearns Meadow Blvd in,Austin,TX,
106786,6900 Old Bee Caves Rd in,Austin,TX,
4288,6117 Perlita Drive in,Austin,TX,
122658,3420 Bach Dr in,Pflugerville,TX,
40499,5521 Hiline Rd in,Austin,TX,
106614,4307 Ave A in,Austin,TX,
133734,2427 Webberville Rd in,Austin,TX,
44644,305 Yager in,Austin,TX,
67251,14500 Block Us Highway 290 in,Manor,TX,
106635,20205 Bellerive Drive in,Pflugerville,TX,
101766,7405 Cooper Lane in,Austin,TX,
139585,3636 Rr 620 N in,Austin,TX,
74192,6020 Los Cielos in Del,Valle,TX,
39408,12801 Briar Creek in,Manor,TX,
81790,3303 Oak Alley in,Austin,TX,
51412,121 Bluebonnet Ln in,Travis,TX,
129993,7400 Dragonfly Ct in,Austin,TX,
65463,3002 Ellon Dr in Del,Valle,TX,
52598,7501 Us 290 in,Austin,TX,
12735,5401 Beacon Road in,Austin,TX,
81734,5674 Fernview in,Austin,TX,
129433,9600 Hunter Trace in,Austin,TX,
112537,3306 Randolf in,Austin,TX,
33484,1401 E 3Rd St in,Austin,TX,
131326,2603 Blue Cv in,Austin,TX,
141849,1802 East 6Th in,Austin,TX,
16274,1112 Stobaugh in,Austin,TX,
96145,6201 Lohman Ford Rd in,Travis,TX,
99308,14805 Jacobson in,Travis,TX,
65923,14434 Cameron Rd in,Manor,TX,
66885,8509 S Bend Ave in,Austin,TX,
15856,14 Niles Rd in,Austin,TX,
71423,1400 Vargas in,Austin,TX,
34611,6204 Parliament Dr in,Austin,TX,
104953,2906 Martin Luther King Jr in,Austin,TX,
75813,8Th And Ih 35 in,Austin,TX,
17726,54Th St And Duval St in,Austin,TX,
10851,1801 W Parmer Ln in,Austin,TX,
133748,4710 Candletree Ln in,Austin,TX,
130745,5603 Libyan Cir in,Austin,TX,
33642,17200 Hamilton Point Cir in,Manor,TX,
116038,5599 Glissman Rd in,Austin,TX,
109555,2500 W Parmer Ln in,Austin,TX,
98361,14901 Mossycup Ln in,Austin,TX,
124759,10512 Plains Trl in,Austin,TX,
107354,4000 Jackson Ave in,Austin,TX,
70720,6400 Ed Bluestein Blvd in,Austin,TX,
116208,8000 Decker in,Travis,TX,
13172,1327 Smith Rd in,Austin,TX,
136818,1200 Kramer Ln in,Austin,TX,
96195,1201 W 38Th in,Austin,TX,
86969,6202 Saddler Ln in,Austin,TX,
135018,12812 Thomas Jefferson in,Travis,TX,
29924,11405 Oakwood in,Austin,TX,
67948,11615 Angus Rd in,Austin,TX,
28346,7415 Bluff Springs Rd in,Austin,TX,
87482,5800 E Martin Luther King Jr Blvd in,Austin,TX,
78589,1200 Delano in,Austin,TX,
102700,6804 Mira Loma Ln in,Austin,TX,
73668,2113 Boyds Way in,Austin,TX,
85473,5000 S Ih 35 in,Austin,TX,
79724,506 Bellemeade Boulevard in,Pflugerville,TX,
100983,1831 Wells Branch Pkwy in,Austin,TX,
120795,1710 Oltorf in,Austin,TX,
44602,515 Vargas in,Austin,TX,
71790,8816 Springmail Cir in,Austin,TX,
98681,4817 Rutherglen Dr in,Austin,TX,
114517,9502 S Chisholm Trl in,Austin,TX,
21050,2103 Nogales in,Austin,TX,
137219,13816 Cambourne Dr in,Pflugerville,TX,
98023,5309 Cypress Ranch Blvd in,Travis,TX,
113725,26Th And San Antonio in,Austin,TX,
74331,1204 Travis Heights Blvd in,Austin,TX,
67683,2200 Lakeshore Blvd in,Austin,TX,
108169,2751 E Hwy 71 in,Austin,TX,
123750,9502 Chisholm Trl in,Austin,TX,
45026,7023 Burleson-Manor Rd in,Travis,TX,
107938,10005 Mount Rainier Dr in,Austin,TX,
137383,6100 Smith Oak Trl in,Austin,TX,
45631,126 Oltorf in,Austin,TX,
137544,8800 N Ih 35 Hwy in,Austin,TX,
43829,5900 Hammermill Run in,Austin,TX,
64878,1125 Tillery St in,Austin,TX,
71939,3003 Wickham Ln in,Travis,TX,
7760,2905 Wickham Ln in,Travis,TX,
143212,1804 Burton Dr in,Austin,TX,
125756,8128 N Ih 35 in,Austin,TX,
83825,519 Thrasher in,Austin,TX,
36973,8202 Citation in,Travis,TX,
132147,12621 Hymeadow Dr in,Austin,TX,
65291,8000 Linden in,Travis,TX,
64130,18300 Rivertimber Dr in,Austin,TX,
112968,3905 River Rd in,Travis,TX,
140976,8825 Jim Davis Place in,Travis,TX,
62940,14920 Johnson Road Trl in,Travis,TX,
14899,1107 Austin Highlands Boulevard in,Austin,TX,
114153,7001 Kildare Ct in,Austin,TX,
60144,205 W 24Th Street in,Austin,TX,
40979,525 N Lamar Blvd in,Austin,TX,
44213,12609 Dessau Rd in,Travis,TX,
4139,2604 Jarratt Ave in,Austin,TX,
104218,1802 Perez St. in,Austin,TX,
29932,7212 White Panda Run in Del,Valle,TX,
49322,1000 E 5Th in,Austin,TX,
61136,11Th St And Branch St in,Austin,TX,
112924,6108 Carnation Terrace in,Austin,TX,
92972,12310 Hulsey Road in,Manor,TX,
6965,5403 Summer Cir in,Austin,TX,
103935,1707 Crystal Bend Dr in,Austin,TX,
64058,4008 Teff St in,Austin,TX,
117065,2312 E 10Th in,Austin,TX,
77087,1215 E 52Nd in,Austin,TX,
4651,1101 Walnut Creek Park Road in,Austin,TX,
80113,2315 Town Lake Cir in,Austin,TX,
124976,2711 Canterbury St in,Austin,TX,
10999,1215 West Slaughter Lane in,Austin,TX,
98517,6804 Canal St in,Austin,TX,
84967,1071 Springdale Rd in,Austin,TX,
113150,9212 Thaxton in,Austin,TX,
90868,10607 Berthound in,Austin,TX,
126887,6700 Shannon Drive in,Austin,TX,
95736,3601 Webberville Rd in,Austin,TX,
84707,8503 Parkfield in,Austin,TX,
1014,6301 Harold Ct. in,Austin,TX,
110959,2101 Canonero Dr in,Austin,TX,
8333,4201 Hampsted Ct in,Austin,TX,
24327,8400 Colony Loop Dr in,Austin,TX,
73162,1600 Payton Gin in,Austin,TX,
63805,7601 E Ben White Blvd in,Austin,TX,
91872,12220 Hunters Chase Dr in,Austin,TX,
125983,4508 Destinys Gate Dr in,Austin,TX,
103538,7200 Bay City Bnd in,Austin,TX,
45416,3600 Marcae Ct in,Austin,TX,
39076,306 E Powell Ln Unit B in,Austin,TX,
58776,5607 Wagon Train Cv in,Austin,TX,
48651,1908 Santa Clara St in,Austin,TX,
72835,183 And Peyton Gin in,Austin,TX,
55321,3401 N Lamar Blvd in,Austin,TX,
43157,1602 Springdale Rd in,Austin,TX,
40229,6803 Lucy in,Austin,TX,
72083,5102 Lott Ave in,Austin,TX,
34699,2000 E. 8Th in,Austin,TX,
447,13908 Tophill Cir in,Travis,TX,
121950,9700 N Capital Of Texas Hwy in,Austin,TX,
112535,9116 Ovalla Dr in,Austin,TX,
107920,5804 Walnut Cove in,Austin,TX,
87514,9027 Northgate Blvd in,Austin,TX,
85171,305 Chaparrel Rd in,Austin,TX,
134715,7001 Thistle Hill in,Austin,TX,
9236,11403 Eubank in,Austin,TX,
49899,4619 Katydid in,Austin,TX,
124473,3115 Tx 71 in,Austin,TX,
105618,3811 E. 12Th St in,Austin,TX,
44440,9233 La Siesta in,Austin,TX,
100739,10105 Rodriguez Rd in,Austin,TX,
100123,2600 Longhorn Blvd in,Austin,TX,
45417,12405 Alameda Trace in,Austin,TX,
97715,8700 Cameron in,Austin,TX,
18108,600 Elm Creek Dr in,Austin,TX,
65301,8608 Parkfield Dr in,Austin,TX,
54806,1525 Grand Ave in,Pflugerville,TX,
122362,12401 North Lamar in,Austin,TX,
140146,8805 North Plaza in,Austin,TX,
12514,4804 Loyola Ln in,Austin,TX,
99530,312 Saxon in,Austin,TX,
121198,3811 E 12Th Street in,Austin,TX,
46280,10000 Fm 1625 in,Travis,TX,
51871,310 Burnet Street South in,Manor,TX,
9168,209 Baker Ln in,Austin,TX,
112636,18300 Medina Vista Ln in,Jonestown,TX,
98663,4803 Buckskin Pass in,Austin,TX,
11642,6716 Derby Downs Dr in,Austin,TX,
79183,6403 Farmdale Ln in,Austin,TX,
43913,301 W 2Nd St in,Austin,TX,
21904,1401 Cometa St in,Austin,TX,
125424,1900 Burton Rd #145 in,Austin,TX,
97402,106 Luna Vista Cv in Del,Valle,TX,
125391,2105 Stephen F Austin Dr in,Austin,TX,
96792,1205 S Port Dr in,Austin,TX,
10838,5401 Beacon Rd in,Austin,TX,
25515,6809 Blue Dawn in,Austin,TX,
135582,10107 Slaughter Creek Dr in,Austin,TX,
101379,6107 Club Terrace in,Austin,TX,
62586,1914 Canterberry St in,Austin,TX,
65732,6305 Felix in,Austin,TX,
63873,12135 Thompkins Drive in,Austin,TX,
41413,8413 Elroy Rd in,Travis,TX,
7356,2200 Blk Perry Ave in,Austin,TX,
116673,21201 Ann Showers in,Travis,TX,
99494,6100 Softwood Dr in,Austin,TX,
60855,1015 Yager Ln in,Austin,TX,
138207,7701 Don Coster in,Austin,TX,
133151,5200 Provential Dr in,Austin,TX,
103004,2006 Deer Run in,Austin,TX,
108451,2401 Mcdonald Way in,Austin,TX,
20105,1300 Cometa St in,Austin,TX,
80923,1907 Cannonwood Lane in,Austin,TX,
93408,9609 Corbe Dr in,Austin,TX,
13932,1914 Canterbury Dr in,Austin,TX,
119889,6102 Sandshof in,Austin,TX,
131525,13424 Clara Martin in,Travis,TX,
135117,9603 Stonebridge Dr in,Austin,TX,
83751,13107 Dessau Rd in,Austin,TX,
63618,1010 Taulbee Ln in,Austin,TX,
75158,508 Tam Worth Ave in,Austin,TX,
100688,2803 Parker Ln in,Austin,TX,
113298,10300 Doyle Rd in Del,Valle,TX,
88719,1907 Westride in,Austin,TX,
135494,3306 Laguna Dr in,Austin,TX,
100646,1308 Lily Terrace in,Austin,TX,
124387,8700 Bluff Springs in,Austin,TX,
52589,11109 Wet Season in,Austin,TX,
50426,9707 Colon Park Cv in,Austin,TX,
66843,106 E Parsons St in,Manor,TX,
131347,1600 Nash Hernandez Sr in,Austin,TX,
103520,13416 Guarnere Dr in,Austin,TX,
49807,3612 Claburn Dr in,Austin,TX,
89196,2103 Conestoga in,Austin,TX,
2580,400 Tamworth in,Austin,TX,
140781,600 W. Carrie Manor in,Travis,TX,
124702,5621 Thunder Gulch Dr in Del,Valle,TX,
97124,1625 E Parmer Ln in,Austin,TX,
67281,1403 S 5Th St in,Austin,TX,
108400,5800 Johnny Morris Rd in,Austin,TX,
37570,2405 Rockridge Dr in,Austin,TX,
9207,3308 Barksdale Dr in,Austin,TX,
118802,1010 Rutherford Ln in,Austin,TX,
50377,1015 W William Cannon in,Austin,TX,
124670,3012 Perry Ln in,Austin,TX,
77962,2903 Catalina Dr in,Austin,TX,
10935,228 Pedigree Dr in,Austin,TX,
77539,8408 Elroy Rd in,Travis,TX,
140428,525 W Slaughter Ln in,Austin,TX,
132291,5202 Berkman Dr in,Austin,TX,
70709,1016 E Anderson Ln in,Austin,TX,
141908,900 S Webberville Way in,Travis,TX,
106568,2205 Pyramid Dr in,Austin,TX,
56322,4322 Gillis St in,Austin,TX,
2545,1044 La Costa in,Austin,TX,
120180,3005 Blazing Star Trl in,Travis,TX,
84918,2200 Quicksilver Blvd in,Austin,TX,
3521,13408 Frostdale Dr in,Travis,TX,
42518,13907 Cambourne Dr in,Pflugerville,TX,
116810,12900 N Mopac Expy in,Austin,TX,
70161,424 S Lamar Blvd in,Austin,TX,
63810,700 E. 8Th St. in,Austin,TX,
407,5906 Melody Ln in,Austin,TX,
32389,2504 Dove Springs Dr in,Austin,TX,
51923,700 W Crestland Dr in,Austin,TX,
620,5812 Malarkey Rd in Del,Valle,TX,
61852,2121 W Parmer Ln in,Austin,TX,
48500,501 E Stassney Ln in,Austin,TX,
137414,1503 No Mor Cv in,Austin,TX,
100941,2315 E 10Th St in,Austin,TX,
17029,7604 Blessing in,Austin,TX,
97750,12936 Turnersville Rd N in,Travis,TX,
12212,200 Goforth in,Hays,TX,
140298,7520 Uray Dr in,Austin,TX,
110438,1907 Hearthstone Dr in,Austin,TX,
129769,4646 Manor Rd in,Austin,TX,
139666,8210 Chalk Knoll Drive in,Austin,TX,
8591,500 E 7Th in,Austin,TX,
87007,12036 Parsons Rd in,Travis,TX,
119168,8210 Chalk Knoll Dr in,Austin,TX,
55620,183 And Tom Sassman Rd in,Austin,TX,
90340,416 Baldridge in,Austin,TX,
58787,11 Nob Hill Cirl in,Austin,TX,
110042,9515 Hotel Dr in,Austin,TX,
88893,12405 Timber Arch Ln in,Manor,TX,
87853,11066 Pecan Park Blvd in Cedar,Park,TX,
110514,12300 Hymeadow in,Austin,TX,
76170,905 Walter St in,Austin,TX,
7489,7600 Ingrid in,Travis,TX,
57562,7305 Lake Charles Dr in,Austin,TX,
41834,1104 Atkinson Rd in,Austin,TX,
41822,6320 Walnut Hills Dr in,Austin,TX,
73144,6703 Lunar Dr in,Austin,TX,
116709,5423 Cameron Rd in,Austin,TX,
103722,18800 Fm 1431 in,Jonestown,TX,
65776,12440 Alameda Trace Cir. in,Austin,TX,
76435,13600 Amber Down Court in,Manor,TX,
4547,8721 Elroy Rd in,Austin,TX,
18310,12405 St Mary Dr in,Travis,TX,
47517,14951 Swiss Dr in,Travis,TX,
76258,38 1/2 & Avenue H in,Austin,TX,
102502,12Th & Airport in,Austin,TX,
68878,230 Airport Blvd in,Austin,TX,
43556,4716 Castleman Dr in,Austin,TX,
35093,13903 Lazyridge Dr in,Travis,TX,
36127,15212 Spillman Ranch Loop in,Austin,TX,
91335,5701 Shoalwood Ave in,Austin,TX,
10274,1932 Creole Dr in,Austin,TX,
102206,22208 Ann Showers in,Travis,TX,
56907,10006 Brownie Dr in,Austin,TX,
67066,912 N Bastrop in,Austin,TX,
76892,7216 Salt Springs Dr in,Austin,TX,
26772,8002 Running Water in,Austin,TX,
35251,9011 Johnny Morris in,Austin,TX,
55326,4508 Bull Creek Rd in,Austin,TX,
108649,7611 Bennett Ave in,Austin,TX,
138763,801 E William Cannon Dr in,Austin,TX,
83299,3317 Manor Rd in,Austin,TX,
51919,2525 Glen Springs in,Austin,TX,
32158,4003 Red River St in,Austin,TX,
126500,10400 Old Manchaca Rd in,Austin,TX,
118905,3003 S Lamar Blvd in,Austin,TX,
2052,503 Nelray Blvd in,Austin,TX,
42295,10208 Lindell Ln in,Austin,TX,
66237,2003 Pennsylvania Ave in,Austin,TX,
109048,8901 Business Park Drive in,Austin,TX,
104559,8220 S Sh 71 in,Austin,TX,
111744,3313 Texas Topaz Drive in,Austin,TX,
15287,9401 S Hwy 183 in,Travis,TX,
110846,8311 Pilgrims Pl in,Austin,TX,
22135,600 Presidential Blvd in,Austin,TX,
56805,7915 West Gate in,Austin,TX,
6248,8010 Tonopa Ln in,Austin,TX,
82670,8803 Ravello Pass in,Austin,TX,
86655,401 N Lexington in,Manor,TX,
62974,8313 Cahill Drive in,Austin,TX,
117062,2801 Guadalupe St in,Austin,TX,
46009,6809 Hanover Lane in,Austin,TX,
133281,2728 S Congress Ave in,Austin,TX,
79233,2201 E 6Th St in,Austin,TX,
17748,1821 Directors Blvd in,Austin,TX,
108559,15711 Dessau Rd in,Pflugerville,TX,
120453,1112 W Rundberg Ln in,Austin,TX,
7885,1707 Burton Drive in,Austin,TX,
87998,907 Wagon Trl in,Austin,TX,
82596,5808 Selway in,Austin,TX,
123639,4805 Bergfield Drive in,Austin,TX,
81911,7206 Ed Bluestein Blvd in,Austin,TX,
137188,12416 Cielo Grande St in,Travis,TX,
121500,9910 Peterson Rd in Del,Valle,TX,
139804,1302 Singleton in,Austin,TX,
130005,1300 Park Center Dr in,Austin,TX,
104332,2223 Waterloo City Ln in,Austin,TX,
128356,17303 Sleepy Hollow in,Travis,TX,
125086,13768 Research Blvd in,Austin,TX,
94246,7604 Meador in,Austin,TX,
25044,4400 N Lamar in,Austin,TX,
119626,10505 S Ih 35 Frontage Rd in,Austin,TX,
3933,7020 Grand Canyon Dr 108 in,Austin,TX,
103780,1601 Montopolis Dr Unit 418 in,Austin,TX,
118016,13425 N Rr620 in,Austin,TX,
31644,12316 Fay St in,Travis,TX,
4899,1309 Deloney St in,Austin,TX,
138200,11804 N Lamar Blvd in,Austin,TX,
19600,5017 W. 290 in,Austin,TX,
50677,9613 Night Star Drive in Del,Valle,TX,
12279,6308 Saddler Ln in,Austin,TX,
36672,1928 Newning in,Austin,TX,
117736,4701 Alf Ave in,Austin,TX,
63516,2301 Coronado in,Austin,TX,
54798,7009 S Ih35 in,Austin,TX,
22311,1213 Marcy St in,Austin,TX,
80666,1215 W Slaughter #525 in,Austin,TX,
136209,1407 E 3Rd in,Austin,TX,
88168,3108 Spruce Cove in,Austin,TX,
128878,305 E Croslin St in,Austin,TX,
88331,6808 S Ih 35 in,Austin,TX,
11617,2222 Rio Grande St in,Austin,TX,
59974,3101 Kings Lane in,Austin,TX,
72983,2905 Lyons Rd in,Austin,TX,
25684,1035 Lott Ave in,Austin,TX,
92646,5365 North Intersate 35 in,Austin,TX,
115432,6602 Blarwood Dr in,Austin,TX,
66703,2202 Canterbury Dr in,Austin,TX,
82168,2336 Douglas in,Austin,TX,
86725,18300 Ovierto Drive in,Pflugerville,TX,
142496,9500 South Ih -35 in,Austin,TX,
50938,2628 Gwendolyn Ln in,Austin,TX,
135009,4600 N Fm 620 in,Austin,TX,
31231,3524 Greystone Drive in,Austin,TX,
41664,8313 Warbler Court in,Austin,TX,
25743,9101 Us-183 in,Austin,TX,
36456,13309 N Ih35 in,Austin,TX,
36876,6308 Shadow Bend in,Austin,TX,
77260,12Th St And Chicon in,Austin,TX,
120984,8222 N. Lamar in,Austin,TX,
21510,9008 Galewood Dr. in,Austin,TX,
91165,10305 North Lamar in,Austin,TX,
58094,10598 Hog Eye Rd in,Austin,TX,
6428,6575 Decker Ln in,Austin,TX,
66444,2526 U.S. 290 Frontage Rd in,Austin,TX,
65089,5609 View Point Dr in,Austin,TX,
28691,5300 S Mopac Expy in,Austin,TX,
49554,1320 Southport Dr in,Austin,TX,
68482,4705 Leatherleaf Trl in,Austin,TX,
127424,1906 Chestnut Ave in,Austin,TX,
74100,11716 Morning View Dr in Del,Valle,TX,
59266,2319 Greenfield Pkwy in,Austin,TX,
112189,1408 Valley Ridge Dr in,Austin,TX,
31131,5601 Vine Hill Dr in,Austin,TX,
122477,3206 Larry Ln in,Austin,TX,
147,7200 Twisted Oaks in,Austin,TX,
19431,5205 Saint Geoges Green in,Austin,TX,
55376,1901 Onion Creek in,Austin,TX,
132940,14100 Morgan Creek in,Austin,TX,
108322,6721 S Congress Ave in,Austin,TX,
117872,7500 Gaines Mill Ln in,Austin,TX,
129747,8211 Evelyn Rd in,Travis,TX,
943,7000 Millrace in,Austin,TX,
12681,16231 Interstate 35 Frontage Rd in,Travis,TX,
13084,3520 E Victorine in Del,Valle,TX,
112828,13309 Bennington Ln in,Austin,TX,
19321,1009 Vasquez St in,Austin,TX,
94171,1009 Vasquez in,Austin,TX,
20253,4406 Zyle in,Austin,TX,
134801,13312 Guarnere in Del,Valle,TX,
16126,18713 Great Falls Dr in,Manor,TX,
100456,2300 Southern Oaks Dr in,Austin,TX,
16139,514 E 6Th in,Austin,TX,
22791,3409 Firoj in,Travis,TX,
83461,1913 Golden Sunrise Ln in,Travis,TX,
43883,15720 Ecorio Dr in,Austin,TX,
75381,19208 Hog Eye Rd in,Travis,TX,
51465,7715 Burleson Manor in,Travis,TX,
130715,2907 Rogge Ln in,Austin,TX,
78459,105 Perpetuation Dr in,Austin,TX,
35770,11819 I H 35 South in,Austin,TX,
57782,1013 Great Britain Blvd in,Austin,TX,
1598,5000 Good Wood Side A in,Austin,TX,
113644,3310 Clarksburg Dr in,Austin,TX,
85229,11908 Sparks Rd in,Manor,TX,
135085,7205 Bennett Ave in,Austin,TX,
104518,10403 Golden Meadow in,Austin,TX,
115383,13145 Us 183 in,Austin,TX,
104926,5330 Manchaca Rd in,Austin,TX,
121107,7201 Levader Loop in,Austin,TX,
63368,11409 Pickard Ln in,Austin,TX,
116086,1401 Frontier Valley in,Austin,TX,
128278,9500 W Parmer Ln in,Austin,TX,
45201,11802-A Tanglebriar Trl in,Austin,TX,
49820,6212 Crown Ln in,Austin,TX,
2877,1100 West Parmer in,Austin,TX,
50626,1950 W William Cannon in,Austin,TX,
21614,722 Park Blvd in,Austin,TX,
104977,3400 Harmon Ave in,Austin,TX,
68636,12000 W Hwy 290 in,Austin,TX,
18770,"5600 Johnny, in",Austin,TX,
103279,5315 Mission Cir in,Austin,TX,
34336,1705 Ben Crenshaw in,Austin,TX,
37076,507 Colonial Park Blvd in,Austin,TX,
90902,5309 E Riverside Dr in,Austin,TX,
66630,6600Elm Creek Dr & North Bluff Estate in,Austin,TX,
131380,1800 Celeste Cir in,Austin,TX,
103102,6820 Villita Ave in,Austin,TX,
85930,19208 Hog Eye Rd in,Manor,TX,
54906,2801 Wellsbranch Pkwy in,Austin,TX,
7024,5906 Wynona in,Austin,TX,
129705,7114 Dan Jean Dr in,Austin,TX,
91937,1605 Suffolk in,Austin,TX,
96616,8720 Escabosa Ln in,Austin,TX,
33826,15900 Giese Ln in,Travis,TX,
38423,9502 Manchaca Rd in,Austin,TX,
18680,6808 Breezy Hill Dr in,Austin,TX,
26685,11309 Doyle Overton Rd in,Austin,TX,
70982,18100 Park Dr in,Jonestown,TX,
77671,7909 Izetta Ln in,Austin,TX,
127528,2112 E William Cannon Dr in,Austin,TX,
139066,1132 Walton Ln in,Austin,TX,
4709,508 Howard Lane in,Austin,TX,
107880,3615 Muson St in,Austin,TX,
66394,115 West Koenig in,Austin,TX,
112441,913 Freewater in,Austin,TX,
136390,8725 El Roy Rd in,Austin,TX,
65824,8725 Elroy Rd in,Austin,TX,
44687,10504 Mc Millian Dr in,Austin,TX,
12345,4300 Eskew Dr in,Austin,TX,
134418,2007 Mc Call Rd in,Austin,TX,
58190,7402 Charleton Drive in,Austin,TX,
18276,2300 Nueces St in,Austin,TX,
58835,11812 Briarcreek Loop in,Travis,TX,
45126,5404 Palo Blanco in,Austin,TX,
42456,5000 Cottonwood Circle in,Austin,TX,
36108,3404 Touchstone in,Austin,TX,
45831,1021 Kramer Ln in,Austin,TX,
71614,801 E Rundberg Ln in,Austin,TX,
39896,22601 Deidra Dr in,Travis,TX,
81630,1511 Faro Dr #158 in,Austin,TX,
96944,6503 Bluff Springs Rd in,Austin,TX,
90284,1905 Nueces in,Austin,TX,
106832,10500 Lakeline Mall Dr in,Austin,TX,
129241,7917 Westgate Blvd in,Austin,TX,
11672,11920 Snow Goose in,Austin,TX,
19195,1710 Dessau Rd in,Austin,TX,
45102,6909 W Courtyard Dr in,Austin,TX,
103633,7010 Tx-71 in,Austin,TX,
107334,2312 Peppertree Ct in,Austin,TX,
52383,9010 Galewood Dr in,Austin,TX,
69270,12610 Riata Vista Circle in,Austin,TX,
121766,1005 West Stassney Lane in,Austin,TX,
99918,237 Forest Dr. in,Austin,TX,
122,2808 Harpers Ferry in,Austin,TX,
44377,7500 S. Ladera St. in,Austin,TX,
84319,7500 S Ladera St in,Austin,TX,
77222,3520 Caldwell Ln in,Austin,TX,
111860,2109 Dove Springs Rd in,Austin,TX,
98044,18013 Masi Loop in,Travis,TX,
31568,130 Cumberland Rd in,Austin,TX,
47557,798 E Braker Ln in,Austin,TX,
131680,167 Stonycreek Dr in Del,Valle,TX,
19487,799 E 7Th St in,Austin,TX,
38882,11601 Blackhawk Dr in,Austin,TX,
109037,12432 Hunters Chase Dr in,Austin,TX,
74294,1809 Bitter Creek Dr in,Austin,TX,
36129,601 Ridgewood in,Austin,TX,
104920,7906 Linden Rd in,Travis,TX,
43397,2006 Haskell St in,Austin,TX,
44439,13500 Lazyridge & Millhouse in,Travis,TX,
28124,1400 E. Rundberg in,Austin,TX,
22167,6448 Us-290 in,Austin,TX,
53860,5509 Ferret Path in,Austin,TX,
115146,2805 Palomino Trl in,Austin,TX,
35303,5700 Peppertree in,Austin,TX,
18031,6509 S 1St St in,Austin,TX,
125423,11900 S Bastrop St in,Manor,TX,
95337,7802 Hayride Rd in,Travis,TX,
87833,5203 Two Iron in,Austin,TX,
135695,4704 Ribbecke Ave in,Austin,TX,
77763,5Th St And Ih 35 in,Austin,TX,
88504,11016 Jockey Bluff Dr in,Austin,TX,
100654,2625 Jones Rd in,Austin,TX,
74380,3300 Brandt Rd in,Austin,TX,
121938,6807 Villita Avenida St in,Austin,TX,
126196,6004 Hidden View Place in,Austin,TX,
37873,14972 Swiss Dr in Del,Valle,TX,
21963,19004 Mangan Way in,Pflugerville,TX,
10396,3016 Guadalupe St in,Austin,TX,
36628,360 Bridge in,Austin,TX,
112615,7703 Williamson Creek Dr in,Austin,TX,
12365,6302 Thurgood Ave in,Austin,TX,
86586,1011 Arthur Stiles in,Austin,TX,
12719,2222 And Lamar in,Austin,TX,
77729,2707 S Congress Ave in,Austin,TX,
130869,1601 Chatham Ave in,Austin,TX,
53874,4605 Hank in,Austin,TX,
17547,6414 Elroy Rd in,Austin,TX,
18289,12405 Alameda in,Austin,TX,
20785,1600 Wells Branch Pkwy in,Austin,TX,
86112,7329 Rhett in,Austin,TX,
71258,5624 N Lamar Blvd in,Austin,TX,
41549,12808 Buckner Rd in,Austin,TX,
54351,809 Norwalk Ln in,Austin,TX,
10282,7406 Albert Rd in,Austin,TX,
1952,194 Mcdowell Rd in,Bastrop,TX,
126059,3600 S Ih 35 Frontage Rd in,Austin,TX,
111443,9012 Kimono Ridge Dr in,Austin,TX,
107471,9011 Sawtooth Ln in,Austin,TX,
68546,7405 Eastcrest Dr in,Austin,TX,
53655,9508 Bock Rd in,Travis,TX,
102026,9100 North Dr in,Austin,TX,
43830,19400 W.T. Gallaway in,Manor,TX,
45901,21503 Longhill Dr in,Leander,TX,
123353,1925 Rutland Dr in,Austin,TX,
62526,2208 Energy Dr in,Austin,TX,
119609,1906 Willow Crek Dr in,Austin,TX,
105993,4804 Scarsdale in,Austin,TX,
29993,3501 Andtree Blvd in,Austin,TX,
20503,10501 Lambert Ln in,Austin,TX,
26722,16604 Easybend Dr in,Austin,TX,
135138,20424 Rita Blanca in,Travis,TX,
43200,9011 Briardale Dr in,Austin,TX,
140037,20501 Live Oak in,Travis,TX,
56020,5803 Teri Rd in,Austin,TX,
88903,5833 Westminster Drive in,Austin,TX,
3146,4412 Destinys Gate Dr in,Austin,TX,
110463,4914 Pepper Ln in,Austin,TX,
87830,7910 Cahill Dr in,Austin,TX,
31559,7100 Us 290 #71 in,Austin,TX,
124094,2903 Reydell Ave in,Austin,TX,
80052,5105 E 51St St in,Austin,TX,
58326,1404 Crete Ln in,Travis,TX,
97642,1003 Woodland Village Dr in,Austin,TX,
119853,11725 Alexs Ln in,Austin,TX,
76391,13715 Spring Heath Rd in,Travis,TX,
64562,4518 Kind Way in,Austin,TX,
67921,12463 Los Indios Trl in,Austin,TX,
99265,2800 Del Curto Rd in,Austin,TX,
110656,5803 Caroline Ln in,Austin,TX,
127066,8724 Birmingham in,Austin,TX,
98151,3014 W William Cannon in,Austin,TX,
102935,1800 Corona Dr in,Austin,TX,
103886,12308 Marogot Run in,Austin,TX,
44037,6006 Mojave Dr in,Austin,TX,
40018,7709 Manchaca Rd in,Austin,TX,
112834,12700 Ring Dr in,Manor,TX,
90636,552 W Johanna St in,Austin,TX,
135526,910 Duncan Ln in,Austin,TX,
60817,500 Tomson Ln &183 in,Austin,TX,
69063,6100 B Conti Ct in,Austin,TX,
134877,1207 Radam Cir in,Austin,TX,
110777,4700 Riverside in,Austin,TX,
102257,12528 Los Cielos in Del,Valle,TX,
75408,307 Craigmont Dr in,Austin,TX,
117128,12215 Hunters Chase #3207 in,Austin,TX,
61924,12900 Fm 969 in,Travis,TX,
74916,2800 Caleb Dr in,Austin,TX,
68542,3112 E Cesar Chavez St in,Austin,TX,
67900,12306 Rolling Hill Dr in,Austin,TX,
98095,14832 N Fm 973 in,Austin,TX,
126363,2420 Elara Dr in,Austin,TX,
14850,11400 Murchinson in,Manor,TX,
61931,5901 Idlewood Cv in,Austin,TX,
128939,3202 E William Cannon in,Austin,TX,
140563,11309 April Drive in,Austin,TX,
3096,2317 S Pleasant Valley Dr in,Austin,TX,
68737,2702 Mulford Cv in,Austin,TX,
59513,8500 Valleyfield Dr in,Austin,TX,
115039,4300 Creede Dr in,Austin,TX,
57701,8200 Research Blvd #101 in,Austin,TX,
19807,8920 Vigen in,Austin,TX,
73912,905 Fairfield Dr in,Austin,TX,
75098,1995 Faro Dr in,Austin,TX,
68670,6213 Shumard Oak in,Austin,TX,
125869,5608 Jfk Drive in,Austin,TX,
79917,6731 E Hwy 290 in,Austin,TX,
82117,6113 Carnation Ter. in,Austin,TX,
118706,10909 Worn Sole Dr in,Austin,TX,
72594,4922 Nuckols Crossing #28 in,Austin,TX,
27813,7303 Dixie Dr in,Austin,TX,
54251,6511 Stoneleigh Pl in,Austin,TX,
138853,11066 Pecan Park in,Austin,TX,
15189,6008 Sandshof Dr in,Austin,TX,
743,1200 Barbra Jordan Blvd #100 in,Austin,TX,
16595,115 Sandra Muraida Way And W 3Rd St in,Austin,TX,
65373,12118 Walnut Creek Crs in,Austin,TX,
123040,6822 Greycloud Dr in,Austin,TX,
72666,4601 Tuckerhill Lane in,Travis,TX,
116777,4620 Raintree Blvd in,Austin,TX,
4082,6900 Crystalbrook Dr in,Austin,TX,
84043,5001 Blue Spruce Cir in,Austin,TX,
51775,4972 E Sh 71 in,Travis,TX,
14883,1724 Woodward in,Austin,TX,
55413,", Apt 1612 in",Austin,TX,
8006,8307 Maine Dr in,Austin,TX,
130567,8000 Daffin Ln in,Austin,TX,
20792,1100 Cumberland Rd in,Austin,TX,
56147,5717 Kleberg Tr in,Austin,TX,
6882,8901 Bill Hickock Pass in,Austin,TX,
97407,4401 Fm973 in,Austin,TX,
105804,2120 Fm 1626 in,Travis,TX,
137594,1109 Shady Ln in,Austin,TX,
108692,6040 W Hw 290 in,Austin,TX,
49199,12937 Covington Trl in,Austin,TX,
13952,900 W 26Th St in,Austin,TX,
140850,7205 E Meadow Bend Dr in,Austin,TX,
107410,3201 Terrell Ln in,Austin,TX,
46362,10216 Medinah Greens Dr in,Austin,TX,
26900,5014 E Cesar Chavez St in,Austin,TX,
17532,6872 Daffan Ln in,Austin,TX,
117919,3001 Oak Springs Dr in,Austin,TX,
23107,1009 Wells Branch in,Travis,TX,
24125,912 Fall Creek Dr in,Austin,TX,
141270,9518 Topridge Dr in,Austin,TX,
39343,1626 Nash Hernandez in,Austin,TX,
67453,4402 S Congress in,Austin,TX,
115876,2210 Deadwood Dr in,Austin,TX,
100901,13100 S Us 183 in,Travis,TX,
124846,3001 Prado St in,Austin,TX,
98002,8926 N Lamar Blvd in,Austin,TX,
76843,717 E 7Th St in,Austin,TX,
88081,3501 Firoj in,Austin,TX,
25205,1004 Milford Way in,Austin,TX,
7373,12241 Paloma Blanca Way in Del,Valle,TX,
112167,8405 Fathom Cir in,Austin,TX,
142434,8315 Elroy Rd in Del,Valle,TX,
74501,7Th St And S Pleasant Valley in,Austin,TX,
9228,9517 Dalewood Dr in,Austin,TX,
47611,12201 Prairie Glen in,Travis,TX,
127411,1205 Sheldon Cv in,Austin,TX,
30480,1806 Jj Seabrook Drive in,Austin,TX,
110005,208 Tumbleweed Trl in,Austin,TX,
57070,18300 River Timber Dr in,Travis,TX,
11231,8105 Shaol Creek Blvd in,Austin,TX,
6120,5002 Aberdeen Dr in,Austin,TX,
115725,4505 Turnstone Dr in,Austin,TX,
68366,10401 Research Blvd in,Austin,TX,
84526,5409 Purple Sage in,Austin,TX,
5122,183 And Hw 973 in,Austin,TX,
132351,2425 E Riverside in,Austin,TX,
888,10203 Doc Holiday Trl in,Austin,TX,
6311,2500 E Riverside Dr in,Austin,TX,
9009,18300 River Timber Dr in,Austin,TX,
137242,9115 Evelyn Rd in Mustang,Ridge,TX,
89327,801 Salem in,Austin,TX,
96794,11601 Garden Grove in,Austin,TX,
26797,6301 A Latigo Pass in,Austin,TX,
20195,1311 Marble Falls Cove in,Austin,TX,
63884,916 Springdale Rd in,Austin,TX,
84728,3502 River Road in,Austin,TX,
72205,2307 Rockridge Dr in,Austin,TX,
101610,14212 S Green Hills Loop in,Austin,TX,
60295,1511 Crossing Place in,Austin,TX,
24935,3203 Burley Cv in,Austin,TX,
108141,12017 Amherst Drive in,Austin,TX,
114236,2606 Wheeles in,Austin,TX,
115258,5211 Tahoe Trl in,Austin,TX,
39795,2302 Garden in,Austin,TX,
70796,700 Bell Springs in,Travis,TX,
142628,2205 Comal St in,Austin,TX,
131409,13308 Gilwell Drive in,Austin,TX,
118396,12113 Broten St in,Austin,TX,
139639,4501 E. Ben White in,Austin,TX,
54239,4901 Copperbend Blvd in,Austin,TX,
75108,7417 Dee Gabriel Collins Rd in,Austin,TX,
35663,3612 Oak Springs in,Austin,TX,
142363,3207 Harris Park Ave in,Austin,TX,
31571,4123 Todd Ln in,Austin,TX,
104246,13104 Wild Turkey in,Travis,TX,
68469,11716 Cherisse Dr in,Austin,TX,
32509,5504 N Imperial Dr in,Austin,TX,
105172,1505 Summit St in,Austin,TX,
65023,10760 Maha Cir in,Austin,TX,
36555,9345 E 290 Hwy in,Austin,TX,
135919,2005 Trede Dr in,Austin,TX,
131194,9516 Teasdale Ter in,Austin,TX,
45041,695 Thompson Ln in,Austin,TX,
8527,900 Center Ridge Dr in,Austin,TX,
8387,5625 Foxfield Ln in,Austin,TX,
129543,2621 Riddle Road in,Austin,TX,
48703,2628 Winding Brook in,Austin,TX,
136306,6601 Scrub Oak in,Austin,TX,
100919,1000 Neans Dr in,Austin,TX,
53847,3010 Lyons Rd in,Austin,TX,
109851,6600 Ed Bluestein Blvd in,Austin,TX,
84852,16916 High Noon in,Travis,TX,
58814,9009 Great Hills Trl in,Austin,TX,
109503,1607 Nueces Street in,Austin,TX,
24736,35 Waller St in,Austin,TX,
30172,18300 River Timber Rd in Del,Valle,TX,
50031,2108 Maxwell Ln in,Austin,TX,
73111,6100 Felix Ave in,Austin,TX,
126442,1700 W Howard Ln in,Austin,TX,
132724,12121 Grey Fawn Path in,Austin,TX,
110990,4706 Imperial Dr in,Travis,TX,
90746,14300 Fm 969 in,Austin,TX,
136958,5753 Signal Pt in,Austin,TX,
12660,13201 Elm Grove in,Travis,TX,
82624,110 E 2Nd St in,Austin,TX,
10229,11711 Maybock Dr in,Travis,TX,
96317,6511 Lakewood Dr in,Austin,TX,
115993,3003 Bee Caves Rd in,Austin,TX,
8376,4601 Granny Drive in,Travis,TX,
115347,2001 Alex Ave in,Austin,TX,
65959,12521 Harris Branch Pkwy in,Manor,TX,
65495,2710 Parker Ln in,Austin,TX,
4364,8206 Kearsarge Dr in,Austin,TX,
78414,13400 Bolivia Dr in,Austin,TX,
80874,115 W Koenig Ln in,Austin,TX,
75985,1153 Ebert Ave in,Austin,TX,
139533,4711 Sara Dr in,Austin,TX,
94574,4505 Country Club Dr in Lago,Vista,TX,
91840,49Th St & Harmon Ave in,Austin,TX,
131191,11420 Dove Flight in,Austin,TX,
119852,1612 Canon Yeom Trl in,Austin,TX,
108702,124 W Andersan Ln in,Austin,TX,
47546,"810 E, 1702 in",Austin,TX,
23520,6422 S Hwy 183 in,Travis,TX,
77156,5425 Mission Cir in,Austin,TX,
4279,410 Blue Valley Dr in,Austin,TX,
50192,402 W Parsons in,Travis,TX,
103057,5326 Wellington Dr in,Austin,TX,
99975,6804 Old Lockhart Rd in,Travis,TX,
72914,2400 Whickersham in,Austin,TX,
37131,5555 Tierra Alta Cir in Del,Valle,TX,
9433,3201 Century Park Blvd in,Austin,TX,
136251,1413 Demaret Dt in,Travis,TX,
78468,7033 E Hwy 290 in,Austin,TX,
81403,6911 Wentworth in,Austin,TX,
122401,8505 Barasinga Trl in,Austin,TX,
24621,4909 Eastdale Dr in,Austin,TX,
31555,9711 Manchaca Rd in,Austin,TX,
52032,6207 Idlewood Cv in,Austin,TX,
111536,1101 Tracy Michelle Dr in,Pflugerville,TX,
82514,403 Trays Way in,Austin,TX,
113385,3315 Grasshopper in,Austin,TX,
75933,6203 Walker in,Austin,TX,
29106,6767 Spicewood Springs Rd in,Austin,TX,
114759,18901 Hamilton Pool Rd in,Travis,TX,
116043,9600 Fm812 in,Austin,TX,
42814,4800 E Ben White in,Austin,TX,
78531,12836 U.S. 290 in,Manor,TX,
125227,19406 Blake Manor in,Austin,TX,
100055,4501 Terry-O in,Austin,TX,
90084,7404 Southgate Ln in,Austin,TX,
98115,11513 Dove Flight Drive in,Austin,TX,
107066,4906 Valley Oak Dr in,Austin,TX,
64646,8201 Sam Rayburn in,Austin,TX,
21317,1300 Warrington in,Austin,TX,
79848,13121 Spiers in,Travis,TX,
75224,9301 W Hwy 290 in,Austin,TX,
39469,8703 Stillwood Ln in,Austin,TX,
54857,9900 North Fm 620 in,Austin,TX,
139417,9600 I-35 South in,Austin,TX,
88950,2614 Coatbridge Dr in,Austin,TX,
15876,1600 Man O War Dr in,Travis,TX,
103441,5230 Thunder Creek Rd in,Austin,TX,
72195,5301 Ross Rd in,Austin,TX,
142133,12113 Metric Boulevard in,Austin,TX,
50549,5611 Steven Creek Way in,Austin,TX,
84525,6400 Bolm Rd in,Austin,TX,
77634,9501 Farm To Market 969 in,Austin,TX,
89151,12100 Athens St in,Manor,TX,
64843,1503 Piedmont in,Austin,TX,
74737,1820 Willow Creek Dr in,Austin,TX,
92331,4713 Oak Cliff in,Austin,TX,
135947,4300 Meinardus in,Austin,TX,
27934,360 Onion Creek Pkwy in,Austin,TX,
79178,8700 Broodie Ln in,Austin,TX,
7986,1604 A Cinnamon Path in,Austin,TX,
86574,6528 Circulo De Amistad in,Austin,TX,
134670,1200 Wickersham Ln in,Austin,TX,
20624,11800 Lima Dr in,Manor,TX,
78003,4011 S 1St St in,Austin,TX,
109100,14106 Lazyridge Dr in,Travis,TX,
73762,1108 Tuffit Ln in,Austin,TX,
127405,6048 Blarwood in,Austin,TX,
102187,2304 Tern Cir in,Austin,TX,
68343,915 E 38Th in,Austin,TX,
105615,5365 Westminster Ave in,Austin,TX,
21141,500 E William Cannon Dr in,Austin,TX,
115973,4243 Iriona Bend in,Austin,TX,
129046,1513 Three Points in,Travis,TX,
115909,183 And Ed Bluestein in,Austin,TX,
133982,7703 Whitsun Dr in,Austin,TX,
32787,5806 Fence Row in,Austin,TX,
48521,9601 Cliffbrook in,Austin,TX,
84545,13020 in,Austin,TX,
125692,317 Pedigree in,Austin,TX,
82471,1005 Kramer Ln in,Austin,TX,
1399,3300 Killingsworth Lane Lot 307 in,Travis,TX,
1410,1616 W 8Th St in,Austin,TX,
94771,3902 Ziller Cove in,Austin,TX,
22248,5416 Marlborough Dr in,Austin,TX,
26556,6111 S Congress #16A in,Austin,TX,
4388,5706 Blythewood Dr in,Austin,TX,
75193,1305 Verdant Way in,Austin,TX,
71569,7004 Trendal Ln in,Austin,TX,
60165,15200 Sunningdale St in,Austin,TX,
138170,15112 Mimebark Way in,Travis,TX,
109605,12342 Hunters Chase Dr in,Austin,TX,
82482,7601 Sh 71 in,Austin,TX,
3415,105 Edgewater Cove in,Travis,TX,
95826,11218 Bluff Bend Dr in,Austin,TX,
13603,161 W Slaughter Ln in,Austin,TX,
12459,405 E 31St in,Austin,TX,
75225,6900 Guadalupe St in,Austin,TX,
128076,620 And 2222 in,Austin,TX,
117776,8013 Lazy Ln in,Austin,TX,
78692,6907 Convict Hill Rd in,Austin,TX,
59851,2401 E Riverside Dr in,Austin,TX,
19031,3 Niles Rd in,Austin,TX,
133717,1001 E 50Th St in,Austin,TX,
10374,114 Hergotz in,Austin,TX,
122770,12307 Dessau in,Austin,TX,
90288,11912 Lima Dr in,Manor,TX,
110960,8202 Emberwood Dr in,Austin,TX,
142561,5311 Martin Ave in,Austin,TX,
110409,13212 Villa Park Dr in,Austin,TX,
6807,20916 Verna Dr in,Manor,TX,
65650,11903 Green Grove Dr in,Austin,TX,
105259,6901 Wier Loop Rd in,Austin,TX,
64794,5111 Wolf Ln in,Travis,TX,
9887,7006 A Creedmoor Rd in,Austin,TX,
76615,1800 E Oltorf St in,Austin,TX,
105113,700 N Railroad Ave in,Travis,TX,
131670,12607 Wright Rd in,Austin,TX,
63959,10400 Dessau Rd in,Austin,TX,
134615,6011 Blue Bluff in,Austin,TX,
89617,11403 Clear Spring Ct in,Leander,TX,
4142,10122 Aspen St in,Austin,TX,
48199,9708 Lime Creek in,Travis,TX,
89551,11713 Arrowmound Pass in Del,Valle,TX,
26575,7Th St & Chicon St in,Austin,TX,
98236,7201 Grand Canyon Dr in,Austin,TX,
105074,14400 Immanuel Rd in,Pflugerville,TX,
142293,4400 Avenue G in,Austin,TX,
114999,4601 Best Way in,Austin,TX,
4563,2614 Alcott in,Austin,TX,
39191,5421 Kara Dr in,Austin,TX,
84361,1110 W William Cannon in,Austin,TX,
82838,4605 Preakness in Del,Valle,TX,
14021,2100 Wickersham # 2087 in,Austin,TX,
49862,4515 Avenue F in,Austin,TX,
34191,2008 Riverview St in,Austin,TX,
138194,16205 N 973 in,Austin,TX,
709,9707 Point Vista Pl in,Austin,TX,
53182,6316 Thurgood Ave in,Austin,TX,
139696,8002 Taza Trl in,Austin,TX,
74821,5630 Wagon Train Rd in,Austin,TX,
102997,11513 Lockhart Rd in,Travis,TX,
126397,105 Deed Ave in,Austin,TX,
30623,2048 W Stassney Ln in,Austin,TX,
44463,3100 Barksdale in,Travis,TX,
21097,1900 E Howard Ln in,Pflugerville,TX,
65806,5501 Catsby Ct in,Austin,TX,
18139,3300 Killingsworth #263 in,Travis,TX,
17564,10800 Oak View Dr in,Austin,TX,
143022,1116 Estes Ave in,Austin,TX,
113759,5600 Netleaf Rd in,Austin,TX,
51894,6103 Conti #A in,Austin,TX,
21241,7331 Rhett in,Austin,TX,
11092,4600 Nucklos Crossing in,Austin,TX,
121101,6903 Circle S in,Austin,TX,
140272,924 Shady Ln in,Austin,TX,
55621,8109 Colony Loop Dr in,Austin,TX,
120878,912 E 38Th Half St in,Austin,TX,
88208,17517 Rannoch in,Pflugerville,TX,
60870,5400 Johnny Morris in,Austin,TX,
122746,1400 Barbara Jordan Blvd in,Austin,TX,
93833,11015 Travis Dr in,Travis,TX,
110519,9900 S Ih 35 in,Austin,TX,
44265,9721 Arboretum Blvd in,Austin,TX,
45467,7201 Loganberry in,Austin,TX,
13586,1901 E Ben White in,Austin,TX,
81358,4529 Creek Bend Dr in,Austin,TX,
5704,10606 Old Lochart in,Austin,TX,
9604,23393 Nameless Rd in,Leander,TX,
53477,"8557, Austin in",Austin,TX,
70883,8557 Research Blvd in,Austin,TX,
69584,2400 E Cesar Chavez St #100 in,Austin,TX,
49927,8420 Elroy Rd in Del,Valle,TX,
101680,6717 Ondatra Bnd in,Austin,TX,
120529,12971 Pond Springs Rd in,Austin,TX,
62496,4306 Berkman Dr in,Austin,TX,
33402,402 W Parsons in,Manor,TX,
17378,11901 Gaelic Dr in,Austin,TX,
105189,600 W Cesar Chavez St in,Austin,TX,
51582,10625 Bonaventure Dr in,Austin,TX,
1776,10002 Faylin Dr in,Austin,TX,
141299,6113 Fairway St in,Austin,TX,
82033,8711 Leisure Dr in,Austin,TX,
45485,7009 S Ih 35 Frontage Rd in,Austin,TX,
107750,5014 E Cesar Chavez in,Austin,TX,
79573,1213 Mathias St in,Austin,TX,
132617,3101 West Terrace Dr in,Austin,TX,
7175,1713 Valeria Street in,Austin,TX,
48872,2507 Monarch Dr in,Austin,TX,
5697,201 Reveille Rd in,Austin,TX,
108261,11209 Iron Oak Trl in,Austin,TX,
89775,6008 Fairway St in,Austin,TX,
60203,6209 Dorchester Drive in,Austin,TX,
106722,7010 Brook Valley Cir in,Austin,TX,
47412,19305 Barb Rd in,Travis,TX,
61939,15208 Wideleaf Cv in,Austin,TX,
93397,12020 Gaelic Dr in,Austin,TX,
136616,10530 Morado Cir in,Austin,TX,
41869,1170 Us 183 S in Mustang,Ridge,TX,
59600,6509 Branchwood Dr in,Austin,TX,
88733,9600 Manchaca Rd in,Austin,TX,
7124,1803 Forest Hill Dr in,Austin,TX,
83377,2101 Wickersham Ln in,Austin,TX,
70328,11805 Oak Haven Rd in,Austin,TX,
118696,14709 Round Mountain Rd in,Leander,TX,
73757,16902 Pocono Dr in,Austin,TX,
114688,5010 Goodwood in,Austin,TX,
74794,2434 Cardinal Loop in,Austin,TX,
121066,1701 Cloverleaf in,Austin,TX,
58913,4319 Terry-O Ln in,Austin,TX,
64591,3006 Pecan Springs in,Austin,TX,
64813,12109 Twin Creek in,Austin,TX,
99473,2322 E. 2Nd in,Austin,TX,
41269,14204 Jacobson in,Travis,TX,
350,6201 Wing Feather Dr in,Austin,TX,
68240,12309 Twin Creeks Rd in,Austin,TX,
77905,2503 Barton Hills Dr in,Austin,TX,
52242,9000 E 290 in,Austin,TX,
21189,6110 Kasper St. in,Austin,TX,
114863,3919 Caldwell Ln in,Travis,TX,
51967,3201 Jack Cook Dr. Aide A in,Austin,TX,
70815,1129 Wigwam Circle in,Leander,TX,
45290,524 Natalie in,Austin,TX,
40334,3713 Tudor Blvd in,Austin,TX,
7683,7004 Muckender Lane in,Austin,TX,
119672,40Th & Avenue D in,Austin,TX,
86657,803 Tirado Street in,Austin,TX,
52093,9305 Bentley Garner Lane in,Austin,TX,
63261,7001 S Congress Ave in,Austin,TX,
73954,753 Montopolis Dr in,Austin,TX,
96218,1417 Darjeeling Dr in,Pflugerville,TX,
129175,6934 East Ben White Boulevard in,Austin,TX,
77569,515 Meadow Oaks Drive in,Austin,TX,
7262,12405 Alameda Trace Cir in,Austin,TX,
22895,9002 Hunters Trace in,Austin,TX,
51590,1901 Anderson Ln in,Austin,TX,
10104,9502 Capital View Dr in,Austin,TX,
56224,1601 E Slaughter Ln #514 in,Austin,TX,
73799,9300 North Gate Blvd in,Austin,TX,
5959,7212 Ondantra Bend in,Austin,TX,
15631,11113 Chatam Berry in,Austin,TX,
51713,8711 Texas Sun Dr in,Austin,TX,
56090,3203 Cherrywood Road in,Austin,TX,
57030,6610 Betty Scott Dr in,Austin,TX,
65049,5500 Winoward Dr in,Austin,TX,
140565,3501 S 1St St in,Austin,TX,
99847,2606 Enfield Road in,Austin,TX,
3861,9705 Criswell in,Travis,TX,
42242,1602 Citation Dr in Del,Valle,TX,
53265,14408 Sandifer St in,Austin,TX,
82175,2405 New York Dr in,Austin,TX,
9936,9816 Bundoran in,Austin,TX,
138945,12124 Loma Vista Cir in,Austin,TX,
50052,"11701, Unit 113 in",Austin,TX,
29656,11701 Metric Blvd Unit 113 in,Austin,TX,
86702,4000 Shaw Rd in,Travis,TX,
44533,1614 Chippeway in,Austin,TX,
103079,12808 Cedar St in,Travis,TX,
21771,15801 Fm 2769 in,Travis,TX,
76801,9928 Wading Pool Path in,Austin,TX,
32458,2706 Channing Circle in,Austin,TX,
84274,1702 Ferguson Ln in,Austin,TX,
115862,8525 N Capital Of Tx Hwy in,Austin,TX,
71493,23808 Elm Drive in,Travis,TX,
142697,1800 Miami Dr in,Travis,TX,
70220,3008 Yellowpine Ter in,Austin,TX,
64877,7011 Mcneil Dr in,Austin,TX,
38631,15500 Sun Light Near Way in,Travis,TX,
13223,2700 S Lamar in,Austin,TX,
31112,13021 Dessau Road in,Austin,TX,
6935,1104 Folts Ave in,Austin,TX,
15957,909 Sirocco Dr in,Austin,TX,
91309,4220 S Ih 35 Frontage Rd in,Austin,TX,
95880,11719 Schiber Rd in Mustang,Ridge,TX,
75149,5207 Woodland Oaks in,Austin,TX,
19331,19089 Lakehurst Loop in,Travis,TX,
57386,2301 Laramie in,Austin,TX,
25799,15000 Ranch Rd 620 N in,Austin,TX,
90380,11205 Harris Branch Pkwy in,Austin,TX,
12084,8732 N Lamar Blvd in,Austin,TX,
46762,904 Gullet St in,Austin,TX,
39073,335 Cypress Creek Rd in,Travis,TX,
39786,4401 E St Elmo Rd in,Austin,TX,
6226,13740 Lampting in,Travis,TX,
59083,2601 S. Pleasant Valley in,Austin,TX,
7152,7221 Hillcroft Dr in,Austin,TX,
23723,9902 Plover in,Austin,TX,
91495,306 E Powell Ln in,Austin,TX,
66544,8815 Lanna Bluff Loop in,Austin,TX,
137857,21962 Ann Showers Dr in,Travis,TX,
15931,11369 Mountain Top in,Travis,TX,
93620,709 E Ben White Blvd in,Austin,TX,
5295,1005 Springdale in,Austin,TX,
48829,9500 Metric Blvd in,Austin,TX,
27526,12804 Ranft Cv in Del,Valle,TX,
94159,10937 Sly Beaver Dr in,Austin,TX,
122789,2130 Guadalupe St in,Austin,TX,
33469,10309 Annie Oakley Trl in,Austin,TX,
80458,200 S Congress in,Austin,TX,
8645,6110 Calmar Cv in,Austin,TX,
59811,1811 Airport Blvd in,Austin,TX,
12722,18024 Aleppo Pine Trl in,Travis,TX,
62673,3840 Far West Blvd in,Austin,TX,
126259,2403 Citation Dr in,Travis,TX,
16045,7619 Scenic Brook in,Austin,TX,
78910,5201 W. Parmer Lane in,Austin,TX,
10534,4319 Terry-O Lane in,Austin,TX,
86409,5300 Gregg Ln in,Travis,TX,
15998,1704 Citation Dr in,Austin,TX,
7208,12309 Turtleback Ln in,Austin,TX,
94193,1912 E William Cannon in,Austin,TX,
116067,7Th And Robert Martinez in,Austin,TX,
18171,3421 Alleyton Dr in,Austin,TX,
102797,811 W Slaughter in,Austin,TX,
108598,1712 Bouldin Ave in,Austin,TX,
94981,7088 E William Cannon Dr in,Austin,TX,
97820,1315 S Congress Ave in,Austin,TX,
127747,2703 Channing Cir in,Austin,TX,
46783,1205 Gazania Dr in,Pflugerville,TX,
112549,2628 Piping Rock in,Austin,TX,
29270,14815 Avery Ranch in,Austin,TX,
32524,7601 Old Lockhart Rd in,Travis,TX,
125736,2911 Rogge Ln in,Austin,TX,
119723,4801 Plaza On The Lake in,Austin,TX,
121831,6202 Granite Trl in,Austin,TX,
54178,3401 Burleson Rd in,Austin,TX,
115514,12805 Covington in,Austin,TX,
129063,11030 Hard Rock Rd in Lago,Vista,TX,
126867,1400 Spyglass Dr in,Austin,TX,
114182,14312 Hunters Bend in,Austin,TX,
62440,5800 W Slaughter Ln in,Austin,TX,
14543,1249 S Dunlap Rd in,Austin,TX,
8829,10300 Stubble Quail Dr in,Austin,TX,
60673,12100 Us 290 in,Manor,TX,
56652,9010 N Ih 35 in,Austin,TX,
128837,2407 Canterbury St in,Austin,TX,
114097,510 E St Elmo Rd in,Austin,TX,
114696,12201 Von Quintus Rd in,Austin,TX,
128484,12201 Von Quintus in,Austin,TX,
69064,3801 S Lamar Blvd in,Austin,TX,
8247,8712 Old Manor in,Austin,TX,
64281,110 Bolles Cir in,Austin,TX,
69512,13300 Piland Triangle in,Travis,TX,
2972,3010 Garden Villa Ln in,Austin,TX,
126647,1133 Poquito St in,Austin,TX,
91359,5211 Medford Dr in,Austin,TX,
118442,21940 Ann Showers Dr in,Travis,TX,
64816,7602 Ingrid Dr in,Travis,TX,
70242,10550 Maha Circle in,Austin,TX,
23263,11902 N Ih 35 in,Austin,TX,
96168,7805 Coldstream in,Austin,TX,
114107,306 Oak Plz in,Austin,TX,
32265,5511 Dunlap Rd in,Austin,TX,
100030,1201 Metric Blvd in,Austin,TX,
89853,29Th And Pearl St in,Austin,TX,
23568,1711 Burton Dr in,Austin,TX,
77646,2108 Charlotte Estates in,Austin,TX,
70223,7602 Reed Drive in,Travis,TX,
9248,14300 Tandem Blvd in,Travis,TX,
58584,1105 Ebert Ave in,Austin,TX,
4616,19004 Fm 973 in,Travis,TX,
170,7200 East Riverside in,Austin,TX,
47628,7204 Lazy Creek in,Austin,TX,
95982,7315 Moon Rock in,Austin,TX,
141855,14407 Celestial Ln in,Pflugerville,TX,
71194,290 And Hwy 183 in,Austin,TX,
98983,183 And Airport Blvd in,Austin,TX,
13181,12411 Lowden Ln in,Travis,TX,
38861,8405 Bee Caves Rd # 1521 in,Austin,TX,
119132,701 Co Rd 290 in,Leander,TX,
25524,13201 N Fm 620 in,Austin,TX,
94880,2300 W Northloop Blvd in,Austin,TX,
20668,11908 Sunhillow Bend in,Austin,TX,
94746,1190 Airport Blvd in,Austin,TX,
10333,5700 N Interstate 35 Frontage Rd in,Austin,TX,
106718,14807 E 290 in,Travis,TX,
140759,15116 1825 Rd in,Travis,TX,
81186,4416 Bucks Run in,Austin,TX,
30591,3101 Shorline Dr in,Austin,TX,
31232,4424 Gaines Ranch Loop in,Austin,TX,
9820,8904 Tronewood Drive in,Austin,TX,
107433,6836 Bee Caves in,Travis,TX,
92738,13600 Glen Creek in,Travis,TX,
96388,1005 E Stassney Ln in,Austin,TX,
103868,5000 N Ih35 in,Austin,TX,
1171,12416 Cielo Grande St in Del,Valle,TX,
18235,1710 E Oltorf St in,Austin,TX,
82074,801 W. 5Th St in,Austin,TX,
50716,5204 Ranch Rd 2222 in,Austin,TX,
34315,7505 Creston Ln in,Austin,TX,
142536,1808 Deloney St in,Austin,TX,
45448,8201 E Riverside in,Austin,TX,
10097,13117 Billiem Dr in,Austin,TX,
132080,22601 Deedra Dr in,Travis,TX,
113504,158 Point Dr in Del,Valle,TX,
97357,1105 Ctrown Oaks Dr in,Austin,TX,
26542,8988 Elroy Rd #5A in Del,Valle,TX,
8311,6800 Nbroad Brook in,Austin,TX,
116968,2609 Rosewood Dr in,Austin,TX,
97146,2425 E. Riverside Dr in,Austin,TX,
80241,12307 Von Quintus Rd in,Travis,TX,
4778,2100 Block Of Boca Raton in,Austin,TX,
103521,3101 W Terrace in,Austin,TX,
50351,2210 W 35Th St in,Austin,TX,
82311,410 Blu Valley in,Austin,TX,
129225,2015 S Ih 35 Frontage Rd in,Austin,TX,
129513,1602 Citation Dr in,Travis,TX,
6343,5205 Spring Meadow Rd A in,Austin,TX,
98857,13309 Vizquel Loop in,Austin,TX,
92809,11521 N Fm 620 in,Austin,TX,
141267,11712 Upland Ridge Rd in,Austin,TX,
17281,3001 Medical Arts St in,Austin,TX,
110875,2301 S Congress Ave #27 in,Austin,TX,
123037,422 Riverside in,Austin,TX,
65378,4609 Esper Ln in,Austin,TX,
120832,12317 Paloma Blanca Way in,Austin,TX,
81664,5811 Melody Ln in,Austin,TX,
110126,2815 E Hwy 71 #3 in Del,Valle,TX,
141607,11509 Guernsey Dr in,Austin,TX,
123695,24607 Long Hollow in,Travis,TX,
5362,5055 Texas 71 in Del,Valle,TX,
2905,6204 Tupelo Dr in,Austin,TX,
121005,21521 Coyote Trail in,Travis,TX,
57313,11752 Von Quintus Dr in,Austin,TX,
34063,9300 South Ih35 in,Austin,TX,
49947,3204 Manchaca Rd in,Austin,TX,
395,116 E Parsons St in,Austin,TX,
82022,8413 Elroy in Del,Valle,TX,
125608,10000 David Moore Dr in,Austin,TX,
117253,609 Harthan St in,Austin,TX,
53531,7100 Whispering Winds in,Austin,TX,
79372,21327 Blake Manor Rd in,Travis,TX,
68397,1506 Estrellas Drive in Del,Valle,TX,
131469,1524 S Ih 35 Svrd Sb in,Austin,TX,
4627,6204 Tupelo in,Austin,TX,
85931,9300 Farm To Market 2244 in,Austin,TX,
25758,1951 E Oltorf St in,Austin,TX,
44448,11803 Pollyanna Ave in,Austin,TX,
49430,1907 E 13Th in,Austin,TX,
11788,5017 Heflin Ln in,Austin,TX,
137601,1105 Crown Ridge Path in,Austin,TX,
100783,11804 Dunfries Ln in,Austin,TX,
99059,12103 Tweed Ct in,Austin,TX,
15817,3101 West Terrace in,Austin,TX,
141451,15232 N Interstate Hwy 35 in,Austin,TX,
10734,13712 Fm 969 in,Travis,TX,
120054,9804 Chukar Cir in,Austin,TX,
74932,6113 Turtle Dove Dr in,Austin,TX,
52750,4319 Terry O Ln in,Austin,TX,
74955,7024 Quinton Dr in,Austin,TX,
7660,6901 Aries Ln in,Austin,TX,
3909,2000 Millay Dr in,Austin,TX,
7353,7217 Apperson St in Del,Valle,TX,
127447,18200 Canopy Ln in,Travis,TX,
105816,10730 I 35 in,Austin,TX,
9813,7301 N Ranch Rd 620 in,Austin,TX,
82184,2504 Stratford Dr in,Austin,TX,
32337,12705 New Katy Ln in,Manor,TX,
54443,1406 Greenwood Ave in,Austin,TX,
105780,3805 Prairie Ln in,Travis,TX,
58334,17824 Powder Creek Dr in,Manor,TX,
96162,4511 Highway 71 in,Travis,TX,
48643,3002 Webberville Rd in,Austin,TX,
55266,10614 Macmora Rd in,Austin,TX,
92960,9602 N Interstate 35 Frontage Rd in,Austin,TX,
83959,6611 S Mopac Expy in,Austin,TX,
22768,3306 Denver St in,Austin,TX,
71682,915 Keith Ln in,Austin,TX,
14600,5400 Brodie Ln in,Austin,TX,
80273,5211 Cameron Road in,Austin,TX,
17694,2811 E 2Nd St in,Austin,TX,
96,7001 South Congress Avenue in,Austin,TX,
22000,11212 N Ih 35 in,Austin,TX,
40401,4200 I-35 S in,Austin,TX,
30728,10400 Margra Ln in,Austin,TX,
111556,11211 Research Blvd in,Austin,TX,
64891,10714 San Jose in,Travis,TX,
39233,290 & Arterial 8 in,Austin,TX,
105891,6107 Provencial Cove in,Austin,TX,
15345,8212 Bagby in,Austin,TX,
63733,5704 Melody Ln in,Austin,TX,
50803,5000 S Ih 35 Frontage Rd in,Austin,TX,
120589,4514 West Gate Blvd in,Austin,TX,
95696,4701 Blueberry Trl in,Austin,TX,
31320,12300 Riata Trace in,Austin,TX,
92796,7902 Lawndale Dr in,Austin,TX,
47890,1502 Sharps Rd in,Austin,TX,
91009,12341 County Line Rd in,Manor,TX,
36606,5810 Steven Creek Way in,Austin,TX,
13208,6604 Circulo De Amistad in,Austin,TX,
58736,3931 Leafield Ave in,Austin,TX,
24861,1615 Crozier Ln in Del,Valle,TX,
135299,4210 Turnersville Rd in,Travis,TX,
51992,6600 Bluff Springs in,Austin,TX,
13463,8300 Peaceful Hill Ln in,Austin,TX,
22649,6106 Kasper St in,Austin,TX,
97134,6801 De Paul Cove in,Austin,TX,
70390,2913 Regents Park in,Austin,TX,
122376,905 Bed Ford in,Austin,TX,
29985,15500 Imperial Jade Dr in,Austin,TX,
42199,6113 Wideleaf Dr in,Travis,TX,
30853,2408 W 8Th St in,Austin,TX,
90667,450 Torrington Drive in,Austin,TX,
21889,10701 S Ih 35 in,Austin,TX,
49137,11600 February Drive in,Austin,TX,
43915,6112 Speyside in,Austin,TX,
44737,3307 Blumie St in,Austin,TX,
127940,5705 Caroline Ln in,Austin,TX,
63832,12815 Magnolia Mound Trl in,Austin,TX,
24124,101 E Rector St in,Manor,TX,
106541,12609 Dessau Rd #478 in,Austin,TX,
89348,8409 Forest Heights Lane in,Austin,TX,
106317,331 Watts Lane Cedar Creek in,Austin,TX,
10405,13812 Field Spar Dr in,Travis,TX,
17298,5409 Falling Leaf Ln in,Austin,TX,
68949,5806 Encinal Cv in,Austin,TX,
124224,1000 Creekbend Drive in,Pflugerville,TX,
4653,2104 Anderson Ln in,Austin,TX,
82106,2205 Quana Parker Trl in,Austin,TX,
87792,9200 North Plaza #2804 in,Austin,TX,
7664,5805 Whitebrook in,Austin,TX,
59203,82505 Cecil Dr in,Austin,TX,
18852,2215 Townlake Circle in,Austin,TX,
128094,2121 Parmer Ln in,Austin,TX,
14734,6420 Clay Allison Pass in,Austin,TX,
13465,19704 Hogeye Rd in,Travis,TX,
93514,3305 Bengston St in,Austin,TX,
86147,3005 S Lamar in,Austin,TX,
66247,2644 Gwendolyn Ln in,Austin,TX,
140709,10700 Anderson Mill in,Austin,TX,
117870,7818 Fm973 in,Austin,TX,
125112,201 E Boyce St in,Manor,TX,
28435,612 Colonial Park Blvd in,Austin,TX,
91091,6301 Levander Loop in,Austin,TX,
2417,1608 E 3Rd St in,Austin,TX,
84885,2008 Leeann Dr in,Austin,TX,
96519,2510 Onion Creek Pkwy in,Austin,TX,
133186,2720 Lyons Rd in,Austin,TX,
2683,11505 Anderson Mill Rd in,Austin,TX,
68120,11506 Swearingen Dr in,Austin,TX,
136378,8802 Thurnderbird Rd in,Austin,TX,
101862,4200 Verano in,Travis,TX,
508,21312 Greenridge Terrace in,Austin,TX,
111265,12126 Hunters Chase Dr in,Austin,TX,
20834,12225 Buzz Schneider Ln in,Austin,TX,
58014,4501 E Ben White Blvd in,Austin,TX,
23051,8929 N Lamar in,Austin,TX,
42805,8603 Fireside Dr in,Austin,TX,
73107,6010 Wagon Bend Trl in,Austin,TX,
124667,5504 Arbor Ash Ct in,Austin,TX,
51628,1315 Herathstone in,Austin,TX,
26444,1201 West Live Oak St in,Austin,TX,
124064,12702 Transit Cove in,Austin,TX,
50878,1009 Matthews Ln in,Austin,TX,
13116,133 Hergotz Ln in,Austin,TX,
1988,4611 Cedargrove Dr in,Austin,TX,
960,7322 Dixie in,Austin,TX,
107739,6304 Highsite Dr in,Austin,TX,
143158,11808 Ring Dr in,Manor,TX,
7558,3418 Galesburg in,Austin,TX,
42778,4905 Fontenay in,Austin,TX,
80110,12621 Hymeadow in,Austin,TX,
75500,4924 Craigwood And Fm 969 in,Austin,TX,
38460,12621 Hymeadow Unit 318 in,Austin,TX,
7736,12800 Ring Dr in,Manor,TX,
118169,2406 Bitter Creek Dr in,Austin,TX,
9686,2310 E 9Th St in,Austin,TX,
47894,11160 Jollyville Ln in,Austin,TX,
107898,900 Airoso Cove in,Austin,TX,
399,19304 Black Manor Rd in,Travis,TX,
30765,300 W Anderson Ln in,Austin,TX,
16354,10190 N Ranch Rd 620 in,Austin,TX,
34612,7104 Northeast Dr in,Austin,TX,
21711,5820 Abby Ann Ln in,Austin,TX,
46367,9009 Sawtooth Ln #A in,Austin,TX,
23912,5301 Harold Ct in,Austin,TX,
134135,1005 Fairmont in,Austin,TX,
18875,12239 Mosley Ln in,Austin,TX,
36814,5621 Signal Point in,Austin,TX,
91908,18107 Gregg Bluff Rd in,Jonestown,TX,
129976,3411 Tilmon Ln in,Austin,TX,
86322,12345 Alameda Trace Circle in,Austin,TX,
56022,4402 Nixon Lane in,Austin,TX,
81061,3400 South Congress in,Austin,TX,
122295,6400 Sandshof Drive in,Austin,TX,
112017,13021 Dessau Rd Unit 342 in,Travis,TX,
121926,3401 Grimes Ranch in,Austin,TX,
12479,100 N Pleasant Valley Rd in,Austin,TX,
109788,1300 Crossing Place Unit 3714 in,Austin,TX,
122319,6Th St & Guadalupe St in,Austin,TX,
48218,14701 Branding Iron Pass in,Travis,TX,
66969,969 And N Fm Rd 973 in,Austin,TX,
88728,1601 E Slaughter Ln #6 in,Austin,TX,
99795,2815 Hwy 71 in,Austin,TX,
133517,2208 E 18Th St in,Austin,TX,
138890,15835 Foothill Farms Loop in,Travis,TX,
121751,6016 York Bridge Cir in,Austin,TX,
108810,4511 Tx 71 in Del,Valle,TX,
130315,8305 Nicola Trl in,Austin,TX,
43596,1712 Rutland in,Austin,TX,
106544,2806 Nueces St in,Austin,TX,
89472,8807 Piney Point Dr in,Austin,TX,
58803,9118 Sedgemoor Trl in,Austin,TX,
54265,2312 San Gabriel in,Austin,TX,
44752,904 E 56Th St in,Austin,TX,
44960,800 Valleyfield Dr in,Austin,TX,
118123,7100 Us-290 in,Austin,TX,
104860,715 Morning Dove Cv in,Travis,TX,
12902,15700 Anderson Mill Rd in Cedar,Park,TX,
39156,1807 Mearns Meadow Dr Unit A in,Austin,TX,
11791,10200 Amber Oak Cv in,Austin,TX,
74205,4611 Franklin Park Dr in,Austin,TX,
130393,2115 Lou Neff Rd in,Austin,TX,
72549,11706 Hilltop St in,Austin,TX,
105874,8605 Shoal Creek Blvd in,Austin,TX,
125628,17605 Strontian in,Travis,TX,
2121,812 And Circuit Of The Americas Blvd in,Travis,TX,
1978,4701 Bucks Run in,Austin,TX,
66597,11209 Us-290 in,Manor,TX,